id;name;country_id;country_code;state_code;latitude;longitude
191;Nairobi;113;KE;110;-1.2920659;36.8219462
203;Nakuru District;113;KE;31;-0.3030988;36.080026
165;Nandi District;113;KE;32;0.1835867;35.1268781
175;Narok County;113;KE;33;-1.104111;36.0893406
162;North Eastern Province;113;KE;500;7.7853051;81.4278984
209;Nyamira District;113;KE;34;-0.5669405;34.9341234
192;Nyandarua County;113;KE;35;-0.1803855;36.5229641
204;Nyanza Province;113;KE;600;-0.0889894;34.7717912
180;Nyeri County;113;KE;36;-0.4196915;37.0400339
179;Rift Valley Province;113;KE;700;11.4098737;41.2808577
207;Samburu County;113;KE;37;1.2154506;36.954107
186;Siaya County;113;KE;38;-0.0617328;34.2421597
176;Taita–Taveta County;113;KE;39;-3.3160687;38.4849923
205;Tana River County;113;KE;40;-1.6518468;39.6518165
185;Tharaka Nithi County;113;KE;41;-0.2964851;37.7237678
183;Trans-Nzoia District;113;KE;42;1.0566667;34.9506625
206;Turkana County;113;KE;43;3.3122477;35.5657862
169;Uasin Gishu District;113;KE;44;0.5527638;35.3027226
202;Vihiga District;113;KE;45;0.0767553;34.7077665
182;Wajir County;113;KE;46;1.6360475;40.3088626
208;West Pokot County;113;KE;47;1.6210076;35.3905046
177;Western Province;113;KE;800;0;0
1831;Gilbert Islands;114;KI;G;0.3524262;174.7552634
1832;Line Islands;114;KI;L;1.7429439;-157.2132826
1830;Phoenix Islands;114;KI;P;33.3284369;-111.9824774
3998;Chagang Province;115;KP;04;40.7202809;126.5621137
3999;Kangwon Province;115;KP;07;38.8432393;127.5597067
3995;North Hamgyong Province;115;KP;09;41.8148758;129.4581955
4004;North Hwanghae Province;115;KP;06;38.3786085;126.4364363
4002;North Pyongan Province;115;KP;03;39.9255618;125.3928025
4005;Pyongyang;115;KP;01;39.0392193;125.7625241
4001;Rason;115;KP;13;42.2569063;130.2977186
3996;Ryanggang Province;115;KP;10;41.2318921;128.5076359
4000;South Hamgyong Province;115;KP;08;40.3725339;128.298884
4003;South Hwanghae Province;115;KP;05;38.2007215;125.4781926
3997;South Pyongan Province;115;KP;02;39.3539178;126.168271
3860;Busan;116;KR;26;35.1795543;129.0756416
3846;Daegu;116;KR;27;35.8714354;128.601445
3850;Daejeon;116;KR;30;36.3504119;127.3845475
3862;Gangwon Province;116;KR;42;37.8228;128.1555
3858;Gwangju;116;KR;29;35.1595454;126.8526012
3847;Gyeonggi Province;116;KR;41;37.4138;127.5183
3848;Incheon;116;KR;28;37.4562557;126.7052062
3853;Jeju;116;KR;49;33.9568278;-84.13135
3854;North Chungcheong Province;116;KR;43;36.8;127.7
3855;North Gyeongsang Province;116;KR;47;36.4919;128.8889
3851;North Jeolla Province;116;KR;45;35.7175;127.153
3861;Sejong City;116;KR;50;34.0523323;-118.3084897
3849;Seoul;116;KR;11;37.566535;126.9779692
3859;South Chungcheong Province;116;KR;44;36.5184;126.8
3857;South Gyeongsang Province;116;KR;48;35.4606;128.2132
3856;South Jeolla Province;116;KR;46;34.8679;126.991
3852;Ulsan;116;KR;31;35.5383773;129.3113596
4876;Đakovica District (Gjakove);248;XK;XDG;42.4375756;20.3785438
4877;Gjilan District;248;XK;XGJ;42.4635206;21.4694011
4878;Kosovska Mitrovica District;248;XK;XKM;42.8913909;20.8659995
3738;Peć District;248;XK;XPE;42.6592155;20.2887624
4879;Pristina (Priştine);248;XK;XPI;42.6629138;21.1655028
3723;Prizren District;248;XK;XPR;42.2152522;20.7414772
4874;Uroševac District (Ferizaj);248;XK;XUF;42.3701844;21.1483281
977;Al Ahmadi Governorate;117;KW;AH;28.5745125;48.1024743
975;Al Farwaniyah Governorate;117;KW;FA;29.273357;47.9400154
972;Al Jahra Governorate;117;KW;JA;29.9931831;47.7634731
976;Capital Governorate;117;KW;KU;26.2285161;50.5860497
973;Hawalli Governorate;117;KW;HA;29.3056716;48.0307613
974;Mubarak Al-Kabeer Governorate;117;KW;MU;29.21224;48.0605108
998;Batken Region;118;KG;B;39.9721425;69.8597406
1001;Bishkek;118;KG;GB;42.8746212;74.5697617
1004;Chuy Region;118;KG;C;42.5655;74.4056612
1002;Issyk-Kul Region;118;KG;Y;42.1859428;77.5619419
1000;Jalal-Abad Region;118;KG;J;41.106808;72.8988069
999;Naryn Region;118;KG;N;41.2943227;75.3412179
1003;Osh;118;KG;GO;36.0631399;-95.9182895
1005;Osh Region;118;KG;O;39.8407366;72.8988069
997;Talas Region;118;KG;T;42.2867339;72.5204827
982;Attapeu Province;119;LA;AT;14.93634;107.1011931
991;Bokeo Province;119;LA;BK;20.2872662;100.7097867
985;Bolikhamsai Province;119;LA;BL;18.4362924;104.4723301
996;Champasak Province;119;LA;CH;14.6578664;105.9699878
989;Houaphanh Province;119;LA;HO;20.3254175;104.1001326
986;Khammouane Province;119;LA;KH;17.6384066;105.2194808
992;Luang Namtha Province;119;LA;LM;20.9170187;101.1617356
978;Luang Prabang Province;119;LA;LP;20.0656229;102.6216211
988;Oudomxay Province;119;LA;OU;20.4921929;101.8891721
987;Phongsaly Province;119;LA;PH;21.5919377;102.2547919
993;Sainyabuli Province;119;LA;XA;19.3907886;101.5248055
981;Salavan Province;119;LA;SL;15.8171073;106.2522143
990;Savannakhet Province;119;LA;SV;16.5065381;105.5943388
984;Sekong Province;119;LA;XE;15.5767446;107.0067031
979;Vientiane Prefecture;119;LA;VT;18.110541;102.5298028
980;Vientiane Province;119;LA;VI;18.5705063;102.6216211
994;Xaisomboun;119;LA;XN;0;0
983;Xaisomboun Province;119;LA;XS;18.4362924;104.4723301
995;Xiangkhouang Province;119;LA;XI;19.6093003;103.7289167
4445;Aglona Municipality;120;LV;001;56.1089006;27.1286227
4472;Aizkraukle Municipality;120;LV;002;56.646108;25.2370854
4496;Aizpute Municipality;120;LV;003;56.7182596;21.6072759
4499;Aknīste Municipality;120;LV;004;56.1613037;25.7484827
4484;Aloja Municipality;120;LV;005;57.767136;24.8770839
4485;Alsunga Municipality;120;LV;006;56.9828531;21.5555919
4487;Alūksne Municipality;120;LV;007;57.4254485;27.0424968
4497;Amata Municipality;120;LV;008;56.9938726;25.2627675
4457;Ape Municipality;120;LV;009;57.5392697;26.6941649
4481;Auce Municipality;120;LV;010;56.460168;22.9054781
4427;Babīte Municipality;120;LV;012;56.954155;23.945399
4482;Baldone Municipality;120;LV;013;56.74246;24.3911544
4498;Baltinava Municipality;120;LV;014;56.9458468;27.6441066
4505;Balvi Municipality;120;LV;015;57.132624;27.2646685
4465;Bauska Municipality;120;LV;016;56.4101868;24.2000689
4471;Beverīna Municipality;120;LV;017;57.5197109;25.6073654
4468;Brocēni Municipality;120;LV;018;56.7347541;22.6357371
4411;Burtnieki Municipality;120;LV;019;57.6949004;25.2764777
4454;Carnikava Municipality;120;LV;020;57.1024121;24.2108662
4469;Cēsis Municipality;120;LV;022;57.3102897;25.2676125
4414;Cesvaine Municipality;120;LV;021;56.9679264;26.3083172
4410;Cibla Municipality;120;LV;023;56.6102344;27.8696598
4504;Dagda Municipality;120;LV;024;56.0956089;27.532459
4463;Daugavpils;120;LV;DGV;55.874736;26.536179
4492;Daugavpils Municipality;120;LV;025;55.8991783;26.6102012
4437;Dobele Municipality;120;LV;026;56.626305;23.2809066
4428;Dundaga Municipality;120;LV;027;57.5049167;22.3505114
4458;Durbe Municipality;120;LV;028;56.6279857;21.4916245
4448;Engure Municipality;120;LV;029;57.16235;23.2196634
4444;Ērgļi Municipality;120;LV;030;56.9237065;25.6753852
4510;Garkalne Municipality;120;LV;031;57.0190387;24.3826181
4470;Grobiņa Municipality;120;LV;032;56.539632;21.166892
4400;Gulbene Municipality;120;LV;033;57.2155645;26.6452955
4441;Iecava Municipality;120;LV;034;56.5986793;24.1996272
4511;Ikšķile Municipality;120;LV;035;56.8373667;24.4974745
4399;Ilūkste Municipality;120;LV;036;55.9782547;26.2965088
4449;Inčukalns Municipality;120;LV;037;57.0994342;24.685557
4475;Jaunjelgava Municipality;120;LV;038;56.5283659;25.3921443
4407;Jaunpiebalga Municipality;120;LV;039;57.1433471;25.9951888
4489;Jaunpils Municipality;120;LV;040;56.7314194;23.0125616
4464;Jēkabpils;120;LV;JKB;56.501455;25.878299
4438;Jēkabpils Municipality;120;LV;042;56.291932;25.9812017
4500;Jelgava;120;LV;JEL;56.6511091;23.7213541
4424;Jelgava Municipality;120;LV;041;56.5895689;23.6610481
4446;Jūrmala;120;LV;JUR;56.947079;23.6168485
4420;Kandava Municipality;120;LV;043;57.0340673;22.7801813
4453;Kārsava Municipality;120;LV;044;56.7645842;27.7358295
4412;Ķegums Municipality;120;LV;051;56.7475357;24.7173645
4435;Ķekava Municipality;120;LV;052;56.8064351;24.1939493
4495;Kocēni Municipality;120;LV;045;57.5226292;25.3349507
4452;Koknese Municipality;120;LV;046;56.720556;25.4893909
4474;Krāslava Municipality;120;LV;047;55.8951464;27.1814577
4422;Krimulda Municipality;120;LV;048;57.1791273;24.7140127
4413;Krustpils Municipality;120;LV;049;56.5415578;26.2446397
4490;Kuldīga Municipality;120;LV;050;56.9687257;21.9613739
4512;Lielvārde Municipality;120;LV;053;56.7392976;24.9711618
4460;Liepāja;120;LV;LPX;56.5046678;21.010806
4488;Līgatne Municipality;120;LV;055;57.1944204;25.0940681
4418;Limbaži Municipality;120;LV;054;57.5403227;24.7134451
4401;Līvāni Municipality;120;LV;056;56.3550942;26.172519
4419;Lubāna Municipality;120;LV;057;56.8999269;26.7198789
4501;Ludza Municipality;120;LV;058;56.545959;27.7143199
4433;Madona Municipality;120;LV;059;56.8598923;26.2276201
4461;Mālpils Municipality;120;LV;061;57.0084119;24.9574278
4450;Mārupe Municipality;120;LV;062;56.8965717;24.0460049
4513;Mazsalaca Municipality;120;LV;060;57.9267749;25.0669895
4451;Mērsrags Municipality;120;LV;063;57.3306881;23.1023707
4398;Naukšēni Municipality;120;LV;064;57.9295361;25.5119266
4432;Nereta Municipality;120;LV;065;56.1986655;25.3252969
4436;Nīca Municipality;120;LV;066;56.3464983;21.065493
4416;Ogre Municipality;120;LV;067;56.8147355;24.6044555
4417;Olaine Municipality;120;LV;068;56.7952353;24.0153589
4442;Ozolnieki Municipality;120;LV;069;56.6756305;23.8994816
4507;Pārgauja Municipality;120;LV;070;57.3648122;24.9822045
4467;Pāvilosta Municipality;120;LV;071;56.8865424;21.1946849
4405;Pļaviņas Municipality;120;LV;072;56.6177313;25.7194043
4483;Preiļi Municipality;120;LV;073;56.1511157;26.7439767
4429;Priekule Municipality;120;LV;074;56.4179413;21.5503336
4506;Priekuļi Municipality;120;LV;075;57.3617138;25.4410423
4479;Rauna Municipality;120;LV;076;57.331693;25.6100339
4509;Rēzekne;120;LV;REZ;56.5099223;27.3331357
4455;Rēzekne Municipality;120;LV;077;56.3273638;27.3284331
4502;Riebiņi Municipality;120;LV;078;56.343619;26.8018138
4491;Riga;120;LV;RIX;56.9496487;24.1051865
4440;Roja Municipality;120;LV;079;57.5046713;22.8012164
4493;Ropaži Municipality;120;LV;080;56.9615786;24.6010476
4503;Rucava Municipality;120;LV;081;56.1593124;21.1618121
4423;Rugāji Municipality;120;LV;082;57.0056023;27.1317203
4426;Rūjiena Municipality;120;LV;084;57.8937291;25.3391008
4404;Rundāle Municipality;120;LV;083;56.409721;24.0124139
4434;Sala Municipality;120;LV;085;59.9679613;16.4978217
4396;Salacgrīva Municipality;120;LV;086;57.7580883;24.3543181
4402;Salaspils Municipality;120;LV;087;56.8608152;24.3497881
4439;Saldus Municipality;120;LV;088;56.6665088;22.4935493
4443;Saulkrasti Municipality;120;LV;089;57.2579418;24.4183146
4408;Sēja Municipality;120;LV;090;57.2006995;24.5922821
4476;Sigulda Municipality;120;LV;091;57.1055092;24.8314259
4415;Skrīveri Municipality;120;LV;092;56.6761391;25.0978849
4447;Skrunda Municipality;120;LV;093;56.6643458;22.0045729
4462;Smiltene Municipality;120;LV;094;57.4230332;25.900278
4478;Stopiņi Municipality;120;LV;095;56.936449;24.2872949
4494;Strenči Municipality;120;LV;096;57.6225471;25.8048086
4459;Talsi Municipality;120;LV;097;57.3415208;22.5713125
4480;Tērvete Municipality;120;LV;098;56.4119201;23.3188332
4409;Tukums Municipality;120;LV;099;56.9672868;23.1524379
4508;Vaiņode Municipality;120;LV;100;56.4154271;21.8513984
4425;Valka Municipality;120;LV;101;57.77439;26.017005
4473;Valmiera;120;LV;VMR;57.5384659;25.4263618
4431;Varakļāni Municipality;120;LV;102;56.6688006;26.5636414
4406;Vārkava Municipality;120;LV;103;56.2465744;26.5664371
4466;Vecpiebalga Municipality;120;LV;104;57.0603356;25.8161592
4397;Vecumnieki Municipality;120;LV;105;56.6062337;24.5221891
4421;Ventspils;120;LV;VEN;57.3937216;21.5647066
4403;Ventspils Municipality;120;LV;106;57.2833682;21.8587558
4456;Viesīte Municipality;120;LV;107;56.3113085;25.5070464
4477;Viļaka Municipality;120;LV;108;57.1722263;27.6673188
4486;Viļāni Municipality;120;LV;109;56.5456171;26.9167927
4430;Zilupe Municipality;120;LV;110;56.3018985;28.133959
2285;Akkar Governorate;121;LB;AK;34.5328763;36.1328132
2283;Baalbek-Hermel Governorate;121;LB;BH;34.2658556;36.3498097
2286;Beirut Governorate;121;LB;BA;33.8886106;35.4954772
2287;Beqaa Governorate;121;LB;BI;33.8462662;35.9019489
2282;Mount Lebanon Governorate;121;LB;JL;33.8100858;35.5973139
2288;Nabatieh Governorate;121;LB;NA;33.3771693;35.4838293
2284;North Governorate;121;LB;AS;34.4380625;35.8308233
2281;South Governorate;121;LB;JA;33.2721479;35.2032778
3030;Berea District;122;LS;D;41.3661614;-81.8543026
3029;Butha-Buthe District;122;LS;B;-28.7653754;28.2468148
3026;Leribe District;122;LS;C;-28.8638065;28.0478826
3022;Mafeteng District;122;LS;E;-29.8041008;27.5026174
3028;Maseru District;122;LS;A;-29.516565;27.8311428
3023;Mohale's Hoek District;122;LS;F;-30.1425917;27.4673845
3024;Mokhotlong District;122;LS;J;-29.2573193;28.9528645
3025;Qacha's Nek District;122;LS;H;-30.1114565;28.678979
3027;Quthing District;122;LS;G;-30.4015687;27.7080133
3031;Thaba-Tseka District;122;LS;K;-29.5238975;28.6089752
3041;Bomi County;123;LR;BM;6.7562926;-10.8451467
3034;Bong County;123;LR;BG;6.8295019;-9.3673084
3044;Gbarpolu County;123;LR;GP;7.4952637;-10.0807298
3040;Grand Bassa County;123;LR;GB;6.2308452;-9.8124935
3036;Grand Cape Mount County;123;LR;CM;7.0467758;-11.0711758
3039;Grand Gedeh County;123;LR;GG;5.9222078;-8.2212979
3045;Grand Kru County;123;LR;GK;4.7613862;-8.2212979
3037;Lofa County;123;LR;LO;8.1911184;-9.7232673
3043;Margibi County;123;LR;MG;6.5151875;-10.3048897
3042;Maryland County;123;LR;MY;39.0457549;-76.6412712
3032;Montserrado County;123;LR;MO;6.5525815;-10.5296115
3046;Nimba;123;LR;NI;7.6166667;-8.4166667
3033;River Cess County;123;LR;RI;5.9025328;-9.456155
3038;River Gee County;123;LR;RG;5.2604894;-7.87216
3035;Sinoe County;123;LR;SI;5.49871;-8.6600586
2964;Al Wahat District;124;LY;WA;29.0466808;21.8568586
2981;Benghazi;124;LY;BA;32.1194242;20.0867909
2966;Derna District;124;LY;DR;32.755613;22.6377432
2969;Ghat District;124;LY;GT;24.9640371;10.1759285
2980;Jabal al Akhdar;124;LY;JA;23.1856081;57.3713879
2974;Jabal al Gharbi District;124;LY;JG;30.2638032;12.8054753
2979;Jafara;124;LY;JI;32.4525904;12.9435536
2970;Jufra;124;LY;JU;27.9835135;16.912251
2972;Kufra District;124;LY;KF;23.3112389;21.8568586
2968;Marj District;124;LY;MJ;32.0550363;21.1891151
2978;Misrata District;124;LY;MI;32.3255884;15.0992556
2961;Murqub;124;LY;MB;32.4599677;14.1001326
2967;Murzuq District;124;LY;MQ;25.9182262;13.9260001
2976;Nalut District;124;LY;NL;31.8742348;10.9750484
2962;Nuqat al Khams;124;LY;NQ;32.6914909;11.8891721
2965;Sabha District;124;LY;SB;27.0365406;14.4290236
2977;Sirte District;124;LY;SR;31.189689;16.5701927
2971;Tripoli District;124;LY;TB;32.6408021;13.2663479
2973;Wadi al Hayaa District;124;LY;WD;26.4225926;12.6216211
2975;Wadi al Shatii District;124;LY;WS;27.7351468;12.4380581
2963;Zawiya District;124;LY;ZA;32.7630282;12.7364962
458;Balzers;125;LI;01;42.0528357;-88.0366848
451;Eschen;125;LI;02;40.7669574;-73.9522821
457;Gamprin;125;LI;03;47.213249;9.5025195
455;Mauren;125;LI;04;47.2189285;9.541735
454;Planken;125;LI;05;40.6650576;-73.504798
453;Ruggell;125;LI;06;47.2529222;9.5402127
450;Schaan;125;LI;07;47.120434;9.5941602
449;Schellenberg;125;LI;08;47.230966;9.5467843
459;Triesen;125;LI;09;47.1097988;9.5248296
456;Triesenberg;125;LI;10;47.1224511;9.5701985
452;Vaduz;125;LI;11;47.1410303;9.5209277
1561;Akmenė District Municipality;126;LT;01;56.2455029;22.7471169
1605;Alytus City Municipality;126;LT;02;54.3962938;24.0458761
1574;Alytus County;126;LT;AL;54.2000214;24.1512634
1599;Alytus District Municipality;126;LT;03;54.3297496;24.1960931
1603;Birštonas Municipality;126;LT;05;54.5669664;24.0093098
1566;Biržai District Municipality;126;LT;06;56.2017719;24.7560118
1579;Druskininkai municipality;126;LT;07;53.9933685;24.0342438
1559;Elektrėnai municipality;126;LT;08;54.7653934;24.7740583
1562;Ignalina District Municipality;126;LT;09;55.4090342;26.3284893
1567;Jonava District Municipality;126;LT;10;55.0727242;24.2793337
1581;Joniškis District Municipality;126;LT;11;56.236073;23.6136579
1555;Jurbarkas District Municipality;126;LT;12;55.077407;22.7419569
1583;Kaišiadorys District Municipality;126;LT;13;54.8588669;24.4277929
1591;Kalvarija municipality;126;LT;14;54.3761674;23.1920321
1580;Kaunas City Municipality;126;LT;15;54.9145326;23.9053518
1556;Kaunas County;126;LT;KU;54.9872863;23.9525736
1565;Kaunas District Municipality;126;LT;16;54.9936236;23.6324941
1575;Kazlų Rūda municipality;126;LT;17;54.7807526;23.4840243
1584;Kėdainiai District Municipality;126;LT;18;55.3560947;23.9832683
1618;Kelmė District Municipality;126;LT;19;55.6266352;22.878172
1597;Klaipeda City Municipality;126;LT;20;55.7032948;21.1442795
1600;Klaipėda County;126;LT;KL;55.6519744;21.3743956
1604;Klaipėda District Municipality;126;LT;21;55.6841615;21.4416464
1571;Kretinga District Municipality;126;LT;22;55.883842;21.2350919
1585;Kupiškis District Municipality;126;LT;23;55.8428741;25.0295816
1611;Lazdijai District Municipality;126;LT;24;54.2343267;23.5156505
1570;Marijampolė County;126;LT;MR;54.7819971;23.1341365
1610;Marijampolė Municipality;126;LT;25;54.5711094;23.4859371
1557;Mažeikiai District Municipality;126;LT;26;56.3092439;22.341468
1582;Molėtai District Municipality;126;LT;27;55.2265309;25.4180011
1563;Neringa Municipality;126;LT;28;55.4572403;21.0839005
1612;Pagėgiai municipality;126;LT;29;55.172132;21.9683614
1595;Pakruojis District Municipality;126;LT;30;56.0732605;23.9389906
1588;Palanga City Municipality;126;LT;31;55.920198;21.0677614
1589;Panevėžys City Municipality;126;LT;32;55.7347915;24.3574774
1558;Panevėžys County;126;LT;PN;55.9748049;25.0794767
1614;Panevėžys District Municipality;126;LT;33;55.6166728;24.3142283
1616;Pasvalys District Municipality;126;LT;34;56.0604619;24.396291
1553;Plungė District Municipality;126;LT;35;55.910784;21.8454069
1578;Prienai District Municipality;126;LT;36;54.638358;23.9468009
1568;Radviliškis District Municipality;126;LT;37;55.8108399;23.546487
1587;Raseiniai District Municipality;126;LT;38;55.3819499;23.1156129
1590;Rietavas municipality;126;LT;39;55.7021719;21.9986564
1615;Rokiškis District Municipality;126;LT;40;55.9555039;25.5859249
1576;Šakiai District Municipality;126;LT;41;54.952671;23.0480199
1577;Šalčininkai District Municipality;126;LT;42;54.309767;25.387564
1609;Šiauliai City Municipality;126;LT;43;55.9349085;23.3136823
1586;Šiauliai County;126;LT;SA;55.9985751;23.1380051
1554;Šiauliai District Municipality;126;LT;44;55.9721456;23.0332371
1613;Šilalė District Municipality;126;LT;45;55.49268;22.1845559
1607;Šilutė District Municipality;126;LT;46;55.350414;21.4659859
1594;Širvintos District Municipality;126;LT;47;55.043102;24.956981
1617;Skuodas District Municipality;126;LT;48;56.2702169;21.5214331
1560;Švenčionys District Municipality;126;LT;49;55.1028098;26.0071855
1573;Tauragė County;126;LT;TA;55.3072586;22.3572939
1572;Tauragė District Municipality;126;LT;50;55.250366;22.29095
1569;Telšiai County;126;LT;TE;56.1026616;22.1113915
1608;Telšiai District Municipality;126;LT;51;55.9175215;22.345184
1593;Trakai District Municipality;126;LT;52;54.6379113;24.9346894
1596;Ukmergė District Municipality;126;LT;53;55.245265;24.7760749
1621;Utena County;126;LT;UT;55.5318969;25.7904699
1598;Utena District Municipality;126;LT;54;55.5084614;25.6832642
1602;Varėna District Municipality;126;LT;55;54.220333;24.578997
1620;Vilkaviškis District Municipality;126;LT;56;54.651945;23.035155
1606;Vilnius City Municipality;126;LT;57;54.6710761;25.2878721
1601;Vilnius County;126;LT;VL;54.8086502;25.2182139
1592;Vilnius District Municipality;126;LT;58;54.7732578;25.5867113
1564;Visaginas Municipality;126;LT;59;55.594118;26.4307954
1619;Zarasai District Municipality;126;LT;60;55.7309609;26.245295
1518;Canton of Capellen;127;LU;CA;49.6403931;5.9553846
1521;Canton of Clervaux;127;LU;CL;50.0546313;6.0285875
1513;Canton of Diekirch;127;LU;DI;49.8671784;6.1595633
1515;Canton of Echternach;127;LU;EC;49.8114133;6.4175635
1517;Canton of Esch-sur-Alzette;127;LU;ES;49.5008805;5.9860925
1525;Canton of Grevenmacher;127;LU;GR;49.680841;6.4407593
1527;Canton of Luxembourg;127;LU;LU;49.6301025;6.1520185
1522;Canton of Mersch;127;LU;ME;49.7542906;6.1292185
1516;Canton of Redange;127;LU;RD;49.76455;5.88948
1519;Canton of Remich;127;LU;RM;49.545017;6.3674222
1523;Canton of Vianden;127;LU;VD;49.9341924;6.2019917
1526;Canton of Wiltz;127;LU;WI;49.96622;5.9324306
1524;Diekirch District;127;LU;D;49.867172;6.1596362
1520;Grevenmacher District;127;LU;G;49.680851;6.4407524
1514;Luxembourg District;127;LU;L;49.5953706;6.1333178
703;Aerodrom Municipality;129;MK;01;41.9464363;21.4931713
656;Aračinovo Municipality;129;MK;02;42.0247381;21.5766407
716;Berovo Municipality;129;MK;03;41.6661929;22.762883
679;Bitola Municipality;129;MK;04;41.0363302;21.3321974
649;Bogdanci Municipality;129;MK;05;41.1869616;22.5960268
721;Bogovinje Municipality;129;MK;06;41.9236371;20.9163887
652;Bosilovo Municipality;129;MK;07;41.4904864;22.7867174
660;Brvenica Municipality;129;MK;08;41.9681482;20.9819586
694;Butel Municipality;129;MK;09;42.0895068;21.463361
704;Čair Municipality;129;MK;79;41.9930355;21.4365318
676;Čaška Municipality;129;MK;80;41.647438;21.6914115
702;Centar Municipality;129;MK;77;41.9698934;21.4216267
720;Centar Župa Municipality;129;MK;78;41.4652259;20.5930548
644;Češinovo-Obleševo Municipality;129;MK;81;41.8639316;22.262246
715;Čučer-Sandevo Municipality;129;MK;82;42.1483946;21.4037407
645;Debarca Municipality;129;MK;22;41.3584077;20.8552919
695;Delčevo Municipality;129;MK;23;41.9684387;22.762883
687;Demir Hisar Municipality;129;MK;25;41.227083;21.1414226
655;Demir Kapija Municipality;129;MK;24;41.3795538;22.2145571
697;Dojran Municipality;129;MK;26;41.2436672;22.6913764
675;Dolneni Municipality;129;MK;27;41.4640935;21.4037407
657;Drugovo Municipality;129;MK;28;41.4408153;20.9268201
707;Gazi Baba Municipality;129;MK;17;42.0162961;21.4991334
648;Gevgelija Municipality;129;MK;18;41.2118606;22.3814624
722;Gjorče Petrov Municipality;129;MK;29;42.0606374;21.3202736
693;Gostivar Municipality;129;MK;19;41.8025541;20.9089378
708;Gradsko Municipality;129;MK;20;41.5991608;21.8807064
684;Greater Skopje;129;MK;85;41.9981294;21.4254355
690;Ilinden Municipality;129;MK;34;41.9957443;21.5676975
678;Jegunovce Municipality;129;MK;35;42.074072;21.1220478
674;Karbinci;129;MK;37;41.8180159;22.2324758
681;Karpoš Municipality;129;MK;38;41.9709661;21.3918168
713;Kavadarci Municipality;129;MK;36;41.2890068;21.9999435
688;Kičevo Municipality;129;MK;40;41.5129112;20.9525065
686;Kisela Voda Municipality;129;MK;39;41.92748;21.4931713
723;Kočani Municipality;129;MK;42;41.9858374;22.4053046
665;Konče Municipality;129;MK;41;41.5171011;22.3814624
641;Kratovo Municipality;129;MK;43;42.0537141;22.0714835
677;Kriva Palanka Municipality;129;MK;44;42.2058454;22.3307965
647;Krivogaštani Municipality;129;MK;45;41.3082306;21.3679689
714;Kruševo Municipality;129;MK;46;41.3769331;21.2606554
683;Kumanovo Municipality;129;MK;47;42.0732613;21.7853143
659;Lipkovo Municipality;129;MK;48;42.2006626;21.6183755
705;Lozovo Municipality;129;MK;49;41.7818139;21.9000827
701;Makedonska Kamenica Municipality;129;MK;51;42.0694604;22.548349
692;Makedonski Brod Municipality;129;MK;52;41.5133088;21.2174329
669;Mavrovo and Rostuša Municipality;129;MK;50;41.6092427;20.6012488
653;Mogila Municipality;129;MK;53;41.1479645;21.4514369
664;Negotino Municipality;129;MK;54;41.4989985;22.0953297
696;Novaci Municipality;129;MK;55;41.0442661;21.4588894
718;Novo Selo Municipality;129;MK;56;41.432558;22.8820489
699;Ohrid Municipality;129;MK;58;41.0682088;20.7599266
682;Oslomej Municipality;129;MK;57;41.5758391;21.022196
685;Pehčevo Municipality;129;MK;60;41.7737132;22.8820489
698;Petrovec Municipality;129;MK;59;41.9029897;21.689921
670;Plasnica Municipality;129;MK;61;41.4546349;21.1056539
666;Prilep Municipality;129;MK;62;41.2693142;21.7137694
646;Probištip Municipality;129;MK;63;41.9589146;22.166867
709;Radoviš Municipality;129;MK;64;41.6495531;22.4768287
717;Rankovce Municipality;129;MK;65;42.1808141;22.0953297
712;Resen Municipality;129;MK;66;40.9368093;21.0460407
691;Rosoman Municipality;129;MK;67;41.4848006;21.8807064
667;Saraj Municipality;129;MK;68;41.9869496;21.2606554
719;Sopište Municipality;129;MK;70;41.8638492;21.3083499
643;Staro Nagoričane Municipality;129;MK;71;42.2191692;21.9045541
661;Štip Municipality;129;MK;83;41.7079297;22.1907122
700;Struga Municipality;129;MK;72;41.3173744;20.6645683
710;Strumica Municipality;129;MK;73;41.4378004;22.6427428
711;Studeničani Municipality;129;MK;74;41.9225639;21.5363965
680;Šuto Orizari Municipality;129;MK;84;42.0290416;21.4097027
640;Sveti Nikole Municipality;129;MK;69;41.8980312;21.9999435
654;Tearce Municipality;129;MK;75;42.0777511;21.0534923
663;Tetovo Municipality;129;MK;76;42.027486;20.9506636
671;Valandovo Municipality;129;MK;10;41.3211909;22.5006693
658;Vasilevo Municipality;129;MK;11;41.4741699;22.6422128
651;Veles Municipality;129;MK;13;41.7274426;21.7137694
662;Vevčani Municipality;129;MK;12;41.2407543;20.5915649
672;Vinica Municipality;129;MK;14;41.857102;22.5721881
650;Vraneštica Municipality;129;MK;15;41.4829087;21.0579632
689;Vrapčište Municipality;129;MK;16;41.879116;20.83145
642;Zajas Municipality;129;MK;31;41.6030328;20.8791343
706;Zelenikovo Municipality;129;MK;32;41.8733812;21.602725
668;Želino Municipality;129;MK;30;41.9006531;21.1175767
673;Zrnovci Municipality;129;MK;33;41.8228221;22.4172256
2951;Antananarivo Province;130;MG;T;-18.7051474;46.8252838
2950;Antsiranana Province;130;MG;D;-13.771539;49.5279996
2948;Fianarantsoa Province;130;MG;F;-22.353624;46.8252838
2953;Mahajanga Province;130;MG;M;-16.523883;46.516262
2952;Toamasina Province;130;MG;A;-18.1442811;49.3957836
2949;Toliara Province;130;MG;U;-23.3516191;43.6854936
3096;Balaka District;131;MW;BA;-15.0506595;35.0828588
3102;Blantyre District;131;MW;BL;-15.6778541;34.9506625
3092;Central Region;131;MW;C;0;0
3107;Chikwawa District;131;MW;CK;-16.1958446;34.7740793
3109;Chiradzulu District;131;MW;CR;-15.7423151;35.2587964
3087;Chitipa district;131;MW;CT;-9.7037655;33.2700253
3097;Dedza District;131;MW;DE;-14.1894585;34.2421597
3090;Dowa District;131;MW;DO;-13.6041256;33.8857747
3091;Karonga District;131;MW;KR;-9.9036365;33.9750018
3094;Kasungu District;131;MW;KS;-13.1367065;33.258793
3093;Likoma District;131;MW;LK;-12.0584005;34.7354031
3101;Lilongwe District;131;MW;LI;-14.0475228;33.617577
3082;Machinga District;131;MW;MH;-14.9407263;35.4781926
3110;Mangochi District;131;MW;MG;-14.1388248;35.0388164
3099;Mchinji District;131;MW;MC;-13.7401525;32.9888319
3103;Mulanje District;131;MW;MU;-15.9346434;35.5220012
3084;Mwanza District;131;MW;MW;-2.4671197;32.8986812
3104;Mzimba District;131;MW;MZ;-11.7475452;33.5280072
3095;Nkhata Bay District;131;MW;NB;-11.7185042;34.3310364
3100;Nkhotakota District;131;MW;NK;-12.7541961;34.2421597
3105;Northern Region;131;MW;N;0;0
3085;Nsanje District;131;MW;NS;-16.7288202;35.1708741
3088;Ntcheu District;131;MW;NU;-14.9037538;34.7740793
3111;Ntchisi District;131;MW;NI;-13.2841992;33.8857747
3108;Phalombe District;131;MW;PH;-15.7092038;35.6532848
3089;Rumphi District;131;MW;RU;-10.7851537;34.3310364
3086;Salima District;131;MW;SA;-13.6809586;34.4198243
3106;Southern Region;131;MW;S;32.7504957;-97.3315476
3098;Thyolo District;131;MW;TH;-16.1299177;35.1268781
3083;Zomba District;131;MW;ZO;-15.3765857;35.3356518
1950;Johor;132;MY;01;1.4853682;103.7618154
1947;Kedah;132;MY;02;6.1183964;100.3684595
1946;Kelantan;132;MY;03;6.1253969;102.238071
1949;Kuala Lumpur;132;MY;14;3.139003;101.686855
1935;Labuan;132;MY;15;5.2831456;115.230825
1941;Malacca;132;MY;04;2.189594;102.2500868
1948;Negeri Sembilan;132;MY;05;2.7258058;101.9423782
1940;Pahang;132;MY;06;3.8126318;103.3256204
1939;Penang;132;MY;07;5.4163935;100.3326786
1943;Perak;132;MY;08;4.5921126;101.090109
1938;Perlis;132;MY;09;29.9227094;-90.1228559
1945;Putrajaya;132;MY;16;2.926361;101.696445
1936;Sabah;132;MY;12;5.9788398;116.0753199
1937;Sarawak;132;MY;13;1.5532783;110.3592127
1944;Selangor;132;MY;10;3.0738379;101.5183469
1942;Terengganu;132;MY;11;5.3116916;103.1324154
2594;Addu Atoll;133;MV;01;-0.6300995;73.1585626
2587;Alif Alif Atoll;133;MV;02;4.085;72.8515479
2600;Alif Dhaal Atoll;133;MV;00;3.6543302;72.8042797
2604;Central Province;133;MV;CE;0;0
2590;Dhaalu Atoll;133;MV;17;2.8468502;72.9460566
2599;Faafu Atoll;133;MV;14;3.2309409;72.9460566
2598;Gaafu Alif Atoll;133;MV;27;0.6124813;73.323708
2603;Gaafu Dhaalu Atoll;133;MV;28;0.358804;73.1821623
2595;Gnaviyani Atoll;133;MV;29;-0.3006425;73.4239143
2586;Haa Alif Atoll;133;MV;07;6.9903488;72.9460566
2597;Haa Dhaalu Atoll;133;MV;23;6.5782717;72.9460566
2596;Kaafu Atoll;133;MV;26;4.4558979;73.5594128
2601;Laamu Atoll;133;MV;05;1.9430737;73.4180211
2607;Lhaviyani Atoll;133;MV;03;5.3747021;73.5122928
2609;Malé;133;MV;MLE;46.3488867;10.9072489
2608;Meemu Atoll;133;MV;12;3.0090345;73.5122928
2592;Noonu Atoll;133;MV;25;5.8551276;73.323708
2589;North Central Province;133;MV;NC;0;0
2588;North Province;133;MV;NO;8.8855027;80.2767327
2602;Raa Atoll;133;MV;13;5.6006457;72.9460566
2585;Shaviyani Atoll;133;MV;24;6.17511;73.1349605
2606;South Central Province;133;MV;SC;7.2564996;80.7214417
2605;South Province;133;MV;SU;-21.7482006;166.1783739
2591;Thaa Atoll;133;MV;08;2.4311161;73.1821623
2593;Upper South Province;133;MV;US;0.2307;73.2794846
2584;Vaavu Atoll;133;MV;04;3.3955438;73.5122928
253;Bamako;134;ML;BKO;12.6392316;-8.0028892
258;Gao Region;134;ML;7;16.9066332;1.5208624
252;Kayes Region;134;ML;1;14.0818308;-9.9018131
257;Kidal Region;134;ML;8;18.7986832;1.8318334
250;Koulikoro Region;134;ML;2;13.8018074;-7.4381355
251;Ménaka Region;134;ML;9;15.9156421;2.396174
255;Mopti Region;134;ML;5;14.6338039;-3.4195527
249;Ségou Region;134;ML;4;13.8394456;-6.0679194
254;Sikasso Region;134;ML;3;10.8905186;-7.4381355
256;Taoudénit Region;134;ML;10;22.6764132;-3.9789143
248;Tombouctou Region;134;ML;6;21.0526706;-3.743509
110;Attard;135;MT;01;35.8904967;14.4199322
108;Balzan;135;MT;02;35.8957414;14.4534065
107;Birgu;135;MT;03;35.8879214;14.522562
97;Birkirkara;135;MT;04;35.8954706;14.4665072
88;Birżebbuġa;135;MT;05;35.8135989;14.5247463
138;Cospicua;135;MT;06;35.8806753;14.5218338
117;Dingli;135;MT;07;35.8627309;14.3850107
129;Fgura;135;MT;08;35.8738269;14.5232901
84;Floriana;135;MT;09;45.4952185;-73.7139576
134;Fontana;135;MT;10;34.0922335;-117.435048
130;Għajnsielem;135;MT;13;36.0247966;14.2802961
92;Għarb;135;MT;14;36.068909;14.2018098
120;Għargħur;135;MT;15;35.9220569;14.4563176
106;Għasri;135;MT;16;36.0668075;14.2192475
124;Għaxaq;135;MT;17;35.8440359;14.516009
118;Gudja;135;MT;11;35.8469803;14.502904
113;Gżira;135;MT;12;35.905897;14.4953338
105;Ħamrun;135;MT;18;35.8861237;14.4883442
93;Iklin;135;MT;19;35.9098774;14.4577732
99;Kalkara;135;MT;21;35.8914242;14.5320278
91;Kerċem;135;MT;22;36.0447939;14.2250605
82;Kirkop;135;MT;23;35.8437862;14.4854324
126;Lija;135;MT;24;49.180076;-123.103317
77;Luqa;135;MT;25;35.8582865;14.4868883
128;Marsa;135;MT;26;34.0319587;-118.4455535
137;Marsaskala;135;MT;27;35.860364;14.5567876
78;Marsaxlokk;135;MT;28;35.8411699;14.5393097
89;Mdina;135;MT;29;35.888093;14.4068357
102;Mellieħa;135;MT;30;35.9523529;14.3500975
109;Mġarr;135;MT;31;35.9189327;14.3617343
140;Mosta;135;MT;32;35.9141504;14.4228427
74;Mqabba;135;MT;33;35.8444143;14.4694186
96;Msida;135;MT;34;35.8956388;14.4868883
131;Mtarfa;135;MT;35;35.8895125;14.3951953
132;Munxar;135;MT;36;36.0288058;14.2250605
133;Nadur;135;MT;37;36.0447019;14.2919273
112;Naxxar;135;MT;38;35.9317518;14.4315746
115;Paola;135;MT;39;38.5722353;-94.8791294
125;Pembroke;135;MT;40;34.6801626;-79.1950373
127;Pietà;135;MT;41;42.21862;-83.734647
79;Qala;135;MT;42;36.0388628;14.318101
119;Qormi;135;MT;43;35.8764388;14.4694186
111;Qrendi;135;MT;44;35.8328488;14.4548621
83;Rabat;135;MT;46;33.9715904;-6.8498129
87;Saint Lawrence;135;MT;50;38.9578056;-95.2565689
75;San Ġwann;135;MT;49;35.9077365;14.4752416
116;Sannat;135;MT;52;36.0192643;14.2599437
94;Santa Luċija;135;MT;53;35.856142;14.50436
90;Santa Venera;135;MT;54;35.8902201;14.4766974
136;Senglea;135;MT;20;35.8873041;14.5167371
98;Siġġiewi;135;MT;55;35.8463742;14.4315746
104;Sliema;135;MT;56;35.9110081;14.502904
100;St. Julian's;135;MT;48;42.2122513;-85.8917127
139;St. Paul's Bay;135;MT;51;35.936017;14.3966503
86;Swieqi;135;MT;57;35.9191182;14.4694186
122;Ta' Xbiex;135;MT;58;35.8991448;14.4963519
103;Tarxien;135;MT;59;35.8672552;14.5116405
95;Valletta;135;MT;60;35.8989085;14.5145528
101;Victoria;135;MT;45;28.8052674;-97.0035982
114;Xagħra;135;MT;61;36.050845;14.267482
121;Xewkija;135;MT;62;36.0299236;14.2599437
81;Xgħajra;135;MT;63;35.8868282;14.5472391
123;Żabbar;135;MT;64;35.8724715;14.5451354
85;Żebbuġ Gozo;135;MT;65;36.0716403;14.245408
80;Żebbuġ Malta;135;MT;66;35.8764648;14.439084
135;Żejtun;135;MT;67;35.8548714;14.5363969
76;Żurrieq;135;MT;68;35.8216306;14.4810648
2574;Ralik Chain;137;MH;L;8.136146;164.8867956
2573;Ratak Chain;137;MH;T;10.2763276;170.5500937
3344;Adrar Region;139;MR;07;19.8652176;-12.8054753
3349;Assaba Region;139;MR;03;16.7759558;-11.5248055
3339;Brakna Region;139;MR;05;17.2317561;-13.1740348
3346;Dakhlet Nouadhibou;139;MR;08;20.5985588;-16.2522143
3341;Gorgol Region;139;MR;04;15.9717357;-12.6216211
3350;Guidimaka Region;139;MR;10;15.2557331;-12.2547919
3338;Hodh Ech Chargui Region;139;MR;01;18.6737026;-7.092877
3351;Hodh El Gharbi Region;139;MR;02;16.6912149;-9.5450974
3342;Inchiri Region;139;MR;12;20.0280561;-15.4068079
3343;Nouakchott-Nord Region;139;MR;14;18.1130205;-15.8994956
3352;Nouakchott-Ouest Region;139;MR;13;18.1511357;-15.993491
3347;Nouakchott-Sud Region;139;MR;15;17.9709288;-15.9464874
3345;Tagant Region;139;MR;09;18.5467527;-9.9018131
3340;Tiris Zemmour Region;139;MR;11;24.5773764;-9.9018131
3348;Trarza Region;139;MR;06;17.8664964;-14.6587821
3248;Agaléga;140;MU;AG;-10.4;56.6166667
3262;Beau Bassin-Rose Hill;140;MU;BR;-20.2230305;57.468383
3251;Cargados Carajos;140;MU;CC;-16.583333;59.616667
3255;Curepipe;140;MU;CU;-20.3170872;57.5265289
3254;Flacq District;140;MU;FL;-20.2257836;57.7119274
3264;Grand Port District;140;MU;GP;-20.3851546;57.6665742
3253;Moka District;140;MU;MO;-20.2399782;57.575926
3250;Pamplemousses District;140;MU;PA;-20.1136008;57.575926
3263;Plaines Wilhems District;140;MU;PW;-20.3054872;57.4853561
3256;Port Louis;140;MU;PU;-20.1608912;57.5012222
3260;Port Louis District;140;MU;PL;-20.1608912;57.5012222
3258;Quatre Bornes;140;MU;QB;-20.2674718;57.4796981
3261;Rivière du Rempart District;140;MU;RR;-20.0560983;57.6552389
3259;Rivière Noire District;140;MU;BL;-20.3708492;57.3948649
3249;Rodrigues;140;MU;RO;-19.7245385;63.4272185
3257;Savanne District;140;MU;SA;-20.473953;57.4853561
3252;Vacoas-Phoenix;140;MU;VP;-20.2984026;57.4938355
3456;Aguascalientes;142;MX;AGU;21.8852562;-102.2915677
3457;Baja California;142;MX;BCN;30.8406338;-115.2837585
3460;Baja California Sur;142;MX;BCS;26.0444446;-111.6660725
3475;Campeche;142;MX;CAM;19.8301251;-90.5349087
3451;Chiapas;142;MX;CHP;16.7569318;-93.1292353
3447;Chihuahua;142;MX;CHH;28.6329957;-106.0691004
3471;Coahuila;142;MX;COA;27.058676;-101.7068294
3472;Colima;142;MX;COL;19.2452342;-103.7240868
3453;Durango;142;MX;DUR;37.27528;-107.8800667
3469;Guanajuato;142;MX;GUA;21.0190145;-101.2573586
3459;Guerrero;142;MX;GRO;17.4391926;-99.5450974
3470;Hidalgo;142;MX;HID;26.1003547;-98.2630684
4857;Jalisco;142;MX;JAL;20.6595382;-103.3494376
3450;México;142;MX;MEX;23.634501;-102.552784
3473;Mexico City;142;MX;CMX;19.4326077;-99.133208
3474;Michoacán;142;MX;MIC;19.5665192;-101.7068294
3465;Morelos;142;MX;MOR;18.6813049;-99.1013498
3477;Nayarit;142;MX;NAY;21.7513844;-104.8454619
3452;Nuevo León;142;MX;NLE;25.592172;-99.9961947
3448;Oaxaca;142;MX;OAX;17.0731842;-96.7265889
3476;Puebla;142;MX;PUE;19.0414398;-98.2062727
3455;Querétaro;142;MX;QUE;20.5887932;-100.3898881
3467;Quintana Roo;142;MX;ROO;19.1817393;-88.4791376
3461;San Luis Potosí;142;MX;SLP;22.1564699;-100.9855409
3449;Sinaloa;142;MX;SIN;25.1721091;-107.4795173
3468;Sonora;142;MX;SON;37.9829496;-120.3821724
3454;Tabasco;142;MX;TAB;17.8409173;-92.6189273
3463;Tamaulipas;142;MX;TAM;24.26694;-98.8362755
3458;Tlaxcala;142;MX;TLA;19.318154;-98.2374954
3464;Veracruz;142;MX;VER;19.173773;-96.1342241
3466;Yucatán;142;MX;YUC;20.7098786;-89.0943377
3462;Zacatecas;142;MX;ZAC;22.7708555;-102.5832426
2580;Chuuk State;143;FM;TRK;7.1386759;151.5593065
2583;Kosrae State;143;FM;KSA;5.3095618;162.9814877
2581;Pohnpei State;143;FM;PNI;6.8541254;158.2623822
2582;Yap State;143;FM;YAP;8.671649;142.8439335
4368;Anenii Noi District;144;MD;AN;46.8795663;29.2312175
4393;Bălți Municipality;144;MD;BA;47.7539947;27.9184148
4379;Basarabeasca District;144;MD;BS;46.423706;28.8935492
4362;Bender Municipality;144;MD;BD;46.8227551;29.4620101
4375;Briceni District;144;MD;BR;48.3632022;27.0750398
4391;Cahul District;144;MD;CA;45.8939404;28.1890275
4366;Călărași District;144;MD;CL;47.286946;28.274531
4380;Cantemir District;144;MD;CT;46.2771742;28.2009653
4365;Căușeni District;144;MD;CS;46.6554715;29.4091222
4373;Chișinău Municipality;144;MD;CU;47.0104529;28.8638102
4360;Cimișlia District;144;MD;CM;46.5250851;28.7721835
4390;Criuleni District;144;MD;CR;47.2136114;29.1557519
4384;Dondușeni District;144;MD;DO;48.2338305;27.5998087
4392;Drochia District;144;MD;DR;48.0797788;27.8604114
4383;Dubăsari District;144;MD;DU;47.2643942;29.1550348
4387;Edineț District;144;MD;ED;48.1678991;27.2936143
4381;Fălești District;144;MD;FA;47.5647725;27.7265593
4370;Florești District;144;MD;FL;47.8667849;28.3391864
4385;Gagauzia;144;MD;GA;46.0979435;28.6384645
4367;Glodeni District;144;MD;GL;47.7790156;27.516801
4382;Hîncești District;144;MD;HI;46.8281147;28.5850889
4369;Ialoveni District;144;MD;IA;46.863086;28.8234218
4363;Nisporeni District;144;MD;NI;47.0751349;28.1768155
4389;Ocnița District;144;MD;OC;48.4110435;27.4768092
4361;Orhei District;144;MD;OR;47.38604;28.8303082
4394;Rezina District;144;MD;RE;47.7180447;28.8871024
4376;Rîșcani District;144;MD;RI;47.9070153;27.5374996
4364;Sîngerei District;144;MD;SI;47.6389134;28.1371816
4388;Șoldănești District;144;MD;SD;47.8147389;28.7889586
4374;Soroca District;144;MD;SO;48.1549743;28.2870783
4378;Ștefan Vodă District;144;MD;SV;46.5540488;29.702242
4377;Strășeni District;144;MD;ST;47.1450267;28.6136736
4372;Taraclia District;144;MD;TA;45.898651;28.6671644
4371;Telenești District;144;MD;TE;47.4983962;28.3676019
4395;Transnistria autonomous territorial unit;144;MD;SN;47.2152972;29.4638054
4386;Ungheni District;144;MD;UN;47.2305767;27.7892661
4917;La Colle;145;MC;CL;43.7327465;7.4137276
4918;La Condamine;145;MC;CO;43.7350665;7.419906
4919;Moneghetti;145;MC;MG;43.7364927;7.4153383
1973;Arkhangai Province;146;MN;073;47.8971101;100.7240165
1969;Bayan-Ölgii Province;146;MN;071;48.3983254;89.6625915
1976;Bayankhongor Province;146;MN;069;45.1526707;100.1073667
1961;Bulgan Province;146;MN;067;48.9690913;102.8831723
1962;Darkhan-Uul Province;146;MN;037;49.4648434;105.9745919
1963;Dornod Province;146;MN;061;47.4658154;115.392712
1981;Dornogovi Province;146;MN;063;43.9653889;109.1773459
1970;Dundgovi Province;146;MN;059;45.5822786;106.7644209
1972;Govi-Altai Province;146;MN;065;45.4511227;95.8505766
1978;Govisümber Province;146;MN;064;46.4762754;108.5570627
1974;Khentii Province;146;MN;039;47.6081209;109.9372856
1964;Khovd Province;146;MN;043;47.1129654;92.3110752
1975;Khövsgöl Province;146;MN;041;50.2204484;100.3213768
1967;Ömnögovi Province;146;MN;053;43.500024;104.2861116
1966;Orkhon Province;146;MN;035;49.004705;104.3016527
1965;Övörkhangai Province;146;MN;055;45.7624392;103.0917032
1980;Selenge Province;146;MN;049;50.0059273;106.4434108
1977;Sükhbaatar Province;146;MN;051;46.5653163;113.5380836
1968;Töv Province;146;MN;047;47.2124056;106.41541
1971;Uvs Province;146;MN;046;49.6449707;93.2736576
1979;Zavkhan Province;146;MN;057;48.2388147;96.0703019
23;Andrijevica Municipality;147;ME;01;42.7362477;19.7859556
13;Bar Municipality;147;ME;02;42.1278119;19.140438
21;Berane Municipality;147;ME;03;42.8257289;19.9020509
25;Bijelo Polje Municipality;147;ME;04;43.0846526;19.7115472
30;Budva Municipality;147;ME;05;42.314072;18.8313832
14;Danilovgrad Municipality;147;ME;07;42.58357;19.140438
24;Gusinje Municipality;147;ME;22;42.5563455;19.8306051
31;Kolašin Municipality;147;ME;09;42.7601916;19.4259114
26;Kotor Municipality;147;ME;10;42.5740261;18.6413145
22;Mojkovac Municipality;147;ME;11;42.9688018;19.5211063
17;Nikšić Municipality;147;ME;12;42.7997184;18.7600963
28;Old Royal Capital Cetinje;147;ME;06;42.3930959;18.9115964
12;Petnjica Municipality;147;ME;23;42.935348;20.0211449
19;Plav Municipality;147;ME;13;42.6001337;19.9407541
20;Pljevlja Municipality;147;ME;14;43.2723383;19.2831531
16;Plužine Municipality;147;ME;15;43.1593384;18.8551484
27;Podgorica Municipality;147;ME;16;42.3693834;19.2831531
15;Rožaje Municipality;147;ME;17;42.8408389;20.1670628
18;Šavnik Municipality;147;ME;18;42.9603756;19.140438
29;Tivat Municipality;147;ME;19;42.42348;18.7185184
33;Ulcinj Municipality;147;ME;20;41.9652795;19.3069432
32;Žabljak Municipality;147;ME;21;43.1555152;19.1226018
3320;Al Haouz Province;149;MA;HAO;31.2956729;-7.87216
3267;Al Hoceïma Province;149;MA;HOC;35.2445589;-3.9317468
3266;Aousserd Province;149;MA;AOU;22.5521538;-14.3297353
3297;Assa-Zag Province;149;MA;ASZ;28.1402395;-9.7232673
3321;Azilal Province;149;MA;AZI;32.004262;-6.5783387
3304;Ben Slimane Province;149;MA;BES;33.6189698;-7.1305536
3278;Béni Mellal-Khénifra;149;MA;05;32.5719184;-6.0679194
3272;Béni-Mellal Province;149;MA;BEM;32.342443;-6.375799
3285;Berkane Province;149;MA;BER;34.8840876;-2.341887
3275;Boujdour Province;149;MA;BOD;26.1252493;-14.4847347
3270;Boulemane Province;149;MA;BOM;33.3625159;-4.7303397
3303;Casablanca-Settat;149;MA;06;33.2160872;-7.4381355
3310;Chefchaouen Province;149;MA;CHE;35.018172;-5.1432068
3274;Chichaoua Province;149;MA;CHI;31.5383581;-8.7646388
3306;Dakhla-Oued Ed-Dahab;149;MA;12;22.7337892;-14.2861116
3290;Drâa-Tafilalet;149;MA;08;31.1499538;-5.3939551
3291;El Hajeb Province;149;MA;HAJ;33.685735;-5.3677844
3280;El Jadida Province;149;MA;JDI;33.2316326;-8.5007116
3299;Errachidia Province;149;MA;ERR;31.9051275;-4.7277528
3292;Es Semara Province;149;MA;ESM;26.741856;-11.6783671
3316;Essaouira Province;149;MA;ESI;31.5084926;-9.7595041
3300;Fahs Anjra Province;149;MA;FAH;35.7601992;-5.6668306
3313;Fès-Meknès;149;MA;03;34.062529;-4.7277528
3301;Figuig Province;149;MA;FIG;32.1092613;-1.229806
3265;Guelmim Province;149;MA;GUE;28.9883659;-10.0527498
3305;Guelmim-Oued Noun;149;MA;10;28.4844281;-10.0807298
3325;Ifrane Province;149;MA;IFR;33.5228062;-5.1109552
3294;Inezgane-Aït Melloul Prefecture;149;MA;INE;30.3509098;-9.389511
3307;Jerada Province;149;MA;JRA;34.3061791;-2.1794136
3309;Kelaat Sraghna Province;149;MA;KES;32.0522767;-7.3516558
3308;Kénitra Province;149;MA;KEN;34.2540503;-6.5890166
3276;Khémisset Province;149;MA;KHE;33.8153704;-6.0573302
3317;Khénifra Province;149;MA;KHN;32.9340471;-5.661571
3326;Khouribga Province;149;MA;KHO;32.886023;-6.9208655
3293;Laâyoune Province;149;MA;LAA;27.1500384;-13.1990758
3298;Laâyoune-Sakia El Hamra;149;MA;11;27.8683194;-11.9804613
3268;Larache Province;149;MA;LAR;35.1744271;-6.1473964
3288;Marrakesh-Safi;149;MA;07;31.7330833;-8.1338558
3284;Mediouna Province;149;MA;MED;33.4540939;-7.516602
3315;Moulay Yacoub Province;149;MA;MOU;34.0874479;-5.1784019
3281;Nador Province;149;MA;NAD;34.9171926;-2.8577105
3287;Nouaceur Province;149;MA;NOU;33.3670393;-7.5732537
3271;Oriental;149;MA;02;37.069683;-94.512277
3269;Ouarzazate Province;149;MA;OUA;30.9335436;-6.937016
3319;Oued Ed-Dahab Province;149;MA;OUD;22.7337892;-14.2861116
3311;Safi Province;149;MA;SAF;32.2989872;-9.1013498
3289;Sefrou Province;149;MA;SEF;33.8305244;-4.8353154
3282;Settat Province;149;MA;SET;32.9924242;-7.6222665
3302;Shtouka Ait Baha Province;149;MA;CHT;30.1072422;-9.2785583
3279;Sidi Kacem Province;149;MA;SIK;34.2260172;-5.7129164
3273;Sidi Youssef Ben Ali;149;MA;SYB;31.6084373;-7.9653067
3295;Souss-Massa;149;MA;09;30.2750611;-8.1338558
3286;Tan-Tan Province;149;MA;TNT;28.03012;-11.1617356
3324;Tanger-Tétouan-Al Hoceïma;149;MA;01;35.2629558;-5.5617279
3323;Taounate Province;149;MA;TAO;34.536917;-4.6398693
3322;Taourirt Province;149;MA;TAI;34.212598;-2.6983868
3314;Taroudant Province;149;MA;TAR;30.4727126;-8.8748765
3312;Tata Province;149;MA;TAT;29.750877;-7.9756343
3296;Taza Province;149;MA;TAZ;34.2788953;-3.5812692
3318;Tétouan Province;149;MA;TET;35.5888995;-5.3625516
3277;Tiznit Province;149;MA;TIZ;29.693392;-9.732157
3283;Zagora Province;149;MA;ZAG;30.5786093;-5.8987139
3327;Cabo Delgado Province;150;MZ;P;-12.3335474;39.3206241
3329;Gaza Province;150;MZ;G;-23.0221928;32.7181375
3330;Inhambane Province;150;MZ;I;-22.8527997;34.5508758
3337;Manica Province;150;MZ;B;-19.5059787;33.438353
3335;Maputo;150;MZ;MPM;-25.969248;32.5731746
3332;Maputo Province;150;MZ;L;-25.2569876;32.5372741
3336;Nampula Province;150;MZ;N;-14.7604931;39.3206241
3333;Niassa Province;150;MZ;A;-12.7826202;36.6093926
3331;Sofala Province;150;MZ;S;-19.2039073;34.8624166
3334;Tete Province;150;MZ;T;-15.6596056;32.7181375
3328;Zambezia Province;150;MZ;Q;-16.5638987;36.6093926
2142;Ayeyarwady Region;151;MM;07;17.0342125;95.2266675
2141;Bago;151;MM;02;17.3220711;96.4663286
2137;Chin State;151;MM;14;22.0086978;93.5812692
2143;Kachin State;151;MM;11;25.850904;97.4381355
2144;Kayah State;151;MM;12;19.2342061;97.2652858
2133;Kayin State;151;MM;13;16.9459346;97.9592863
2136;Magway Region;151;MM;03;19.8871386;94.7277528
2134;Mandalay Region;151;MM;04;21.5619058;95.8987139
2147;Mon State;151;MM;15;16.3003133;97.6982272
2146;Naypyidaw Union Territory;151;MM;18;19.9386245;96.1526985
2138;Rakhine State;151;MM;16;20.1040818;93.5812692
2145;Sagaing Region;151;MM;01;24.428381;95.3939551
2139;Shan State;151;MM;17;22.0361985;98.1338558
2140;Tanintharyi Region;151;MM;05;12.4706876;99.0128926
2135;Yangon Region;151;MM;06;16.9143488;96.1526985
43;Erongo Region;152;NA;ER;-22.2565682;15.4068079
38;Hardap Region;152;NA;HA;-24.2310134;17.668887
45;Karas Region;152;NA;KA;-26.8429645;17.2902839
36;Kavango East Region;152;NA;KE;-18.271048;18.4276047
35;Kavango West Region;152;NA;KW;-18.271048;18.4276047
44;Khomas Region;152;NA;KH;-22.6377854;17.1011931
34;Kunene Region;152;NA;KU;-19.4086317;13.914399
40;Ohangwena Region;152;NA;OW;-17.5979291;16.8178377
41;Omaheke Region;152;NA;OH;-21.8466651;19.1880047
39;Omusati Region;152;NA;OS;-18.4070294;14.8454619
37;Oshana Region;152;NA;ON;-18.4305064;15.6881788
42;Oshikoto Region;152;NA;OT;-18.4152575;16.912251
46;Otjozondjupa Region;152;NA;OD;-20.5486916;17.668887
47;Zambezi Region;152;NA;CA;-17.8193419;23.9536466
4656;Aiwo District;153;NR;01;-0.5340012;166.9138873
4658;Anabar District;153;NR;02;-0.5133517;166.9484624
4667;Anetan District;153;NR;03;-0.5064343;166.9427006
4663;Anibare District;153;NR;04;-0.5294758;166.9513432
4660;Baiti District;153;NR;05;-0.510431;166.9275744
4665;Boe District;153;NR;06;39.0732776;-94.5710498
4662;Buada District;153;NR;07;-0.5328777;166.9268541
4666;Denigomodu District;153;NR;08;-0.5247964;166.9167689
4654;Ewa District;153;NR;09;-0.5087241;166.9369384
4661;Ijuw District;153;NR;10;-0.5202767;166.9571046
4657;Meneng District;153;NR;11;-0.546724;166.938379
4659;Nibok District;153;NR;12;-0.5196208;166.9189301
4655;Uaboe District;153;NR;13;-0.5202222;166.9311761
4664;Yaren District;153;NR;14;-0.5466857;166.9210913
2082;Bagmati Zone;154;NP;BA;28.0367577;85.4375574
2071;Bheri Zone;154;NP;BH;28.517456;81.7787021
2073;Central Region;154;NP;1;0;0
2080;Dhaulagiri Zone;154;NP;DH;28.611176;83.5070203
2069;Eastern Development Region;154;NP;4;27.3309072;87.0624261
2068;Far-Western Development Region;154;NP;5;29.2987871;80.9871074
2081;Gandaki Zone;154;NP;GA;28.3732037;84.4382721
2076;Janakpur Zone;154;NP;JA;27.2110899;86.0121573
2079;Karnali Zone;154;NP;KA;29.3862555;82.3885783
2072;Kosi Zone;154;NP;KO;27.0536524;87.3016132
2074;Lumbini Zone;154;NP;LU;27.45;83.25
2083;Mahakali Zone;154;NP;MA;29.3601079;80.543845
2070;Mechi Zone;154;NP;ME;26.8760007;87.9334803
2066;Mid-Western Region;154;NP;2;38.4111841;-90.3832098
2075;Narayani Zone;154;NP;NA;27.3611766;84.8567932
2077;Rapti Zone;154;NP;RA;28.274347;82.3885783
2084;Sagarmatha Zone;154;NP;SA;27.3238263;86.7416374
2078;Seti Zone;154;NP;SE;29.6905427;81.3399414
2067;Western Region;154;NP;3;0;0
2624;Bonaire;156;NL;BQ1;12.2018902;-68.2623822
2613;Drenthe;156;NL;DR;52.9476012;6.6230586
2619;Flevoland;156;NL;FL;52.5279781;5.5953508
2622;Friesland;156;NL;FR;53.1641642;5.7817542
2611;Gelderland;156;NL;GE;52.045155;5.8718235
2617;Groningen;156;NL;GR;53.2193835;6.5665017
2615;Limburg;156;NL;LI;51.4427238;6.0608726
2623;North Brabant;156;NL;NB;51.4826537;5.2321687
2612;North Holland;156;NL;NH;52.5205869;4.788474
2618;Overijssel;156;NL;OV;52.4387814;6.5016411
2621;Saba;156;NL;BQ2;17.6354642;-63.2326763
2616;Sint Eustatius;156;NL;BQ3;17.4890306;-62.973555
2614;South Holland;156;NL;ZH;41.6008681;-87.6069894
2610;Utrecht;156;NL;UT;52.0907374;5.1214201
2620;Zeeland;156;NL;ZE;51.4940309;3.8496815
4072;Auckland Region;158;NZ;AUK;-36.6675328;174.7733325
4074;Bay of Plenty Region;158;NZ;BOP;-37.4233917;176.7416374
4066;Canterbury Region;158;NZ;CAN;-43.7542275;171.1637245
4067;Chatham Islands;158;NZ;CIT;-44.0057523;-176.5400674
4068;Gisborne District;158;NZ;GIS;-38.1358174;178.3239309
4075;Hawke's Bay Region;158;NZ;HKB;-39.6016597;176.5804473
4060;Manawatu-Wanganui Region;158;NZ;MWT;-39.7273356;175.4375574
4063;Marlborough Region;158;NZ;MBH;-41.5916883;173.7624053
4070;Nelson Region;158;NZ;NSN;-41.2985397;173.2441491
4059;Northland Region;158;NZ;NTL;-35.4136172;173.9320806
4062;Otago Region;158;NZ;OTA;-45.4790671;170.1547567
4071;Southland Region;158;NZ;STL;-45.8489159;167.6755387
4069;Taranaki Region;158;NZ;TKI;-39.3538149;174.4382721
4073;Tasman District;158;NZ;TAS;-41.4571184;172.820974
4061;Waikato Region;158;NZ;WKO;-37.6190862;175.023346
4065;Wellington Region;158;NZ;WGN;-41.0299323;175.4375574
4064;West Coast Region;158;NZ;WTC;62.4113634;-149.0729714
946;Boaco Department;159;NI;BO;12.469284;-85.6614682
950;Carazo Department;159;NI;CA;11.7274729;-86.2158497
954;Chinandega Department;159;NI;CI;12.8820062;-87.1422895
940;Chontales Department;159;NI;CO;11.9394717;-85.1894045
945;Estelí Department;159;NI;ES;13.0851139;-86.3630197
943;Granada Department;159;NI;GR;11.9344073;-85.9560005
955;Jinotega Department;159;NI;JI;13.0883907;-85.9993997
944;León Department;159;NI;LE;12.5092037;-86.6611083
948;Madriz Department;159;NI;MD;13.4726005;-86.4592091
941;Managua Department;159;NI;MN;12.1391699;-86.3376761
953;Masaya Department;159;NI;MS;11.9759328;-86.0733498
947;Matagalpa Department;159;NI;MT;12.9498436;-85.4375574
951;North Caribbean Coast Autonomous Region;159;NI;AN;13.8394456;-83.9320806
949;Río San Juan Department;159;NI;SJ;11.478161;-84.7733325
942;Rivas Department;159;NI;RI;11.402349;-85.684578
952;South Caribbean Coast Autonomous Region;159;NI;AS;12.1918502;-84.1012861
71;Agadez Region;160;NE;1;20.6670752;12.0718281
72;Diffa Region;160;NE;2;13.6768647;12.7135121
68;Dosso Region;160;NE;3;13.1513947;3.4195527
70;Maradi Region;160;NE;4;13.8018074;7.4381355
73;Tahoua Region;160;NE;5;16.0902543;5.3939551
67;Tillabéri Region;160;NE;6;14.6489525;2.1450245
69;Zinder Region;160;NE;7;15.1718881;10.2600125
303;Abia State;161;NG;AB;5.4527354;7.5248414
320;Adamawa State;161;NG;AD;9.3264751;12.3983853
304;Akwa Ibom State;161;NG;AK;4.9057371;7.8536675
315;Anambra State;161;NG;AN;6.2208997;6.9369559
312;Bauchi State;161;NG;BA;10.7760624;9.9991943
305;Bayelsa State;161;NG;BY;4.7719071;6.0698526
291;Benue State;161;NG;BE;7.3369024;8.7403687
307;Borno State;161;NG;BO;11.8846356;13.1519665
314;Cross River State;161;NG;CR;5.8701724;8.5988014
316;Delta State;161;NG;DE;33.7453784;-90.7354508
311;Ebonyi State;161;NG;EB;6.2649232;8.0137302
318;Edo State;161;NG;ED;6.6341831;5.9304056
309;Ekiti State;161;NG;EK;7.7189862;5.3109505
289;Enugu State;161;NG;EN;6.536353;7.4356194
293;Federal Capital Territory;161;NG;FC;8.8940691;7.1860402
310;Gombe State;161;NG;GO;10.3637795;11.1927587
308;Imo State;161;NG;IM;5.5720122;7.0588219
288;Jigawa State;161;NG;JI;12.228012;9.5615867
294;Kaduna State;161;NG;KD;10.3764006;7.7094537
300;Kano State;161;NG;KN;11.7470698;8.5247107
313;Katsina State;161;NG;KT;12.3796707;7.6305748
290;Kebbi State;161;NG;KE;11.4942003;4.2333355
298;Kogi State;161;NG;KO;7.7337325;6.6905836
295;Kwara State;161;NG;KW;8.9668961;4.3874051
306;Lagos;161;NG;LA;6.5243793;3.3792057
301;Nasarawa State;161;NG;NA;8.4997908;8.1996937
317;Niger State;161;NG;NI;9.9309224;5.598321
323;Ogun State;161;NG;OG;6.9979747;3.4737378
321;Ondo State;161;NG;ON;6.9148682;5.1478144
322;Osun State;161;NG;OS;7.5628964;4.5199593
296;Oyo State;161;NG;OY;8.1573809;3.6146534
302;Plateau State;161;NG;PL;9.2182093;9.5179488
292;Sokoto State;161;NG;SO;13.0533143;5.3222722
319;Taraba State;161;NG;TA;7.9993616;10.7739863
297;Yobe State;161;NG;YO;12.293876;11.4390411
299;Zamfara State;161;NG;ZA;12.1221805;6.2235819
1017;Akershus;165;NO;02;28.3704203;-81.5468058
1011;Buskerud;165;NO;06;60.4846025;8.6983764
1016;Finnmark;165;NO;20;70.4830388;26.0135107
1019;Hedmark;165;NO;04;61.3967311;11.5627369
1023;Hordaland;165;NO;12;60.2733674;5.7220194
1026;Jan Mayen;165;NO;22;71.031818;-8.2920346
1020;Møre og Romsdal;165;NO;15;62.8406833;7.007143
1012;Nord-Trøndelag;165;NO;17;64.4370792;11.746295
1025;Nordland;165;NO;18;67.693058;12.7073936
1009;Oppland;165;NO;05;61.5422752;9.7166315
1007;Oslo;165;NO;03;59.9138688;10.7522454
1022;Østfold;165;NO;01;59.2558286;11.3279006
1021;Rogaland;165;NO;11;59.1489544;6.0143432
1018;Sogn og Fjordane;165;NO;14;61.5539435;6.3325879
1010;Sør-Trøndelag;165;NO;16;63.0136823;10.3487136
1013;Svalbard;165;NO;21;77.8749725;20.9751821
1024;Telemark;165;NO;08;59.3913985;8.3211209
1015;Troms;165;NO;19;69.8178242;18.7819365
1006;Trøndelag;165;NO;50;63.5420125;10.9369267
1014;Vest-Agder;165;NO;10;58.0999081;6.5869809
1008;Vestfold;165;NO;07;59.1707862;10.1144355
3058;Ad Dakhiliyah Governorate;166;OM;DA;22.8588758;57.5394356
3047;Ad Dhahirah Governorate;166;OM;ZA;23.2161674;56.4907444
3048;Al Batinah North Governorate;166;OM;BS;24.3419846;56.7298904
3050;Al Batinah Region;166;OM;BA;24.3419846;56.7298904
3049;Al Batinah South Governorate;166;OM;BJ;23.4314903;57.4239796
3059;Al Buraimi Governorate;166;OM;BU;24.1671413;56.1142253
3056;Al Wusta Governorate;166;OM;WU;19.9571078;56.2756846
3053;Ash Sharqiyah North Governorate;166;OM;SS;22.7141196;58.5308064
3051;Ash Sharqiyah Region;166;OM;SH;22.7141196;58.5308064
3054;Ash Sharqiyah South Governorate;166;OM;SJ;22.0158249;59.3251922
3057;Dhofar Governorate;166;OM;ZU;17.0322121;54.1425214
3052;Musandam Governorate;166;OM;MU;26.1986144;56.2460949
3055;Muscat Governorate;166;OM;MA;23.5880307;58.3828717
3172;Azad Kashmir;167;PK;JK;33.9259055;73.7810334
3174;Balochistan;167;PK;BA;28.4907332;65.0957792
3173;Federally Administered Tribal Areas;167;PK;TA;32.667476;69.8597406
3170;Gilgit-Baltistan;167;PK;GB;35.8025667;74.9831808
3169;Islamabad Capital Territory;167;PK;IS;33.7204997;73.0405277
3171;Khyber Pakhtunkhwa;167;PK;KP;34.9526205;72.331113
3176;Punjab;167;PK;PB;31.1471305;75.3412179
3175;Sindh;167;PK;SD;25.8943018;68.5247149
4540;Aimeliik;168;PW;002;7.4455859;134.5030878
4528;Airai;168;PW;004;7.3966118;134.5690225
4538;Angaur;168;PW;010;6.909223;134.1387934
4529;Hatohobei;168;PW;050;3.0070658;131.1237781
4539;Kayangel;168;PW;100;8.07;134.702778
4532;Koror;168;PW;150;7.3375646;134.4889469
4530;Melekeok;168;PW;212;7.5150286;134.5972518
4537;Ngaraard;168;PW;214;7.60794;134.6348645
4533;Ngarchelong;168;PW;218;7.7105469;134.6301646
4527;Ngardmau;168;PW;222;7.5850486;134.5596089
4531;Ngatpang;168;PW;224;7.4710994;134.5266466
4536;Ngchesar;168;PW;226;7.452328;134.5784342
4541;Ngeremlengui;168;PW;227;7.5198397;134.5596089
4534;Ngiwal;168;PW;228;7.5614764;134.6160619
4526;Peleliu;168;PW;350;7.0022906;134.2431628
4535;Sonsorol;168;PW;370;5.3268119;132.2239117
1393;Bocas del Toro Province;170;PA;1;9.4165521;-82.5207787
1397;Chiriquí Province;170;PA;4;8.584898;-82.3885783
1387;Coclé Province;170;PA;2;8.6266068;-80.365865
1386;Colón Province;170;PA;3;9.1851989;-80.0534923
1385;Darién Province;170;PA;5;7.8681713;-77.8367282
1396;Emberá-Wounaan Comarca;170;PA;EM;8.3766983;-77.6536125
1388;Guna Yala;170;PA;KY;9.2344395;-78.192625
1389;Herrera Province;170;PA;6;7.7704282;-80.7214417
1390;Los Santos Province;170;PA;7;7.5909302;-80.365865
1391;Ngöbe-Buglé Comarca;170;PA;NB;8.6595833;-81.7787021
1394;Panamá Oeste Province;170;PA;10;9.1196751;-79.2902133
1395;Panamá Province;170;PA;8;9.1196751;-79.2902133
1392;Veraguas Province;170;PA;9;8.1231033;-81.0754657
4831;Bougainville;171;PG;NSB;-6.3753919;155.3807101
4847;Central Province;171;PG;CPM;0;0
4846;Chimbu Province;171;PG;CPK;-6.3087682;144.8731219
4834;East New Britain;171;PG;EBR;-4.6128943;151.8877321
4845;Eastern Highlands Province;171;PG;EHG;-6.5861674;145.6689636
4848;Enga Province;171;PG;EPW;-5.3005849;143.5635637
4839;Gulf;171;PG;GPK;37.0548315;-94.4370419
4833;Hela;171;PG;HLA;42.3329516;-83.0482618
4832;Jiwaka Province;171;PG;JWK;-5.8691154;144.6972774
4843;Madang Province;171;PG;MPM;-4.9849733;145.1375834
4842;Manus Province;171;PG;MRL;-2.0941169;146.8760951
4849;Milne Bay Province;171;PG;MBA;-9.5221451;150.6749653
4835;Morobe Province;171;PG;MPL;-6.8013737;146.561647
4841;New Ireland Province;171;PG;NIK;-4.2853256;152.9205918
4838;Oro Province;171;PG;NPP;-8.8988063;148.1892921
4837;Port Moresby;171;PG;NCD;-9.4438004;147.1802671
4836;Sandaun Province;171;PG;SAN;-3.7126179;141.6834275
4844;Southern Highlands Province;171;PG;SHM;-6.4179083;143.5635637
4830;West New Britain Province;171;PG;WBK;-5.7047432;150.0259466
4840;Western Highlands Province;171;PG;WHM;-5.6268128;144.2593118
4850;Western Province;171;PG;WPD;0;0
2785;Alto Paraguay Department;172;PY;16;-20.0852508;-59.4720904
2784;Alto Paraná Department;172;PY;10;-25.6075546;-54.9611836
2782;Amambay Department;172;PY;13;-22.5590272;-56.0249982
2780;Boquerón Department;172;PY;19;-21.7449254;-60.9540073
2773;Caaguazú;172;PY;5;-25.4645818;-56.013851
2775;Caazapá;172;PY;6;-26.1827713;-56.3712327
2771;Canindeyú;172;PY;14;-24.1378735;-55.6689636
2777;Central Department;172;PY;11;36.1559229;-95.9662075
2779;Concepción Department;172;PY;1;-23.4214264;-57.4344451
2783;Cordillera Department;172;PY;3;-25.2289491;-57.0111681
2772;Guairá Department;172;PY;4;-25.8810932;-56.2929381
2778;Itapúa;172;PY;7;-26.7923623;-55.6689636
2786;Misiones Department;172;PY;8;-26.8433512;-57.1013188
2781;Ñeembucú Department;172;PY;12;-27.0299114;-57.825395
2774;Paraguarí Department;172;PY;9;-25.6262174;-57.1520642
2770;Presidente Hayes Department;172;PY;15;-23.3512605;-58.7373634
2776;San Pedro Department;172;PY;2;-24.1948668;-56.561647
3685;Amazonas;173;PE;AMA;0;0
3680;Áncash;173;PE;ANC;-9.3250497;-77.5619419
3699;Apurímac;173;PE;APU;-14.0504533;-73.087749
3681;Arequipa;173;PE;ARE;-16.4090474;-71.537451
3692;Ayacucho;173;PE;AYA;-13.1638737;-74.2235641
3688;Cajamarca;173;PE;CAJ;-7.1617465;-78.5127855
3701;Callao;173;PE;CAL;-12.0508491;-77.1259843
3691;Cusco;173;PE;CUS;-13.53195;-71.9674626
3679;Huancavelica;173;PE;HUV;-12.7861978;-74.9764024
3687;Huanuco;173;PE;HUC;-9.9207648;-76.2410843
3700;Ica;173;PE;ICA;42.3528832;-71.0430097
3693;Junín;173;PE;JUN;-11.1581925;-75.9926306
3683;La Libertad;173;PE;LAL;13.490697;-89.3084607
3702;Lambayeque;173;PE;LAM;-6.7197666;-79.9080757
3695;Lima;173;PE;LIM;-12.0463731;-77.042754
4922;Loreto;173;PE;LOR;-4.3741643;-76.1304264
3678;Madre de Dios;173;PE;MDD;-11.7668705;-70.8119953
3698;Moquegua;173;PE;MOQ;-17.1927361;-70.9328138
3686;Pasco;173;PE;PAS;46.2305049;-119.0922316
3697;Piura;173;PE;PIU;-5.1782884;-80.6548882
3682;Puno;173;PE;PUN;-15.8402218;-70.0218805
3694;San Martín;173;PE;SAM;37.0849464;-121.6102216
3696;Tacna;173;PE;TAC;-18.0065679;-70.2462741
3689;Tumbes;173;PE;TUM;-3.5564921;-80.4270885
3684;Ucayali;173;PE;UCA;-9.8251183;-73.087749
1324;Abra;174;PH;ABR;42.497083;-96.38441
1323;Agusan del Norte;174;PH;AGN;8.9456259;125.5319234
1326;Agusan del Sur;174;PH;AGS;8.0463888;126.0615384
1331;Aklan;174;PH;AKL;11.8166109;122.0941541
1337;Albay;174;PH;ALB;13.1774827;123.5280072
1336;Antique;174;PH;ANT;37.0358695;-95.6361694
1334;Apayao;174;PH;APA;18.0120304;121.1710389
1341;Aurora;174;PH;AUR;36.970891;-93.717979
1316;Autonomous Region in Muslim Mindanao;174;PH;14;6.9568313;124.2421597
1346;Basilan;174;PH;BAS;6.4296349;121.9870165
1344;Bataan;174;PH;BAN;14.6416842;120.4818446
1352;Batanes;174;PH;BTN;20.4485074;121.9708129
1359;Batangas;174;PH;BTG;13.7564651;121.0583076
1363;Benguet;174;PH;BEN;16.5577257;120.8039474
1304;Bicol Region;174;PH;05;13.4209885;123.4136736
1274;Biliran;174;PH;BIL;11.5833152;124.4641848
1272;Bohol;174;PH;BOH;9.8499911;124.1435427
1270;Bukidnon;174;PH;BUK;8.0515054;124.9229946
1278;Bulacan;174;PH;BUL;14.7942735;120.8799008
1279;Cagayan;174;PH;CAG;18.2489629;121.8787833
1342;Cagayan Valley;174;PH;02;16.9753758;121.8107079
1294;Calabarzon;174;PH;40;14.1007803;121.0793705
1283;Camarines Norte;174;PH;CAN;14.1390265;122.7633036
1287;Camarines Sur;174;PH;CAS;13.5250197;123.3486147
1285;Camiguin;174;PH;CAM;9.1732164;124.7298765
1292;Capiz;174;PH;CAP;11.5528816;122.740723
1314;Caraga;174;PH;13;8.8014562;125.7406882
1301;Catanduanes;174;PH;CAT;13.7088684;124.2421597
1307;Cavite;174;PH;CAV;14.4791297;120.8969634
1306;Cebu;174;PH;CEB;10.3156992;123.8854366
1345;Central Luzon;174;PH;03;15.4827722;120.7120023
1308;Central Visayas;174;PH;07;9.816875;124.0641419
1311;Compostela Valley;174;PH;COM;7.512515;126.1762615
1335;Cordillera Administrative Region;174;PH;15;17.3512542;121.1718851
1320;Cotabato;174;PH;NCO;7.2046668;124.2310439
1319;Davao del Norte;174;PH;DAV;7.5617699;125.6532848
1318;Davao del Sur;174;PH;DAS;6.7662687;125.3284269
1309;Davao Occidental;174;PH;DVO;6.0941396;125.6095474
1289;Davao Oriental;174;PH;DAO;7.3171585;126.5419887
1340;Davao Region;174;PH;11;7.3041622;126.0893406
1291;Dinagat Islands;174;PH;DIN;10.1281816;125.6095474
1290;Eastern Samar;174;PH;EAS;11.5000731;125.4999908
1322;Eastern Visayas;174;PH;08;12.2445533;125.0388164
1303;Guimaras;174;PH;GUI;10.5928661;122.6325081
1300;Ifugao;174;PH;IFU;16.8330792;121.1710389
1298;Ilocos Norte;174;PH;ILN;18.1647281;120.7115592
1355;Ilocos Region;174;PH;01;16.0832144;120.6199895
1321;Ilocos Sur;174;PH;ILS;17.2278664;120.5739579
1315;Iloilo;174;PH;ILI;10.7201501;122.5621063
1313;Isabela;174;PH;ISA;18.5007759;-67.0243462
1312;Kalinga;174;PH;KAL;17.4740422;121.3541631
1317;La Union;174;PH;LUN;38.8766878;-77.1280912
1328;Laguna;174;PH;LAG;33.5427189;-117.7853568
1327;Lanao del Norte;174;PH;LAN;7.8721811;123.8857747
1333;Lanao del Sur;174;PH;LAS;7.823176;124.4198243
1332;Leyte;174;PH;LEY;10.8624536;124.8811195
1330;Maguindanao;174;PH;MAG;6.9422581;124.4198243
1329;Marinduque;174;PH;MAD;13.4767171;121.9032192
1338;Masbate;174;PH;MAS;12.3574346;123.5504076
1347;Metro Manila;174;PH;NCR;14.6090537;121.0222565
1299;Mimaropa;174;PH;41;9.8432065;118.7364783
1343;Misamis Occidental;174;PH;MSC;8.3374903;123.7070619
1348;Misamis Oriental;174;PH;MSR;8.5045558;124.6219592
1353;Mountain Province;174;PH;MOU;40.7075437;-73.9501033
1351;Negros Occidental;174;PH;NEC;10.2925609;123.0246518
1350;Negros Oriental;174;PH;NER;9.6282083;122.9888319
1339;Northern Mindanao;174;PH;10;8.0201635;124.6856509
1349;Northern Samar;174;PH;NSA;12.3613199;124.7740793
1360;Nueva Ecija;174;PH;NUE;15.578375;121.1112615
1358;Nueva Vizcaya;174;PH;NUV;16.3301107;121.1710389
1356;Occidental Mindoro;174;PH;MDC;13.1024111;120.7651284
1354;Oriental Mindoro;174;PH;MDR;13.0564598;121.4069417
1361;Palawan;174;PH;PLW;9.8349493;118.7383615
1365;Pampanga;174;PH;PAM;15.079409;120.6199895
1364;Pangasinan;174;PH;PAN;15.8949055;120.2863183
1275;Quezon;174;PH;QUE;14.0313906;122.1130909
1273;Quirino;174;PH;QUI;16.2700424;121.5370003
1271;Rizal;174;PH;RIZ;14.6037446;121.3084088
1269;Romblon;174;PH;ROM;12.5778016;122.269146
1277;Sarangani;174;PH;SAR;5.9267175;124.994751
1276;Siquijor;174;PH;SIG;9.1998779;123.5951925
1310;Soccsksargen;174;PH;12;6.2706918;124.6856509
1281;Sorsogon;174;PH;SOR;12.9927095;124.0147464
1280;South Cotabato;174;PH;SCO;6.3357565;124.7740793
1284;Southern Leyte;174;PH;SLE;10.3346206;125.1708741
1282;Sultan Kudarat;174;PH;SUK;6.5069401;124.4198243
1288;Sulu;174;PH;SLU;5.9749011;121.03351
1286;Surigao del Norte;174;PH;SUN;9.514828;125.6969984
1296;Surigao del Sur;174;PH;SUR;8.5404906;126.1144758
1295;Tarlac;174;PH;TAR;15.4754786;120.5963492
1293;Tawi-Tawi;174;PH;TAW;5.133811;119.950926
1305;Western Visayas;174;PH;06;11.0049836;122.5372741
1297;Zambales;174;PH;ZMB;15.5081766;119.9697808
1302;Zamboanga del Norte;174;PH;ZAN;8.3886282;123.1688883
1357;Zamboanga del Sur;174;PH;ZAS;7.8383054;123.2966657
1325;Zamboanga Peninsula;174;PH;09;8.154077;123.258793
1362;Zamboanga Sibugay;174;PH;ZSI;7.5225247;122.3107517
1634;Greater Poland Voivodeship;176;PL;WP;52.279986;17.3522939
1625;Kuyavian-Pomeranian Voivodeship;176;PL;KP;53.1648363;18.4834224
1635;Lesser Poland Voivodeship;176;PL;MA;49.7225306;20.2503358
1629;Lower Silesian Voivodeship;176;PL;DS;51.1339861;16.8841961
1638;Lublin Voivodeship;176;PL;LU;51.2493519;23.1011392
1631;Lubusz Voivodeship;176;PL;LB;52.2274612;15.2559103
1636;Łódź Voivodeship;176;PL;LD;51.4634771;19.1726974
1637;Masovian Voivodeship;176;PL;MZ;51.8927182;21.0021679
1622;Opole Voivodeship;176;PL;OP;50.8003761;17.937989
1626;Podkarpackie Voivodeship;176;PL;PK;50.0574749;22.0895691
1632;Podlaskie Voivodeship;176;PL;PD;53.0697159;22.9674639
1624;Pomeranian Voivodeship;176;PL;PM;54.2944252;18.1531164
1623;Silesian Voivodeship;176;PL;SL;50.5716595;19.3219768
1630;Świętokrzyskie Voivodeship;176;PL;SK;50.6261041;20.9406279
1628;Warmian-Masurian Voivodeship;176;PL;WN;53.8671117;20.7027861
1633;West Pomeranian Voivodeship;176;PL;ZP;53.4657891;15.1822581
2233;Açores;177;PT;20;37.7412488;-25.6755944
2235;Aveiro;177;PT;01;40.7209023;-8.5721016
2230;Beja;177;PT;02;37.9687786;-7.87216
2244;Braga;177;PT;03;41.550388;-8.4261301
2229;Bragança;177;PT;04;41.8061652;-6.7567427
2241;Castelo Branco;177;PT;05;39.8631323;-7.4814163
2246;Coimbra;177;PT;06;40.2057994;-8.41369
2236;Évora;177;PT;07;38.5744468;-7.9076553
2239;Faro;177;PT;08;37.0193548;-7.9304397
4859;Guarda;177;PT;09;40.5385972;-7.2675772
2240;Leiria;177;PT;10;39.7709532;-8.7921836
2228;Lisbon;177;PT;11;38.7223263;-9.1392714
2231;Madeira;177;PT;30;32.7607074;-16.9594723
2232;Portalegre;177;PT;12;39.2967086;-7.4284755
2243;Porto;177;PT;13;41.1476629;-8.6078973
2238;Santarém;177;PT;14;39.2366687;-8.6859944
2242;Setúbal;177;PT;15;38.5240933;-8.8925876
2245;Viana do Castelo;177;PT;16;41.6918046;-8.834451
2234;Vila Real;177;PT;17;41.3003527;-7.7457274
2237;Viseu;177;PT;18;40.6588424;-7.914756
3182;Al Daayen;179;QA;ZA;25.5784559;51.4821387
3183;Al Khor;179;QA;KH;25.6804078;51.4968502
3177;Al Rayyan Municipality;179;QA;RA;25.2522551;51.4388713
3179;Al Wakrah;179;QA;WA;25.1659314;51.5975524
3178;Al-Shahaniya;179;QA;SH;25.4106386;51.1846025
3181;Doha;179;QA;DA;25.2854473;51.5310398
3180;Madinat ash Shamal;179;QA;MS;26.1182743;51.2157265
3184;Umm Salal Municipality;179;QA;US;25.4875242;51.396568
4724;Alba;181;RO;AB;44.7009153;8.0356911
4739;Arad County;181;RO;AR;46.2283651;21.6597819
4722;Arges;181;RO;AG;45.0722527;24.8142726
4744;Bacău County;181;RO;BC;46.3258184;26.662378
4723;Bihor County;181;RO;BH;47.0157516;22.172266
4733;Bistrița-Năsăud County;181;RO;BN;47.2486107;24.5322814
4740;Botoșani County;181;RO;BT;47.8924042;26.7591781
4736;Braila;181;RO;BR;45.2652463;27.9594714
4759;Brașov County;181;RO;BV;45.7781844;25.22258
4730;Bucharest;181;RO;B;44.4267674;26.1025384
4756;Buzău County;181;RO;BZ;45.3350912;26.7107578
4732;Călărași County;181;RO;CL;44.3658715;26.7548607
4753;Caraș-Severin County;181;RO;CS;45.1139646;22.0740993
4734;Cluj County;181;RO;CJ;46.7941797;23.6121492
4737;Constanța County;181;RO;CT;44.212987;28.2550055
4754;Covasna County;181;RO;CV;45.9426347;25.8918984
4745;Dâmbovița County;181;RO;DB;44.9289893;25.425385
4742;Dolj County;181;RO;DJ;44.1623022;23.6325054
4747;Galați County;181;RO;GL;45.7800569;27.8251576
4726;Giurgiu County;181;RO;GR;43.9037076;25.9699265
4750;Gorj County;181;RO;GJ;44.9485595;23.2427079
4749;Harghita County;181;RO;HR;46.4928507;25.6456696
4721;Hunedoara County;181;RO;HD;45.793638;22.9975993
4743;Ialomița County;181;RO;IL;44.603133;27.3789914
4735;Iași County;181;RO;IS;47.2679653;27.2185662
4725;Ilfov County;181;RO;IF;44.535548;26.2324886
4760;Maramureș County;181;RO;MM;46.5569904;24.6723215
4751;Mehedinți County;181;RO;MH;44.5515053;22.9044157
4915;Mureș County;181;RO;MS;46.5569904;24.6723215
4731;Neamț County;181;RO;NT;46.9758685;26.3818764
4738;Olt County;181;RO;OT;44.200797;24.5022981
4729;Prahova County;181;RO;PH;45.0891906;26.0829313
4741;Sălaj County;181;RO;SJ;47.2090813;23.2121901
4746;Satu Mare County;181;RO;SM;47.7668905;22.9241377
4755;Sibiu County;181;RO;SB;45.9269106;24.2254807
4720;Suceava County;181;RO;SV;47.5505548;25.741062
4728;Teleorman County;181;RO;TR;44.0160491;25.2986628
4748;Timiș County;181;RO;TM;45.8138902;21.3331055
4727;Tulcea County;181;RO;TL;45.0450565;29.0324912
4757;Vâlcea County;181;RO;VL;45.0798051;24.0835283
4752;Vaslui County;181;RO;VS;46.4631059;27.7398031
4758;Vrancea County;181;RO;VN;45.8134876;27.0657531
1911;Altai Krai;182;RU;ALT;51.7936298;82.6758596
1876;Altai Republic;182;RU;AL;50.6181924;86.2199308
1858;Amur Oblast;182;RU;AMU;54.6035065;127.4801721
1849;Arkhangelsk;182;RU;ARK;64.5458549;40.5505769
1866;Astrakhan Oblast;182;RU;AST;46.1321166;48.0610115
1903;Belgorod Oblast;182;RU;BEL;50.7106926;37.7533377
1867;Bryansk Oblast;182;RU;BRY;53.0408599;33.26909
1893;Chechen Republic;182;RU;CE;43.4023301;45.7187468
1845;Chelyabinsk Oblast;182;RU;CHE;54.4319422;60.8788963
1859;Chukotka Autonomous Okrug;182;RU;CHU;65.6298355;171.6952159
1914;Chuvash Republic;182;RU;CU;55.5595992;46.9283535
1880;Irkutsk;182;RU;IRK;52.2854834;104.2890222
1864;Ivanovo Oblast;182;RU;IVA;57.1056854;41.4830084
1835;Jewish Autonomous Oblast;182;RU;YEV;48.4808147;131.7657367
1892;Kabardino-Balkar Republic;182;RU;KB;43.3932469;43.5628498
1902;Kaliningrad;182;RU;KGD;54.7104264;20.4522144
1844;Kaluga Oblast;182;RU;KLU;54.3872666;35.1889094
1865;Kamchatka Krai;182;RU;KAM;61.4343981;166.7884131
1869;Karachay-Cherkess Republic;182;RU;KC;43.8845143;41.7303939
1897;Kemerovo Oblast;182;RU;KEM;54.7574648;87.4055288
1873;Khabarovsk Krai;182;RU;KHA;50.5888431;135.0
1838;Khanty-Mansi Autonomous Okrug;182;RU;KHM;62.2287062;70.6410057
1890;Kirov Oblast;182;RU;KIR;58.4198529;50.2097248
1899;Komi Republic;182;RU;KO;63.8630539;54.831269
1910;Kostroma Oblast;182;RU;KOS;58.5501069;43.9541102
1891;Krasnodar Krai;182;RU;KDA;45.6415289;39.7055977
1840;Krasnoyarsk Krai;182;RU;KYA;64.2479758;95.1104176
1915;Kurgan Oblast;182;RU;KGN;55.4481548;65.1180975
1855;Kursk Oblast;182;RU;KRS;51.7634026;35.3811812
1896;Leningrad Oblast;182;RU;LEN;60.0793208;31.8926645
1889;Lipetsk Oblast;182;RU;LIP;52.5264702;39.2032269
1839;Magadan Oblast;182;RU;MAG;62.6643417;153.914991
1870;Mari El Republic;182;RU;ME;56.438457;47.9607758
1901;Moscow;182;RU;MOW;55.755826;37.6172999
1882;Moscow Oblast;182;RU;MOS;55.340396;38.2917651
1843;Murmansk Oblast;182;RU;MUR;67.8442674;35.0884102
1836;Nenets Autonomous Okrug;182;RU;NEN;67.6078337;57.6338331
1857;Nizhny Novgorod Oblast;182;RU;NIZ;55.7995159;44.0296769
1834;Novgorod Oblast;182;RU;NGR;58.2427552;32.566519
1888;Novosibirsk;182;RU;NVS;54.9832693;82.8963831
1846;Omsk Oblast;182;RU;OMS;55.0554669;73.3167342
1886;Orenburg Oblast;182;RU;ORE;51.7634026;54.6188188
1908;Oryol Oblast;182;RU;ORL;52.7856414;36.9242344
1909;Penza Oblast;182;RU;PNZ;53.1412105;44.0940048
1871;Perm Krai;182;RU;PER;58.8231929;56.5872481
1833;Primorsky Krai;182;RU;PRI;45.0525641;135.0
1863;Pskov Oblast;182;RU;PSK;56.7708599;29.094009
1852;Republic of Adygea;182;RU;AD;44.8229155;40.1754463
1854;Republic of Bashkortostan;182;RU;BA;54.2312172;56.1645257
1842;Republic of Buryatia;182;RU;BU;54.8331146;112.406053
1850;Republic of Dagestan;182;RU;DA;42.1431886;47.0949799
1884;Republic of Ingushetia;182;RU;IN;43.4051698;44.8202999
1883;Republic of Kalmykia;182;RU;KL;46.1867176;45.0
1841;Republic of Karelia;182;RU;KR;63.1558702;32.9905552
1877;Republic of Khakassia;182;RU;KK;53.0452281;90.3982145
1898;Republic of Mordovia;182;RU;MO;54.2369441;44.068397
1853;Republic of North Ossetia-Alania;182;RU;SE;43.0451302;44.2870972
1861;Republic of Tatarstan;182;RU;TA;55.1802364;50.7263945
1837;Rostov Oblast;182;RU;ROS;47.6853247;41.8258952
1905;Ryazan Oblast;182;RU;RYA;54.3875964;41.2595661
1879;Saint Petersburg;182;RU;SPE;59.9310584;30.3609096
1848;Sakha Republic;182;RU;SA;66.7613451;124.123753
1875;Sakhalin;182;RU;SAK;50.6909848;142.9505689
1862;Samara Oblast;182;RU;SAM;53.4183839;50.4725528
1887;Saratov Oblast;182;RU;SAR;51.8369263;46.7539397
1912;Sevastopol;182;RU;UA-40;44.61665;33.5253671
1885;Smolensk Oblast;182;RU;SMO;54.9882994;32.6677378
1868;Stavropol Krai;182;RU;STA;44.6680993;43.520214
1894;Sverdlovsk;182;RU;SVE;56.8430993;60.6454086
1878;Tambov Oblast;182;RU;TAM;52.6416589;41.4216451
1872;Tomsk Oblast;182;RU;TOM;58.8969882;82.67655
1895;Tula Oblast;182;RU;TUL;54.163768;37.5649507
1900;Tuva Republic;182;RU;TY;51.8872669;95.6260172
1860;Tver Oblast;182;RU;TVE;57.0021654;33.9853142
1907;Tyumen Oblast;182;RU;TYU;56.9634387;66.948278
1913;Udmurt Republic;182;RU;UD;57.0670218;53.0277948
1856;Ulyanovsk Oblast;182;RU;ULY;53.9793357;47.7762425
1881;Vladimir Oblast;182;RU;VLA;56.1553465;40.5926685
4916;Volgograd Oblast;182;RU;VGG;49.2587393;39.8154463
1874;Vologda Oblast;182;RU;VLG;59.8706711;40.6555411
1906;Voronezh Oblast;182;RU;VOR;50.8589713;39.8644374
1847;Yamalo-Nenets Autonomous Okrug;182;RU;YAN;66.0653057;76.9345193
1851;Yaroslavl Oblast;182;RU;YAR;57.8991523;38.8388633
1904;Zabaykalsky Krai;182;RU;ZAB;53.0928771;116.9676561
261;Eastern Province;183;RW;02;0;0
262;Kigali district;183;RW;01;-1.9440727;30.0618851
263;Northern Province;183;RW;03;0;0
259;Southern Province;183;RW;05;0;0
260;Western Province;183;RW;04;0;0
3833;Christ Church Nichola Town Parish;185;KN;01;17.3604812;-62.7617837
3832;Nevis;185;KN;N;17.1553558;-62.5796026
3836;Saint Anne Sandy Point Parish;185;KN;02;17.3725333;-62.8441133
3837;Saint George Gingerland Parish;185;KN;04;17.1257759;-62.5619811
3835;Saint James Windward Parish;185;KN;05;17.1769633;-62.5796026
3845;Saint John Capisterre Parish;185;KN;06;17.3810341;-62.7911833
3840;Saint John Figtree Parish;185;KN;07;17.1155748;-62.6031004
3841;Saint Kitts;185;KN;K;17.3433796;-62.7559043
3844;Saint Mary Cayon Parish;185;KN;08;17.3462071;-62.7382671
3834;Saint Paul Capisterre Parish;185;KN;09;17.4016683;-62.8257332
3838;Saint Paul Charlestown Parish;185;KN;10;17.1346297;-62.6133816
3831;Saint Peter Basseterre Parish;185;KN;11;17.3102911;-62.7147533
3839;Saint Thomas Lowland Parish;185;KN;12;17.1650513;-62.6089753
3842;Saint Thomas Middle Island Parish;185;KN;13;17.3348813;-62.8088251
3843;Trinity Palmetto Point Parish;185;KN;15;17.3063519;-62.7617837
3757;Anse la Raye Quarter;186;LC;01;13.9459424;-61.0369468
3761;Canaries;186;LC;12;28.2915637;-16.6291304
3758;Castries Quarter;186;LC;02;14.0101094;-60.9874687
3760;Choiseul Quarter;186;LC;03;13.7750154;-61.048591
3767;Dauphin Quarter;186;LC;04;14.0103396;-60.9190988
3756;Dennery Quarter;186;LC;05;13.9267393;-60.9190988
3766;Gros Islet Quarter;186;LC;06;14.0843578;-60.9452794
3759;Laborie Quarter;186;LC;07;13.7522783;-60.9932889
3762;Micoud Quarter;186;LC;08;13.8211871;-60.9001934
3765;Praslin Quarter;186;LC;09;13.8752392;-60.8994663
3764;Soufrière Quarter;186;LC;10;13.8570986;-61.0573248
3763;Vieux Fort Quarter;186;LC;11;13.720608;-60.9496433
3389;Charlotte Parish;188;VC;01;13.2175451;-61.1636244
3388;Grenadines Parish;188;VC;06;13.0122965;-61.2277301
3386;Saint Andrew Parish;188;VC;02;43.0242999;-81.2025
3387;Saint David Parish;188;VC;03;43.8523095;-79.5236654
3384;Saint George Parish;188;VC;04;42.957609;-81.326705
3385;Saint Patrick Parish;188;VC;05;39.7509186;-94.8450556
4763;A'ana;191;WS;AA;-13.898418;-171.9752995
4761;Aiga-i-le-Tai;191;WS;AL;-13.8513791;-172.0325401
4765;Atua;191;WS;AT;-13.9787053;-171.6254283
4764;Fa'asaleleaga;191;WS;FA;-13.6307638;-172.2365981
4769;Gaga'emauga;191;WS;GE;-13.5428666;-172.366887
4771;Gaga'ifomauga;191;WS;GI;-13.5468007;-172.4969331
4767;Palauli;191;WS;PA;-13.7294579;-172.4536115
4762;Satupa'itea;191;WS;SA;-13.6538214;-172.6159271
4770;Tuamasaga;191;WS;TU;-13.9163592;-171.8224362
4768;Va'a-o-Fonoti;191;WS;VF;-13.9470903;-171.5431872
4766;Vaisigano;191;WS;VS;-13.5413827;-172.7023383
59;Acquaviva;192;SM;01;41.8671597;14.7469479
61;Borgo Maggiore;192;SM;06;43.9574882;12.4552546
60;Chiesanuova;192;SM;02;45.4226172;7.6503854
64;Domagnano;192;SM;03;43.9501929;12.4681537
62;Faetano;192;SM;04;43.9348967;12.4896554
66;Fiorentino;192;SM;05;43.9078337;12.4581209
63;Montegiardino;192;SM;08;43.9052999;12.4810542
58;San Marino;192;SM;07;43.94236;12.457777
65;Serravalle;192;SM;09;44.7232084;8.8574005
270;Príncipe Province;193;ST;P;1.6139381;7.4056928
271;São Tomé Province;193;ST;S;0.3301924;6.733343
2853;'Asir Region;194;SA;14;19.0969062;42.8637875
2859;Al Bahah Region;194;SA;11;20.2722739;41.441251
2857;Al Jawf Region;194;SA;12;29.887356;39.3206241
2851;Al Madinah Region;194;SA;03;24.8403977;39.3206241
2861;Al-Qassim Region;194;SA;05;26.207826;43.483738
2856;Eastern Province;194;SA;04;0;0
2855;Ha'il Region;194;SA;06;27.7076143;41.9196471
2858;Jizan Region;194;SA;09;17.1738176;42.7076107
2850;Makkah Region;194;SA;02;21.5235584;41.9196471
2860;Najran Region;194;SA;10;18.3514664;45.6007108
2854;Northern Borders Region;194;SA;08;30.0799162;42.8637875
2849;Riyadh Region;194;SA;01;22.7554385;46.2091547
2852;Tabuk Region;194;SA;07;28.2453335;37.6386622
473;Dakar;195;SN;DK;14.716677;-17.4676861
480;Diourbel Region;195;SN;DB;14.7283085;-16.2522143
479;Fatick;195;SN;FK;14.3390167;-16.4111425
475;Kaffrine;195;SN;KA;14.105202;-15.5415755
483;Kaolack;195;SN;KL;14.1652083;-16.0757749
481;Kédougou;195;SN;KE;12.5604607;-12.1747077
474;Kolda;195;SN;KD;12.9107495;-14.9505671
485;Louga;195;SN;LG;15.6141768;-16.22868
476;Matam;195;SN;MT;15.6600225;-13.2576906
477;Saint-Louis;195;SN;SL;38.6270025;-90.1994042
482;Sédhiou;195;SN;SE;12.704604;-15.5562304
486;Tambacounda Region;195;SN;TC;13.5619011;-13.1740348
484;Thiès Region;195;SN;TH;14.7910052;-16.9358604
478;Ziguinchor;195;SN;ZG;12.5641479;-16.2639825
3728;Belgrade;196;RS;00;44.786568;20.4489216
3717;Bor District;196;RS;14;44.0698918;22.0985086
3732;Braničevo District;196;RS;11;44.6982246;21.5446775
3716;Central Banat District;196;RS;02;45.4788485;20.6082522
3715;Jablanica District;196;RS;23;42.948156;21.8129321
3724;Kolubara District;196;RS;09;44.3509811;20.0004305
3719;Mačva District;196;RS;08;44.5925314;19.5082246
3727;Moravica District;196;RS;17;43.84147;20.2904987
3722;Nišava District;196;RS;20;43.3738902;21.9322331
3714;North Bačka District;196;RS;01;45.9803394;19.5907001
3736;North Banat District;196;RS;03;45.906839;19.9993417
3721;Pčinja District;196;RS;24;42.5836362;22.1430215
3712;Pirot District;196;RS;22;43.0874036;22.5983044
3741;Podunavlje District;196;RS;10;44.4729156;20.9901426
3737;Pomoravlje District;196;RS;13;43.9591379;21.271353
3720;Rasina District;196;RS;19;43.5263525;21.1588178
3725;Raška District;196;RS;18;43.3373461;20.5734005
3711;South Bačka District;196;RS;06;45.4890344;19.6976187
3713;South Banat District;196;RS;04;45.0027457;21.0542509
3740;Srem District;196;RS;07;45.0029171;19.8013773
3734;Šumadija District;196;RS;12;44.2050678;20.7856565
3718;Toplica District;196;RS;21;43.1906592;21.3407762
3733;Vojvodina;196;RS;VO;45.2608651;19.8319338
3726;West Bačka District;196;RS;05;45.7355385;19.1897364
3731;Zaječar District;196;RS;15;43.9015048;22.2738011
3729;Zlatibor District;196;RS;16;43.645417;19.7101455
513;Anse Boileau;197;SC;02;-4.7047268;55.4859363
502;Anse Royale;197;SC;05;-4.7407988;55.5081012
506;Anse-aux-Pins;197;SC;01;-4.6900443;55.5150289
508;Au Cap;197;SC;04;-4.7059723;55.5081012
497;Baie Lazare;197;SC;06;-4.7482525;55.4859363
514;Baie Sainte Anne;197;SC;07;47.05259;-64.9524579
512;Beau Vallon;197;SC;08;-4.6210967;55.4277802
515;Bel Air;197;SC;09;34.1002455;-118.459463
505;Bel Ombre;197;SC;10;-20.5010095;57.4259624
517;Cascade;197;SC;11;44.5162821;-116.0417983
503;Glacis;197;SC;12;47.1157303;-70.3028183
500;Grand'Anse Mahé;197;SC;13;-4.677392;55.463777
504;Grand'Anse Praslin;197;SC;14;-4.3176219;55.7078363
495;La Digue;197;SC;15;49.7666922;-97.1546629
516;La Rivière Anglaise;197;SC;16;-4.610615;55.4540841
499;Les Mamelles;197;SC;24;38.8250505;-90.4834517
494;Mont Buxton;197;SC;17;-4.6166667;55.4457768
498;Mont Fleuri;197;SC;18;-4.6356543;55.4554688
511;Plaisance;197;SC;19;45.607095;-75.1142745
510;Pointe La Rue;197;SC;20;-4.680489;55.5191857
507;Port Glaud;197;SC;21;-4.6488523;55.4194753
501;Roche Caiman;197;SC;25;-4.6396028;55.4679315
496;Saint Louis;197;SC;22;38.6270025;-90.1994042
509;Takamaka;197;SC;23;37.9645917;-1.2217727
914;Eastern Province;198;SL;E;0;0
911;Northern Province;198;SL;N;0;0
912;Southern Province;198;SL;S;0;0
913;Western Area;198;SL;W;40.2545969;-80.2455444
4651;Central Singapore Community Development Council;199;SG;01;1.289514;103.8143879
4649;North East Community Development Council;199;SG;02;45.0118113;-93.2468107
4653;North West Community Development Council;199;SG;03;39.107093;-94.457336
4650;South East Community Development Council;199;SG;04;39.286307;-76.5691237
4652;South West Community Development Council;199;SG;05;39.925691;-75.231058
4352;Banská Bystrica Region;200;SK;BC;48.5312499;19.382874
4356;Bratislava Region;200;SK;BL;48.3118304;17.1973299
4353;Košice Region;200;SK;KI;48.6375737;21.0834225
4357;Nitra Region;200;SK;NI;48.0143765;18.5416504
4354;Prešov Region;200;SK;PV;49.1716773;21.3742001
4358;Trenčín Region;200;SK;TC;48.8086758;18.2324026
4355;Trnava Region;200;SK;TA;48.3943898;17.7216205
4359;Žilina Region;200;SK;ZI;49.2031435;19.3645733
4183;Ajdovščina Municipality;201;SI;001;45.8870776;13.9042818
4326;Ankaran Municipality;201;SI;213;45.578451;13.7369174
4301;Beltinci Municipality;201;SI;002;46.6079153;16.2365127
4166;Benedikt Municipality;201;SI;148;46.6155841;15.8957281
4179;Bistrica ob Sotli Municipality;201;SI;149;46.0565579;15.6625947
4202;Bled Municipality;201;SI;003;46.3683266;14.1145798
4278;Bloke Municipality;201;SI;150;45.7728141;14.5063459
4282;Bohinj Municipality;201;SI;004;46.3005652;13.9427195
4200;Borovnica Municipality;201;SI;005;45.9044525;14.3824189
4181;Bovec Municipality;201;SI;006;46.3380495;13.5524174
4141;Braslovče Municipality;201;SI;151;46.2836192;15.041832
4240;Brda Municipality;201;SI;007;45.9975652;13.5270474
4215;Brežice Municipality;201;SI;009;45.9041096;15.5943639
4165;Brezovica Municipality;201;SI;008;45.9559351;14.4349952
4147;Cankova Municipality;201;SI;152;46.718237;16.0197222
4310;Cerklje na Gorenjskem Municipality;201;SI;012;46.2517054;14.4857979
4162;Cerknica Municipality;201;SI;013;45.7966255;14.392177
4178;Cerkno Municipality;201;SI;014;46.1288414;13.9894027
4176;Cerkvenjak Municipality;201;SI;153;46.5670711;15.9429753
4191;City Municipality of Celje;201;SI;011;46.2397495;15.2677063
4236;City Municipality of Novo Mesto;201;SI;085;45.8010824;15.1710089
4151;Črenšovci Municipality;201;SI;015;46.5720029;16.2877346
4232;Črna na Koroškem Municipality;201;SI;016;46.4704529;14.8499998
4291;Črnomelj Municipality;201;SI;017;45.5361225;15.1944143
4304;Destrnik Municipality;201;SI;018;46.4922368;15.8777956
4167;Divača Municipality;201;SI;019;45.6806069;13.9720312
4295;Dobje Municipality;201;SI;154;46.1370037;15.394129
4216;Dobrepolje Municipality;201;SI;020;45.8524951;14.7083109
4252;Dobrna Municipality;201;SI;155;46.3356141;15.2259732
4308;Dobrova–Polhov Gradec Municipality;201;SI;021;46.0648896;14.3168195
4189;Dobrovnik Municipality;201;SI;156;46.6538662;16.3506594
4173;Dol pri Ljubljani Municipality;201;SI;022;46.0884386;14.6424792
4281;Dolenjske Toplice Municipality;201;SI;157;45.7345711;15.0129493
4159;Domžale Municipality;201;SI;023;46.1438269;14.6375279
4290;Dornava Municipality;201;SI;024;46.4443513;15.9889159
4345;Dravograd Municipality;201;SI;025;46.589219;15.0246021
4213;Duplek Municipality;201;SI;026;46.5010016;15.7546307
4293;Gorenja Vas–Poljane Municipality;201;SI;027;46.1116582;14.1149348
4210;Gorišnica Municipality;201;SI;028;46.4120271;16.0133089
4284;Gorje Municipality;201;SI;207;46.3802458;14.0685339
4343;Gornja Radgona Municipality;201;SI;029;46.6767099;15.9910847
4339;Gornji Grad Municipality;201;SI;030;46.2961712;14.8062347
4271;Gornji Petrovci Municipality;201;SI;031;46.8037128;16.2191379
4217;Grad Municipality;201;SI;158;46.808732;16.109206
4336;Grosuplje Municipality;201;SI;032;45.9557645;14.658899
4145;Hajdina Municipality;201;SI;159;46.4185014;15.8244722
4175;Hoče–Slivnica Municipality;201;SI;160;46.477858;15.6476005
4327;Hodoš Municipality;201;SI;161;46.8314134;16.321068
4193;Horjul Municipality;201;SI;162;46.0225378;14.2986269
4341;Hrastnik Municipality;201;SI;034;46.1417288;15.0844894
4321;Hrpelje–Kozina Municipality;201;SI;035;45.6091192;13.9379148
4152;Idrija Municipality;201;SI;036;46.0040939;13.9775493
4286;Ig Municipality;201;SI;037;45.9588868;14.5270528
4305;Ivančna Gorica Municipality;201;SI;039;45.9395841;14.8047626
4322;Izola Municipality;201;SI;040;45.5313557;13.6664649
4337;Jesenice Municipality;201;SI;041;46.4367047;14.0526057
4203;Jezersko Municipality;201;SI;163;46.3942794;14.4985559
4266;Juršinci Municipality;201;SI;042;46.4898651;15.980923
4180;Kamnik Municipality;201;SI;043;46.2221666;14.6070727
4227;Kanal ob Soči Municipality;201;SI;044;46.067353;13.620335
4150;Kidričevo Municipality;201;SI;045;46.3957572;15.7925906
4243;Kobarid Municipality;201;SI;046;46.2456971;13.5786949
4325;Kobilje Municipality;201;SI;047;46.68518;16.3936719
4335;Kočevje Municipality;201;SI;048;45.6428;14.8615838
4315;Komen Municipality;201;SI;049;45.8175235;13.7482711
4283;Komenda Municipality;201;SI;164;46.206488;14.5382499
4319;Koper City Municipality;201;SI;050;45.548059;13.7301877
4254;Kostanjevica na Krki Municipality;201;SI;197;45.8316638;15.4411906
4331;Kostel Municipality;201;SI;165;45.4928255;14.8708235
4186;Kozje Municipality;201;SI;051;46.0733211;15.5596719
4287;Kranj City Municipality;201;SI;052;46.2585021;14.3543569
4340;Kranjska Gora Municipality;201;SI;053;46.4845293;13.7857145
4238;Križevci Municipality;201;SI;166;46.5701821;16.1092653
4197;Kungota;201;SI;055;46.6418793;15.6036288
4211;Kuzma Municipality;201;SI;056;46.8351038;16.08071
4338;Laško Municipality;201;SI;057;46.1542236;15.2361491
4142;Lenart Municipality;201;SI;058;46.5834424;15.8262125
4225;Lendava Municipality;201;SI;059;46.5513483;16.4419839
4347;Litija Municipality;201;SI;060;46.0573226;14.8309636
4270;Ljubljana City Municipality;201;SI;061;46.0569465;14.5057515
4294;Ljubno Municipality;201;SI;062;46.3443125;14.8335492
4351;Ljutomer Municipality;201;SI;063;46.5190848;16.1893216
4306;Log–Dragomer Municipality;201;SI;208;46.0178747;14.3687767
4350;Logatec Municipality;201;SI;064;45.917611;14.2351451
4174;Loška Dolina Municipality;201;SI;065;45.6477908;14.4973147
4158;Loški Potok Municipality;201;SI;066;45.6909637;14.598597
4156;Lovrenc na Pohorju Municipality;201;SI;167;46.5419638;15.4000443
4219;Luče Municipality;201;SI;067;46.3544925;14.7471504
4302;Lukovica Municipality;201;SI;068;46.1696293;14.6907259
4157;Majšperk Municipality;201;SI;069;46.3503019;15.7340595
4224;Makole Municipality;201;SI;198;46.3168697;15.6664126
4242;Maribor City Municipality;201;SI;070;46.5506496;15.6205439
4244;Markovci Municipality;201;SI;168;46.3879309;15.9586014
4349;Medvode Municipality;201;SI;071;46.141908;14.4032596
4348;Mengeš Municipality;201;SI;072;46.1659122;14.5719694
4323;Metlika Municipality;201;SI;073;45.6480715;15.3177838
4265;Mežica Municipality;201;SI;074;46.5215027;14.852134
4223;Miklavž na Dravskem Polju Municipality;201;SI;169;46.5082628;15.6952065
4220;Miren–Kostanjevica Municipality;201;SI;075;45.8436029;13.6276647
4298;Mirna Municipality;201;SI;212;45.9515647;15.0620977
4237;Mirna Peč Municipality;201;SI;170;45.8481574;15.087945
4212;Mislinja Municipality;201;SI;076;46.4429403;15.1987678
4297;Mokronog–Trebelno Municipality;201;SI;199;45.9088529;15.1596736
4168;Moravče Municipality;201;SI;077;46.1362781;14.746001
4218;Moravske Toplice Municipality;201;SI;078;46.6856932;16.2224582
4190;Mozirje Municipality;201;SI;079;46.339435;14.9602413
4318;Municipality of Apače;201;SI;195;46.6974679;15.9102534
4309;Municipality of Cirkulane;201;SI;196;46.3298322;15.9980666
4344;Municipality of Ilirska Bistrica;201;SI;038;45.5791323;14.2809729
4314;Municipality of Krško;201;SI;054;45.9589609;15.4923555
4187;Municipality of Škofljica;201;SI;123;45.9840962;14.5746626
4313;Murska Sobota City Municipality;201;SI;080;46.6432147;16.1515754
4208;Muta Municipality;201;SI;081;46.6097366;15.1629995
4177;Naklo Municipality;201;SI;082;46.2718663;14.3156932
4329;Nazarje Municipality;201;SI;083;46.2821741;14.9225629
4205;Nova Gorica City Municipality;201;SI;084;45.976276;13.7308881
4320;Odranci Municipality;201;SI;086;46.5901017;16.2788165
4143;Oplotnica;201;SI;171;46.387163;15.4458131
4221;Ormož Municipality;201;SI;087;46.4353333;16.154374
4199;Osilnica Municipality;201;SI;088;45.5418467;14.7156303
4172;Pesnica Municipality;201;SI;089;46.6088755;15.6757051
4201;Piran Municipality;201;SI;090;45.5288856;13.5680735
4184;Pivka Municipality;201;SI;091;45.6789296;14.2542689
4146;Podčetrtek Municipality;201;SI;092;46.1739542;15.6013816
4161;Podlehnik Municipality;201;SI;172;46.3310782;15.8785836
4234;Podvelka Municipality;201;SI;093;46.6221952;15.3889922
4239;Poljčane Municipality;201;SI;200;46.3139853;15.5784791
4272;Polzela Municipality;201;SI;173;46.280897;15.0737321
4330;Postojna Municipality;201;SI;094;45.774939;14.2134263
4188;Prebold Municipality;201;SI;174;46.2359136;15.0936912
4303;Preddvor Municipality;201;SI;095;46.3017139;14.4218165
4274;Prevalje Municipality;201;SI;175;46.5621146;14.8847861
4228;Ptuj City Municipality;201;SI;096;46.4199535;15.8696884
4288;Puconci Municipality;201;SI;097;46.7200418;16.0997792
4204;Rače–Fram Municipality;201;SI;098;46.4542083;15.6329467
4195;Radeče Municipality;201;SI;099;46.0666954;15.1820438
4292;Radenci Municipality;201;SI;100;46.6231121;16.0506903
4275;Radlje ob Dravi Municipality;201;SI;101;46.6135732;15.2354438
4231;Radovljica Municipality;201;SI;102;46.3355827;14.2094534
4155;Ravne na Koroškem Municipality;201;SI;103;46.5521194;14.9599084
4206;Razkrižje Municipality;201;SI;176;46.5226339;16.2668638
4160;Rečica ob Savinji Municipality;201;SI;209;46.323379;14.922367
4253;Renče–Vogrsko Municipality;201;SI;201;45.8954617;13.6785673
4235;Ribnica Municipality;201;SI;104;45.7400303;14.7265782
4207;Ribnica na Pohorju Municipality;201;SI;177;46.5356145;15.2674538
4233;Rogaška Slatina Municipality;201;SI;106;46.2453973;15.6265014
4264;Rogašovci Municipality;201;SI;105;46.8055785;16.0345237
4209;Rogatec Municipality;201;SI;107;46.2286626;15.6991338
4280;Ruše Municipality;201;SI;108;46.5206265;15.4817869
4222;Šalovci Municipality;201;SI;033;46.8533568;16.2591791
4230;Selnica ob Dravi Municipality;201;SI;178;46.5513918;15.492941
4346;Semič Municipality;201;SI;109;45.6520534;15.1820701
4317;Šempeter–Vrtojba Municipality;201;SI;183;45.9290095;13.6415594
4299;Šenčur Municipality;201;SI;117;46.2433699;14.4192223
4324;Šentilj Municipality;201;SI;118;46.6862839;15.7103567
4241;Šentjernej Municipality;201;SI;119;45.843413;15.3378312
4171;Šentjur Municipality;201;SI;120;46.2654339;15.408
4311;Šentrupert Municipality;201;SI;211;45.9873142;15.0829783
4268;Sevnica Municipality;201;SI;110;46.0070317;15.3045679
4149;Sežana Municipality;201;SI;111;45.7275109;13.8661931
4170;Škocjan Municipality;201;SI;121;45.9175454;15.3101736
4316;Škofja Loka Municipality;201;SI;122;46.1409844;14.2811873
4169;Slovenj Gradec City Municipality;201;SI;112;46.4877718;15.0729478
4332;Slovenska Bistrica Municipality;201;SI;113;46.3919813;15.5727869
4198;Slovenske Konjice Municipality;201;SI;114;46.3369191;15.4214708
4285;Šmarje pri Jelšah Municipality;201;SI;124;46.2287025;15.5190353
4289;Šmarješke Toplice Municipality;201;SI;206;45.8680377;15.2347422
4296;Šmartno ob Paki Municipality;201;SI;125;46.3290372;15.0333937
4279;Šmartno pri Litiji Municipality;201;SI;194;46.0454971;14.8410133
4277;Sodražica Municipality;201;SI;179;45.7616565;14.6352853
4261;Solčava Municipality;201;SI;180;46.4023526;14.6802304
4248;Šoštanj Municipality;201;SI;126;46.3782836;15.0461378
4263;Središče ob Dravi;201;SI;202;46.3959282;16.2704915
4259;Starše Municipality;201;SI;115;46.4674331;15.7640546
4185;Štore Municipality;201;SI;127;46.2222514;15.3126116
4333;Straža Municipality;201;SI;203;45.7768428;15.0948694
4164;Sveta Ana Municipality;201;SI;181;46.65;15.845278
4260;Sveta Trojica v Slovenskih Goricah Municipality;201;SI;204;46.5680809;15.8823064
4229;Sveti Andraž v Slovenskih Goricah Municipality;201;SI;182;46.5189747;15.9498262
4255;Sveti Jurij ob Ščavnici Municipality;201;SI;116;46.5687452;16.0222528
4328;Sveti Jurij v Slovenskih Goricah Municipality;201;SI;210;46.6170791;15.7804677
4273;Sveti Tomaž Municipality;201;SI;205;46.4835283;16.079442
4194;Tabor Municipality;201;SI;184;46.2107921;15.0174249
4312;Tišina Municipality;201;SI;010;46.6541884;16.0754781
4247;Tolmin Municipality;201;SI;128;46.1857188;13.7319838
4246;Trbovlje Municipality;201;SI;129;46.1503563;15.0453137
4214;Trebnje Municipality;201;SI;130;45.9080163;15.0131905
4153;Trnovska Vas Municipality;201;SI;185;46.5294035;15.8853118
4250;Tržič Municipality;201;SI;131;46.3593514;14.3006623
4334;Trzin Municipality;201;SI;186;46.1298241;14.5577637
4251;Turnišče Municipality;201;SI;132;46.6137504;16.32021
4267;Velika Polana Municipality;201;SI;187;46.5731715;16.3444126
4144;Velike Lašče Municipality;201;SI;134;45.8336591;14.6362363
4257;Veržej Municipality;201;SI;188;46.5841135;16.16208
4300;Videm Municipality;201;SI;135;46.363833;15.8781212
4196;Vipava Municipality;201;SI;136;45.8412674;13.9609613
4148;Vitanje Municipality;201;SI;137;46.3815323;15.2950687
4154;Vodice Municipality;201;SI;138;46.1896643;14.4938539
4245;Vojnik Municipality;201;SI;139;46.2920581;15.302058
4163;Vransko Municipality;201;SI;189;46.239006;14.9527249
4262;Vrhnika Municipality;201;SI;140;45.9502719;14.3276422
4226;Vuzenica Municipality;201;SI;141;46.5980836;15.1657237
4269;Zagorje ob Savi Municipality;201;SI;142;46.1345202;14.9964384
4258;Žalec Municipality;201;SI;190;46.2519712;15.1650072
4182;Zavrč Municipality;201;SI;143;46.35713;16.0477747
4256;Železniki Municipality;201;SI;146;46.2256377;14.1693617
4249;Žetale Municipality;201;SI;191;46.2742833;15.7913359
4192;Žiri Municipality;201;SI;147;46.0472499;14.1098451
4276;Žirovnica Municipality;201;SI;192;46.3954403;14.1539632
4342;Zreče Municipality;201;SI;144;46.4177786;15.3709431
4307;Žužemberk Municipality;201;SI;193;45.820035;14.9535919
4784;Central Province;202;SB;CE;0;0
4781;Choiseul Province;202;SB;CH;-7.0501494;156.9511459
4785;Guadalcanal Province;202;SB;GU;-9.5773284;160.1455805
4778;Honiara;202;SB;CT;-9.4456381;159.9728999
4780;Isabel Province;202;SB;IS;-8.0592353;159.1447081
4782;Makira-Ulawa Province;202;SB;MK;-10.5737447;161.8096941
4783;Malaita Province;202;SB;ML;-8.9446168;160.9071236
4787;Rennell and Bellona Province;202;SB;RB;-11.6131435;160.1693949
4779;Temotu Province;202;SB;TE;-10.686929;166.0623979
4786;Western Province;202;SB;WE;0;0
925;Awdal Region;203;SO;AW;10.6334285;43.329466
917;Bakool;203;SO;BK;4.3657221;44.0960311
927;Banaadir;203;SO;BN;2.1187375;45.3369459
930;Bari;203;SO;BR;41.1171432;16.8718715
926;Bay;203;SO;BY;37.0365534;-95.6174767
918;Galguduud;203;SO;GA;5.1850128;46.8252838
928;Gedo;203;SO;GE;3.5039227;42.2362435
915;Hiran;203;SO;HI;4.321015;45.2993862
924;Lower Juba;203;SO;JH;0.224021;41.6011814
921;Lower Shebelle;203;SO;SH;1.8766458;44.2479015
922;Middle Juba;203;SO;JD;2.0780488;41.6011814
923;Middle Shebelle;203;SO;SD;2.9250247;45.9039689
916;Mudug;203;SO;MU;6.5656726;47.7637565
920;Nugal;203;SO;NU;43.2793861;17.0339205
919;Sanaag Region;203;SO;SA;10.3938218;47.7637565
929;Togdheer Region;203;SO;TO;9.4460587;45.2993862
938;Eastern Cape;204;ZA;EC;-32.2968402;26.419389
932;Free State;204;ZA;FS;37.6858525;-97.2811256
936;Gauteng;204;ZA;GP;-26.2707593;28.1122679
935;KwaZulu-Natal;204;ZA;KZN;-28.5305539;30.8958242
933;Limpopo;204;ZA;LP;-23.4012946;29.4179324
937;Mpumalanga;204;ZA;MP;-25.565336;30.5279096
934;North West;204;ZA;NW;32.758852;-97.328806
931;Northern Cape;204;ZA;NC;-29.0466808;21.8568586
939;Western Cape;204;ZA;WC;-33.2277918;21.8568586
2092;Central Equatoria;206;SS;EC;4.6144063;31.2626366
2093;Eastern Equatoria;206;SS;EE;5.0692995;33.438353
2094;Jonglei State;206;SS;JG;7.1819619;32.3560952
2090;Lakes;206;SS;LK;37.1628255;-95.6911623
2088;Northern Bahr el Ghazal;206;SS;BN;8.5360449;26.7967849
2085;Unity;206;SS;UY;37.7871276;-122.4034079
2086;Upper Nile;206;SS;NU;9.8894202;32.7181375
2087;Warrap;206;SS;WR;8.0886238;28.6410641
2091;Western Bahr el Ghazal;206;SS;BW;8.6452399;25.2837585
2089;Western Equatoria;206;SS;EW;5.3471799;28.299435
1193;Andalusia;207;ES;AN;37.5442706;-4.7277528
1177;Aragon;207;ES;AR;41.5976275;-0.9056623
1160;Asturias;207;ES;AS;43.3613953;-5.8593267
1189;Ávila;207;ES;AV;40.6934511;-4.8935627
1174;Balearic Islands;207;ES;PM;39.3587759;2.7356328
1191;Basque Country;207;ES;PV;42.9896248;-2.6189273
1146;Burgos Province;207;ES;BU;42.3380758;-3.5812692
1185;Canary Islands;207;ES;CN;28.2915637;-16.6291304
1170;Cantabria;207;ES;CB;43.1828396;-3.9878427
1184;Castile and León;207;ES;CL;41.8356821;-4.3976357
1205;Castilla La Mancha;207;ES;CM;39.2795607;-3.097702
1203;Catalonia;207;ES;CT;41.5911589;1.5208624
1206;Ceuta;207;ES;CE;35.8893874;-5.3213455
1190;Extremadura;207;ES;EX;39.4937392;-6.0679194
1167;Galicia;207;ES;GA;42.5750554;-8.1338558
1171;La Rioja;207;ES;RI;42.2870733;-2.539603
1200;Léon;207;ES;LE;42.5987041;-5.5670839
1158;Madrid;207;ES;MD;40.4167515;-3.7038322
1159;Melilla;207;ES;ML;35.2922775;-2.9380973
1176;Murcia;207;ES;MC;38.1398141;-1.366216
1204;Navarra;207;ES;NC;42.6953909;-1.6760691
1157;Palencia Province;207;ES;P;42.0096832;-4.5287949
1147;Salamanca Province;207;ES;SA;40.9515263;-6.2375947
1192;Segovia Province;207;ES;SG;40.9429296;-4.1088942
1208;Soria Province;207;ES;SO;41.7665464;-2.4790306
1175;Valencia;207;ES;VC;39.4840108;-0.7532809
1183;Valladolid Province;207;ES;VA;41.6517375;-4.724495
1161;Zamora Province;207;ES;ZA;41.6095744;-5.8987139
2799;Ampara District;208;LK;52;7.2911685;81.6723761
2816;Anuradhapura District;208;LK;71;8.3318305;80.4029017
2790;Badulla District;208;LK;81;6.9934009;81.0549815
2818;Batticaloa District;208;LK;51;7.8292781;81.4718387
2798;Central Province;208;LK;2;0;0
2815;Colombo District;208;LK;11;6.9269557;79.8617306
2808;Eastern Province;208;LK;5;0;0
2792;Galle District;208;LK;31;6.057749;80.2175572
2804;Gampaha District;208;LK;12;7.0712619;80.0087746
2791;Hambantota District;208;LK;33;6.1535816;81.127149
2787;Jaffna District;208;LK;41;9.6930468;80.1651854
2789;Kalutara District;208;LK;13;6.6084686;80.1428584
2788;Kandy District;208;LK;21;7.2931588;80.6350107
2797;Kegalle District;208;LK;92;7.1204053;80.3213106
2793;Kilinochchi District;208;LK;42;9.3677971;80.3213106
2805;Mannar District;208;LK;43;8.9809531;79.9043975
2810;Matale District;208;LK;22;7.4659646;80.6234259
2806;Matara District;208;LK;32;5.9449348;80.5487997
2819;Monaragala District;208;LK;82;6.8727781;81.3506832
2814;Mullaitivu District;208;LK;45;9.2675388;80.8128254
2800;North Central Province;208;LK;7;8.1995638;80.6326916
2817;North Western Province;208;LK;6;7.7584091;80.1875065
2813;Northern Province;208;LK;4;0;0
2794;Nuwara Eliya District;208;LK;23;6.9606532;80.7692758
2812;Polonnaruwa District;208;LK;72;7.9395567;81.0003403
2796;Puttalam District;208;LK;62;8.0259915;79.8471272
2807;Ratnapura district;208;LK;91;6.7055168;80.3848389
2803;Sabaragamuwa Province;208;LK;9;6.7395941;80.365865
2801;Southern Province;208;LK;3;0;0
2795;Trincomalee District;208;LK;53;8.6013069;81.1196075
2811;Uva Province;208;LK;8;6.8427612;81.3399414
2809;Vavuniya District;208;LK;44;8.7594739;80.5000334
2802;Western Province;208;LK;1;0;0
885;Al Jazirah;209;SD;GZ;14.8859611;33.438353
886;Al Qadarif;209;SD;GD;14.024307;35.3685679
887;Blue Nile;209;SD;NB;47.598673;-122.334419
896;Central Darfur;209;SD;DC;14.3782747;24.9042208
892;East Darfur;209;SD;DE;14.3782747;24.9042208
884;Kassala;209;SD;KA;15.4581332;36.4039629
881;Khartoum;209;SD;KH;15.5006544;32.5598994
890;North Darfur;209;SD;DN;15.7661969;24.9042208
893;North Kordofan;209;SD;KN;13.8306441;29.4179324
895;Northern;209;SD;NO;38.063817;-84.4628648
880;Red Sea;209;SD;RS;20.280232;38.512573
891;River Nile;209;SD;NR;23.9727595;32.8749206
882;Sennar;209;SD;SI;13.567469;33.5672045
894;South Darfur;209;SD;DS;11.6488639;24.9042208
883;South Kordofan;209;SD;KS;11.1990192;29.4179324
888;West Darfur;209;SD;DW;12.8463561;23.0011989
889;West Kordofan;209;SD;GK;11.1990192;29.4179324
879;White Nile;209;SD;NW;9.3321516;31.46153
2846;Brokopondo District;210;SR;BR;4.7710247;-55.0493375
2839;Commewijne District;210;SR;CM;5.740211;-54.8731219
2842;Coronie District;210;SR;CR;5.6943271;-56.2929381
2845;Marowijne District;210;SR;MA;5.6268128;-54.2593118
2840;Nickerie District;210;SR;NI;5.5855469;-56.8311117
2841;Para District;210;SR;PR;5.4817318;-55.2259207
2843;Paramaribo District;210;SR;PM;5.8520355;-55.2038278
2848;Saramacca District;210;SR;SA;5.7240813;-55.6689636
2847;Sipaliwini District;210;SR;SI;3.6567382;-56.2035387
2844;Wanica District;210;SR;WA;5.7323762;-55.2701235
969;Hhohho District;212;SZ;HH;-26.1365662;31.3541631
970;Lubombo District;212;SZ;LU;-26.7851773;31.8107079
968;Manzini District;212;SZ;MA;-26.5081999;31.3713164
971;Shiselweni District;212;SZ;SH;-26.9827577;31.3541631
1537;Blekinge;213;SE;K;56.2783837;15.0180058
1534;Dalarna County;213;SE;W;61.0917012;14.6663653
1533;Gävleborg County;213;SE;X;61.3011993;16.1534214
1546;Gotland County;213;SE;I;57.4684121;18.4867447
1548;Halland County;213;SE;N;56.8966805;12.8033993
1550;Jönköping County;213;SE;F;57.3708434;14.3439174
1544;Kalmar County;213;SE;H;57.2350156;16.1849349
1542;Kronoberg County;213;SE;G;56.7183403;14.4114673
1538;Norrbotten County;213;SE;BD;66.8309216;20.3991966
1539;Örebro County;213;SE;T;59.535036;15.0065731
1536;Östergötland County;213;SE;E;58.3453635;15.5197844
1541;Skåne County;213;SE;M;55.9902572;13.5957692
1540;Södermanland County;213;SE;D;59.0336349;16.7518899
1551;Stockholm County;213;SE;AB;59.6024958;18.1384383
1545;Uppsala County;213;SE;C;60.0092262;17.2714588
1535;Värmland County;213;SE;S;59.7294065;13.2354024
1543;Västerbotten County;213;SE;AC;65.3337311;16.5161694
1552;Västernorrland County;213;SE;Y;63.4276473;17.7292444
1549;Västmanland County;213;SE;U;59.6713879;16.2158953
1547;Västra Götaland County;213;SE;O;58.2527926;13.0596425
1639;Aargau;214;CH;AG;47.3876664;8.2554295
1655;Appenzell Ausserrhoden;214;CH;AR;47.366481;9.3000916
1649;Appenzell Innerrhoden;214;CH;AI;47.3161925;9.4316573
1641;Basel-Landschaft;214;CH;BL;47.4418122;7.7644002
1645;canton of Bern;214;CH;BE;46.7988621;7.7080701
1640;Canton of Fribourg;214;CH;FR;46.6816748;7.1172635
1647;Canton of Geneva;214;CH;GE;46.2180073;6.1216925
1658;Canton of Jura;214;CH;JU;47.3444474;7.1430608
1663;Canton of Lucerne;214;CH;LU;47.0795671;8.1662445
1659;Canton of Neuchâtel;214;CH;NE;46.9899874;6.9292732
1654;Canton of Schaffhausen;214;CH;SH;47.7009364;8.568004
1662;Canton of Solothurn;214;CH;SO;47.3320717;7.6388385
1644;Canton of St. Gallen;214;CH;SG;47.1456254;9.3504332
1648;Canton of Valais;214;CH;VS;46.1904614;7.5449226
1651;Canton of Vaud;214;CH;VD;46.5613135;6.536765
1646;Canton of Zug;214;CH;ZG;47.1661505;8.5154749
1656;canton of Zürich;214;CH;ZH;47.359536;8.6356452
1661;Glarus;214;CH;GL;47.0411232;9.0679
1660;Graubünden;214;CH;GR;46.6569871;9.5780257
1652;Nidwalden;214;CH;NW;46.9267016;8.3849982
1650;Obwalden;214;CH;OW;46.877858;8.251249
1653;Schwyz;214;CH;SZ;47.0207138;8.6529884
1657;Thurgau;214;CH;TG;47.6037856;9.0557371
1643;Ticino;214;CH;TI;46.331734;8.8004529
1642;Uri;214;CH;UR;41.4860647;-71.5308537
2941;Al-Hasakah Governorate;215;SY;HA;36.405515;40.7969149
2944;Al-Raqqah Governorate;215;SY;RA;35.9594106;38.9981052
2946;Aleppo Governorate;215;SY;HL;36.2262393;37.4681396
2936;As-Suwayda Governorate;215;SY;SU;32.7989156;36.7819505
2939;Damascus Governorate;215;SY;DI;33.5151444;36.3931354
2945;Daraa Governorate;215;SY;DR;32.9248813;36.1762615
2937;Deir ez-Zor Governorate;215;SY;DY;35.2879798;40.3088626
2934;Hama Governorate;215;SY;HM;35.1887865;37.2115829
2942;Homs Governorate;215;SY;HI;34.2567123;38.3165725
2940;Idlib Governorate;215;SY;ID;35.8268798;36.6957216
2938;Latakia Governorate;215;SY;LA;35.6129791;36.0023225
2943;Quneitra Governorate;215;SY;QU;33.0776318;35.8934136
2935;Rif Dimashq Governorate;215;SY;RD;33.5167289;36.954107
2947;Tartus Governorate;215;SY;TA;35.0006652;36.0023225
3404;Changhua County;216;TW;CHA;24.0517963;120.5161352
3418;Chiayi City;216;TW;CYQ;23.4800751;120.4491113
3408;Chiayi County;216;TW;CYI;23.4518428;120.2554615
3417;Hsinchu;216;TW;HSZ;24.8138287;120.9674798
3423;Hsinchu County;216;TW;HSQ;24.8387226;121.0177246
3411;Hualien County;216;TW;HUA;23.9871589;121.6015714
3412;Kaohsiung;216;TW;KHH;22.6272784;120.3014353
3409;Kaohsiung County;216;TW;KHQ;22.6272784;120.3014353
3415;Kinmen;216;TW;KIN;24.3487792;118.3285644
3420;Lienchiang County;216;TW;LIE;26.1505556;119.9288889
3413;Miaoli County;216;TW;MIA;24.560159;120.8214265
3407;Nantou County;216;TW;NAN;23.9609981;120.9718638
3403;Penghu County;216;TW;PEN;23.5711899;119.5793157
3405;Pingtung County;216;TW;PIF;22.5519759;120.5487597
3406;Taichung;216;TW;TXG;24.1477358;120.6736482
3414;Taichung County;216;TW;TXQ;24.1477358;120.6736482
3421;Tainan;216;TW;TNN;22.9997281;120.2270277
3401;Tainan County;216;TW;TNQ;22.9997281;120.2270277
3422;Taipei;216;TW;TPE;25.0329694;121.5654177
3410;Taitung County;216;TW;TTT;22.7972447;121.0713702
3419;Taoyuan City;216;TW;TAO;24.9936281;121.3009798
3402;Yilan County;216;TW;ILA;24.7021073;121.7377502
3416;Yunlin County;216;TW;YUN;23.7092033;120.4313373
3397;districts of Republican Subordination;217;TJ;RA;39.0857902;70.2408325
3399;Gorno-Badakhshan Autonomous Province;217;TJ;GB;38.412732;73.087749
3398;Khatlon Province;217;TJ;KT;37.9113562;69.097023
3400;Sughd Province;217;TJ;SU;39.5155326;69.097023
1491;Arusha Region;218;TZ;01;-3.3869254;36.6829927
1490;Dar es Salaam Region;218;TZ;02;-6.792354;39.2083284
1466;Dodoma Region;218;TZ;03;-6.5738228;36.2630846
1481;Geita Region;218;TZ;27;-2.8242257;32.2653887
1489;Iringa Region;218;TZ;04;-7.7887442;35.5657862
1465;Kagera Region;218;TZ;05;-1.3001115;31.2626366
1482;Katavi Region;218;TZ;28;-6.3677125;31.2626366
1478;Kigoma Region;218;TZ;08;-4.8824092;29.6615055
1467;Kilimanjaro Region;218;TZ;09;-4.1336927;37.8087693
1483;Lindi Region;218;TZ;12;-9.2343394;38.3165725
1484;Manyara Region;218;TZ;26;-4.3150058;36.954107
1468;Mara Region;218;TZ;13;-1.7753538;34.1531947
1470;Morogoro Region;218;TZ;16;-8.8137173;36.954107
1476;Mtwara Region;218;TZ;17;-10.3398455;40.1657466
1479;Mwanza Region;218;TZ;18;-2.4671197;32.8986812
1480;Njombe Region;218;TZ;29;-9.2422632;35.1268781
1488;North Pemba Region;218;TZ;06;-5.0319352;39.7755571
1485;Pwani Region;218;TZ;19;-7.3237714;38.8205454
1477;Rukwa Region;218;TZ;20;-8.0109444;31.4456179
1486;Ruvuma Region;218;TZ;21;-10.6878717;36.2630846
1463;Shinyanga Region;218;TZ;22;-3.6809961;33.4271403
1464;Simiyu Region;218;TZ;30;-2.8308738;34.1531947
1474;Singida Region;218;TZ;23;-6.7453352;34.1531947
1472;South Pemba Region;218;TZ;10;-5.3146961;39.7549511
1469;Tabora Region;218;TZ;24;-5.0342138;32.8084496
1487;Tanga Region;218;TZ;25;-5.3049789;38.3165725
1471;Zanzibar Central/South Region;218;TZ;11;-6.2642851;39.4450281
1473;Zanzibar North Region;218;TZ;07;-5.9395093;39.2791011
1475;Zanzibar Urban/West Region;218;TZ;15;-6.2298136;39.2583293
3523;Amnat Charoen;219;TH;37;15.8656783;104.6257774
3519;Ang Thong;219;TH;15;14.5896054;100.455052
3554;Bangkok;219;TH;10;13.7563309;100.5017651
3533;Bueng Kan;219;TH;38;18.3609104;103.6464463
3534;Buri Ram;219;TH;31;14.9951003;103.1115915
3552;Chachoengsao;219;TH;24;13.6904194;101.0779596
3522;Chai Nat;219;TH;18;15.1851971;100.125125
3486;Chanthaburi;219;TH;22;12.6112485;102.1037806
3491;Chiang Mai;219;TH;50;18.7883439;98.9853008
3498;Chiang Rai;219;TH;57;19.9104798;99.840576
3513;Chon Buri;219;TH;20;13.3611431;100.9846717
3526;Chumphon;219;TH;86;10.4930496;99.1800199
3550;Kalasin;219;TH;46;16.438508;103.5060994
3516;Kamphaeng Phet;219;TH;62;16.4827798;99.5226618
3511;Kanchanaburi;219;TH;71;14.1011393;99.4179431
3485;Khon Kaen;219;TH;40;16.4321938;102.8236214
3478;Krabi;219;TH;81;8.0862997;98.9062835
3544;Lampang;219;TH;52;18.2855395;99.5127895
3483;Lamphun;219;TH;51;18.5744606;99.0087221
3509;Loei;219;TH;42;17.4860232;101.7223002
3543;Lopburi;219;TH;16;14.7995081;100.6533706
3505;Mae Hong Son;219;TH;58;19.3020296;97.9654368
3517;Maha Sarakham;219;TH;44;16.0132015;103.1615169
3546;Mukdahan;219;TH;49;16.5435914;104.7024121
3535;Nakhon Nayok;219;TH;26;14.2069466;101.2130511
3503;Nakhon Pathom;219;TH;73;13.8140293;100.0372929
3548;Nakhon Phanom;219;TH;48;17.392039;104.7695508
3497;Nakhon Ratchasima;219;TH;30;14.9738493;102.083652
3492;Nakhon Sawan;219;TH;60;15.6987382;100.11996
3520;Nakhon Si Thammarat;219;TH;80;8.4324831;99.9599033
3530;Nan;219;TH;55;45.522208;-122.9863281
3553;Narathiwat;219;TH;96;6.4254607;101.8253143
3480;Nong Bua Lam Phu;219;TH;39;17.2218247;102.4260368
3484;Nong Khai;219;TH;43;17.8782803;102.7412638
3495;Nonthaburi;219;TH;12;13.8591084;100.5216508
3500;Pathum Thani;219;TH;13;14.0208391;100.5250276
3540;Pattani;219;TH;94;6.7618308;101.3232549
3507;Pattaya;219;TH;S;12.9235557;100.8824551
3549;Phang Nga;219;TH;82;8.4501414;98.5255317
3488;Phatthalung;219;TH;93;7.6166823;100.0740231
3538;Phayao;219;TH;56;19.2154367;100.2023692
3515;Phetchabun;219;TH;67;16.301669;101.1192804
3532;Phetchaburi;219;TH;76;12.9649215;99.6425883
3514;Phichit;219;TH;66;16.2740876;100.3346991
3506;Phitsanulok;219;TH;65;16.8211238;100.2658516
3494;Phra Nakhon Si Ayutthaya;219;TH;14;14.3692325;100.5876634
3528;Phrae;219;TH;54;18.1445774;100.1402831
3536;Phuket;219;TH;83;7.8804479;98.3922504
3542;Prachin Buri;219;TH;25;14.0420699;101.6600874
3508;Prachuap Khiri Khan;219;TH;77;11.7938389;99.7957564
3479;Ranong;219;TH;85;9.9528702;98.6084641
3499;Ratchaburi;219;TH;70;13.5282893;99.8134211
3518;Rayong;219;TH;21;12.6813957;101.2816261
3510;Roi Et;219;TH;45;16.0538196;103.6520036
3529;Sa Kaeo;219;TH;27;13.824038;102.0645839
3501;Sakon Nakhon;219;TH;47;17.1664211;104.1486055
3481;Samut Prakan;219;TH;11;13.5990961;100.5998319
3504;Samut Sakhon;219;TH;74;13.5475216;100.2743956
3502;Samut Songkhram;219;TH;75;13.4098217;100.0022645
3487;Saraburi;219;TH;19;14.5289154;100.9101421
3537;Satun;219;TH;91;6.6238158;100.0673744
3547;Si Sa Ket;219;TH;33;15.1186009;104.3220095
3490;Sing Buri;219;TH;17;14.8936253;100.3967314
3539;Songkhla;219;TH;90;7.1897659;100.5953813
3545;Sukhothai;219;TH;64;43.6485556;-79.3746639
3524;Suphanburi;219;TH;72;14.4744892;100.1177128
3482;Surat Thani;219;TH;84;9.1341949;99.3334198
3531;Surin;219;TH;32;37.0358271;-95.6276367
3525;Tak;219;TH;63;45.0299646;-93.1049815
3541;Trang;219;TH;92;7.5644833;99.6239334
3496;Trat;219;TH;23;12.2427563;102.5174734
3512;Ubon Ratchathani;219;TH;34;15.2448453;104.8472995
3527;Udon Thani;219;TH;41;17.3646969;102.8158924
3551;Uthai Thani;219;TH;61;15.3835001;100.0245527
3489;Uttaradit;219;TH;53;17.6200886;100.0992942
3493;Yala;219;TH;95;44.0579117;-123.1653848
3521;Yasothon;219;TH;35;15.792641;104.1452827
2575;Centrale Region;220;TG;C;8.6586029;1.0586135
2579;Kara Region;220;TG;K;9.7216393;1.0586135
2576;Maritime;220;TG;M;41.6551493;-83.5278467
2577;Plateaux Region;220;TG;P;7.6101378;1.0586135
2578;Savanes Region;220;TG;S;10.5291781;0.5257823
3913;Haʻapai;222;TO;02;-19.75;-174.366667
3915;ʻEua;222;TO;01;37.09024;-95.712891
3914;Niuas;222;TO;03;-15.9594;-173.783
3912;Tongatapu;222;TO;04;-21.1465968;-175.2515482
3911;Vavaʻu;222;TO;05;-18.622756;-173.9902982
3362;Arima;223;TT;ARI;46.7931604;-71.2584311
3366;Chaguanas;223;TT;CHA;10.5168387;-61.4114482
3354;Couva-Tabaquite-Talparo Regional Corporation;223;TT;CTT;10.4297145;-61.373521
3367;Diego Martin Regional Corporation;223;TT;DMN;10.7362286;-61.5544836
3355;Eastern Tobago;223;TT;ETO;11.2979348;-60.5588524
3365;Penal-Debe Regional Corporation;223;TT;PED;10.1337402;-61.4435474
3360;Point Fortin;223;TT;PTF;10.1702737;-61.6713386
3363;Port of Spain;223;TT;POS;10.6603196;-61.5085625
3368;Princes Town Regional Corporation;223;TT;PRT;10.1786746;-61.2801996
3356;Rio Claro-Mayaro Regional Corporation;223;TT;MRC;10.2412832;-61.0937206
3359;San Fernando;223;TT;SFO;34.2819461;-118.4389719
3357;San Juan-Laventille Regional Corporation;223;TT;SJL;10.6908578;-61.4552213
3361;Sangre Grande Regional Corporation;223;TT;SGE;10.5852939;-61.1315813
3364;Siparia Regional Corporation;223;TT;SIP;10.1245626;-61.5603244
3358;Tunapuna-Piarco Regional Corporation;223;TT;TUP;10.6859096;-61.3035248
3353;Western Tobago;223;TT;WTO;11.1897072;-60.7795452
2550;Ariana Governorate;224;TN;12;36.9922751;10.1255164
2566;Ben Arous Governorate;224;TN;13;36.6435606;10.2151578
2551;Bizerte Governorate;224;TN;23;37.1609397;9.634135
2558;Gabès Governorate;224;TN;81;33.9459648;9.7232673
2556;Gafsa Governorate;224;TN;71;34.3788505;8.6600586
2552;Jendouba Governorate;224;TN;32;36.7181862;8.7481167
2564;Kairouan Governorate;224;TN;41;35.6711663;10.1005469
2570;Kasserine Governorate;224;TN;42;35.0809148;8.6600586
2572;Kassrine;224;TN;31;35.1722716;8.8307626
2562;Kebili Governorate;224;TN;73;33.7071551;8.9714623
2561;Kef Governorate;224;TN;33;36.1230512;8.6600586
2568;Mahdia Governorate;224;TN;53;35.3352558;10.8903099
2555;Manouba Governorate;224;TN;14;36.8446504;9.8571416
2560;Medenine Governorate;224;TN;82;33.2280565;10.8903099
2553;Monastir Governorate;224;TN;52;35.7642515;10.8112885
2557;Sfax Governorate;224;TN;61;34.8606581;10.3497895
2567;Sidi Bouzid Governorate;224;TN;43;35.0354386;9.4839392
2563;Siliana Governorate;224;TN;34;36.0887208;9.3645335
2571;Sousse Governorate;224;TN;51;35.9022267;10.3497895
2559;Tataouine Governorate;224;TN;83;32.1344122;10.0807298
2569;Tozeur Governorate;224;TN;72;33.9789491;8.0465185
2554;Tunis Governorate;224;TN;11;36.8374946;10.1927389
2565;Zaghouan Governorate;224;TN;22;36.4091188;10.1423172
2212;Adana Province;225;TR;01;37.2612315;35.3905046
2155;Adıyaman Province;225;TR;02;37.9078291;38.4849923
2179;Afyonkarahisar Province;225;TR;03;38.7391099;30.7120023
2193;Ağrı Province;225;TR;04;39.6269218;43.0215965
2210;Aksaray Province;225;TR;68;38.3352043;33.9750018
2161;Amasya Province;225;TR;05;40.6516608;35.9037966
2217;Ankara Province;225;TR;06;39.7805245;32.7181375
2169;Antalya Province;225;TR;07;37.0951672;31.0793705
2185;Ardahan Province;225;TR;75;41.1112964;42.7831674
2191;Artvin Province;225;TR;08;41.078664;41.7628223
2187;Aydın Province;225;TR;09;37.8117033;28.4863963
2175;Balıkesir Province;225;TR;10;39.7616782;28.1122679
2148;Bartın Province;225;TR;74;41.5810509;32.4609794
2194;Batman Province;225;TR;72;37.8362496;41.3605739
2177;Bayburt Province;225;TR;69;40.26032;40.228048
2221;Bilecik Province;225;TR;11;40.0566555;30.0665236
2153;Bingöl Province;225;TR;12;39.0626354;40.7696095
2215;Bitlis Province;225;TR;13;38.6523133;42.4202028
2172;Bolu Province;225;TR;14;40.5759766;31.5788086
2209;Burdur Province;225;TR;15;37.4612669;30.0665236
2163;Bursa Province;225;TR;16;40.0655459;29.2320784
2216;Çanakkale Province;225;TR;17;40.0510104;26.9852422
2168;Çankırı Province;225;TR;18;40.5369073;33.5883893
2173;Çorum Province;225;TR;19;40.4998211;34.5986263
2157;Denizli Province;225;TR;20;37.6128395;29.2320784
2226;Diyarbakır Province;225;TR;21;38.1066372;40.5426896
2202;Düzce Province;225;TR;81;40.8770531;31.3192713
2151;Edirne Province;225;TR;22;41.1517222;26.5137964
2159;Elazığ Province;225;TR;23;38.4964804;39.2199029
2160;Erzincan Province;225;TR;24;39.7681914;39.0501306
2165;Erzurum Province;225;TR;25;40.0746799;41.6694562
2164;Eskişehir Province;225;TR;26;39.6329657;31.2626366
2203;Gaziantep Province;225;TR;27;37.0763882;37.3827234
2186;Giresun Province;225;TR;28;40.6461672;38.5935511
2204;Gümüşhane Province;225;TR;29;40.2803673;39.3143253
2190;Hakkâri Province;225;TR;30;37.4459319;43.7449841
2211;Hatay Province;225;TR;31;36.4018488;36.3498097
2166;Iğdır Province;225;TR;76;39.8879841;44.0048365
2222;Isparta Province;225;TR;32;38.0211464;31.0793705
2170;Istanbul Province;225;TR;34;41.1634302;28.7664408
2205;İzmir Province;225;TR;35;38.3591693;27.2676116
2227;Kahramanmaraş Province;225;TR;46;37.7503036;36.954107
2223;Karabük Province;225;TR;78;41.187489;32.7417419
2184;Karaman Province;225;TR;70;37.2436336;33.617577
2208;Kars Province;225;TR;36;40.2807636;42.9919527
2197;Kastamonu Province;225;TR;37;41.4103863;33.6998334
2200;Kayseri Province;225;TR;38;38.6256854;35.7406882
2154;Kilis Province;225;TR;79;36.8204775;37.1687339
2178;Kırıkkale Province;225;TR;71;39.8876878;33.7555248
2176;Kırklareli Province;225;TR;39;41.7259795;27.483839
2180;Kırşehir Province;225;TR;40;39.2268905;33.9750018
2195;Kocaeli Province;225;TR;41;40.8532704;29.8815203
2171;Konya Province;225;TR;42;37.9838134;32.7181375
2149;Kütahya Province;225;TR;43;39.358137;29.6035495
2158;Malatya Province;225;TR;44;38.4015057;37.9536298
2198;Manisa Province;225;TR;45;38.8419373;28.1122679
2224;Mardin Province;225;TR;47;37.3442929;40.6196487
2156;Mersin Province;225;TR;33;36.8120858;34.641475
2182;Muğla Province;225;TR;48;37.1835819;28.4863963
2162;Muş Province;225;TR;49;38.9461888;41.7538931
2196;Nevşehir Province;225;TR;50;38.6939399;34.6856509
2189;Niğde Province;225;TR;51;38.0993086;34.6856509
2174;Ordu Province;225;TR;52;40.799058;37.3899005
2214;Osmaniye Province;225;TR;80;37.2130258;36.1762615
2219;Rize Province;225;TR;53;40.9581497;40.9226985
2150;Sakarya Province;225;TR;54;40.788855;30.405954
2220;Samsun Province;225;TR;55;41.1864859;36.1322678
2183;Şanlıurfa Province;225;TR;63;37.3569102;39.1543677
2207;Siirt Province;225;TR;56;37.8658862;42.1494523
4854;Sinop Province;225;TR;57;41.5594749;34.8580532
2181;Sivas Province;225;TR;58;39.4488039;37.1294497
2225;Şırnak Province;225;TR;73;37.4187481;42.4918338
2167;Tekirdağ Province;225;TR;59;41.1121227;27.2676116
2199;Tokat Province;225;TR;60;40.3902713;36.6251863
2206;Trabzon Province;225;TR;61;40.799241;39.5847944
2192;Tunceli Province;225;TR;62;39.3073554;39.4387778
2201;Uşak Province;225;TR;64;38.5431319;29.2320784
2152;Van Province;225;TR;65;38.3679417;43.7182787
2218;Yalova Province;225;TR;77;40.5775986;29.2088303
2188;Yozgat Province;225;TR;66;39.7271979;35.1077858
2213;Zonguldak Province;225;TR;67;41.3124917;31.8598251
3374;Ahal Region;226;TM;A;38.6399398;59.4720904
3371;Ashgabat;226;TM;S;37.9600766;58.3260629
3372;Balkan Region;226;TM;B;41.8101472;21.0937311
3373;Daşoguz Region;226;TM;D;41.8368737;59.9651904
3370;Lebap Region;226;TM;L;38.1272462;64.7162415
3369;Mary Region;226;TM;M;36.9481623;62.4504154
3951;Funafuti;228;TV;FUN;-8.5211471;179.1961926
3947;Nanumanga;228;TV;NMG;-6.2858019;176.319928
3949;Nanumea;228;TV;NMA;-5.6881617;176.1370148
3946;Niutao Island Council;228;TV;NIT;-6.1064258;177.3438429
3948;Nui;228;TV;NUI;-7.2388768;177.1485232
3952;Nukufetau;228;TV;NKF;-8.0;178.5
3953;Nukulaelae;228;TV;NKL;-9.381111;179.852222
3950;Vaitupu;228;TV;VAI;-7.4767327;178.6747675
329;Abim District;229;UG;314;2.706698;33.6595337
361;Adjumani District;229;UG;301;3.2548527;31.7195459
392;Agago District;229;UG;322;2.925082;33.3486147
344;Alebtong District;229;UG;323;2.2545773;33.3486147
416;Amolatar District;229;UG;315;1.6054402;32.8084496
353;Amudat District;229;UG;324;1.7916224;34.906551
352;Amuria District;229;UG;216;2.03017;33.6427533
335;Amuru District;229;UG;316;2.9667878;32.0837445
328;Apac District;229;UG;302;1.8730263;32.6277455
447;Arua District;229;UG;303;2.9959846;31.1710389
441;Budaka District;229;UG;217;1.1016277;33.9303991
349;Bududa District;229;UG;218;1.0029693;34.3338123
387;Bugiri District;229;UG;201;0.5316127;33.7517723
391;Buhweju District;229;UG;420;-0.2911359;30.2974199
377;Buikwe District;229;UG;117;0.3144046;32.9888319
343;Bukedea District;229;UG;219;1.3556898;34.1086793
375;Bukomansimbi District;229;UG;118;-0.1432752;31.6054893
385;Bukwo District;229;UG;220;1.2818651;34.7298765
428;Bulambuli District;229;UG;225;1.4798846;34.3754414
389;Buliisa District;229;UG;416;2.0299607;31.5370003
419;Bundibugyo District;229;UG;401;0.6851763;30.0202964
381;Bunyangabu District;229;UG;430;0.4870918;30.2051096
386;Bushenyi District;229;UG;402;-0.4870918;30.2051096
431;Busia District;229;UG;202;0.4044731;34.0195827
365;Butaleja District;229;UG;221;0.8474922;33.8411288
384;Butambala District;229;UG;119;0.17425;32.1064668
388;Butebo District;229;UG;233;1.2141124;33.9080896
414;Buvuma District;229;UG;120;-0.3764912;33.258793
380;Buyende District;229;UG;226;1.2413682;33.1239049
396;Central Region;229;UG;C;44.296875;-94.7401733
341;Dokolo District;229;UG;317;1.9636421;33.0338767
372;Eastern Region;229;UG;E;6.2374036;-0.4502368
366;Gomba District;229;UG;121;0.2229791;31.6739371
413;Gulu District;229;UG;304;2.8185776;32.4467238
339;Ibanda District;229;UG;417;-0.096489;30.5739579
340;Iganga District;229;UG;203;0.6600137;33.4831906
383;Isingiro District;229;UG;418;-0.843543;30.8039474
367;Jinja District;229;UG;204;0.5343743;33.3037143
434;Kaabong District;229;UG;318;3.5126215;33.9750018
426;Kabale District;229;UG;404;-1.2493084;30.0665236
326;Kabarole District;229;UG;405;0.5850791;30.2512728
336;Kaberamaido District;229;UG;213;1.6963322;33.213851
403;Kagadi District;229;UG;427;0.9400761;30.8125638
399;Kakumiro District;229;UG;428;0.7808035;31.3241389
405;Kalangala District;229;UG;101;-0.6350578;32.5372741
398;Kaliro District;229;UG;222;1.0431107;33.4831906
394;Kalungu District;229;UG;122;-0.0952831;31.7651362
382;Kampala District;229;UG;102;0.3475964;32.5825197
334;Kamuli District;229;UG;205;0.9187107;33.1239049
360;Kamwenge District;229;UG;413;0.225793;30.4818446
373;Kanungu District;229;UG;414;-0.8195253;29.742604
432;Kapchorwa District;229;UG;206;1.3350205;34.3976356
440;Kasese District;229;UG;406;0.0646285;30.0665236
420;Katakwi District;229;UG;207;1.973103;34.0641419
368;Kayunga District;229;UG;112;0.9860182;32.8535755
436;Kibaale District;229;UG;407;0.9066802;31.0793705
347;Kiboga District;229;UG;103;0.965759;31.7195459
338;Kibuku District;229;UG;227;1.0452874;33.7992536
355;Kiruhura District;229;UG;419;-0.1927998;30.8039474
346;Kiryandongo District;229;UG;421;2.0179907;32.0837445
409;Kisoro District;229;UG;408;-1.220943;29.6499162
348;Kitgum District;229;UG;305;3.3396829;33.1688883
345;Koboko District;229;UG;319;3.5237058;31.03351
401;Kole District;229;UG;325;2.3701097;32.7633036
443;Kotido District;229;UG;306;3.0415679;33.8857747
425;Kumi District;229;UG;208;1.4876999;33.9303991
369;Kween District;229;UG;228;1.443879;34.597132
325;Kyankwanzi District;229;UG;123;1.0966037;31.7195459
437;Kyegegwa District;229;UG;422;0.4818193;31.0550093
402;Kyenjojo District;229;UG;415;0.6092923;30.6401231
448;Kyotera District;229;UG;125;-0.6358988;31.5455637
411;Lamwo District;229;UG;326;3.5707568;32.5372741
342;Lira District;229;UG;307;2.2316169;32.9437667
445;Luuka District;229;UG;229;0.7250599;33.3037143
433;Luwero District;229;UG;104;0.8271118;32.6277455
417;Lwengo District;229;UG;124;-0.4165288;31.3998995
376;Lyantonde District;229;UG;114;-0.2240696;31.2168466
438;Manafwa District;229;UG;223;0.9063599;34.2866091
421;Maracha District;229;UG;320;3.2873127;30.9403023
356;Masaka District;229;UG;105;-0.4463691;31.9017954
354;Masindi District;229;UG;409;1.4920363;31.7195459
418;Mayuge District;229;UG;214;-0.2182982;33.5728027
350;Mbale District;229;UG;209;1.0344274;34.1976882
415;Mbarara District;229;UG;410;-0.6071596;30.6545022
435;Mitooma District;229;UG;423;-0.6193276;30.0202964
364;Mityana District;229;UG;115;0.4454845;32.0837445
395;Moroto District;229;UG;308;2.6168545;34.597132
363;Moyo District;229;UG;309;3.5696464;31.6739371
327;Mpigi District;229;UG;106;0.2273528;32.3249236
371;Mubende District;229;UG;107;0.5772758;31.5370003
410;Mukono District;229;UG;108;0.2835476;32.7633036
393;Nakapiripirit District;229;UG;311;1.9606173;34.597132
423;Nakaseke District;229;UG;116;1.2230848;32.0837445
406;Nakasongola District;229;UG;109;1.3489721;32.4467238
351;Namayingo District;229;UG;230;-0.2803575;33.7517723
400;Namisindwa District;229;UG;234;0.907101;34.3574037
337;Namutumba District;229;UG;224;0.849261;33.6623301
430;Napak District;229;UG;327;2.3629945;34.2421597
446;Nebbi District;229;UG;310;2.4409392;31.3541631
424;Ngora District;229;UG;231;1.4908115;33.7517723
332;Northern Region;229;UG;N;9.5439269;-0.9056623
422;Ntoroko District;229;UG;424;1.0788178;30.3896651
404;Ntungamo District;229;UG;411;-0.9807341;30.2512728
378;Nwoya District;229;UG;328;2.562444;31.9017954
374;Omoro District;229;UG;331;2.715223;32.4920088
390;Otuke District;229;UG;329;2.5214059;33.3486147
397;Oyam District;229;UG;321;2.2776281;32.4467238
408;Pader District;229;UG;312;2.9430682;32.8084496
357;Pakwach District;229;UG;332;2.4607141;31.4941738
412;Pallisa District;229;UG;210;1.2324206;33.7517723
439;Rakai District;229;UG;110;-0.7069135;31.5370003
358;Rubanda District;229;UG;429;-1.186119;29.8453576
442;Rubirizi District;229;UG;425;-0.264241;30.1084033
331;Rukiga District;229;UG;431;-1.1326337;30.043412
324;Rukungiri District;229;UG;412;-0.751849;29.9277947
427;Sembabule District;229;UG;111;0.0637715;31.3541631
333;Serere District;229;UG;232;1.4994033;33.5490078
407;Sheema District;229;UG;426;-0.5515298;30.3896651
429;Sironko District;229;UG;215;1.2302274;34.2491064
444;Soroti District;229;UG;211;1.7229117;33.5280072
359;Tororo District;229;UG;212;0.6870994;34.0641419
362;Wakiso District;229;UG;113;0.063019;32.4467238
370;Western Region;229;UG;W;40.7667215;-111.8877203
330;Yumbe District;229;UG;313;3.4698023;31.2483291
379;Zombo District;229;UG;330;2.5544293;30.9417368
4689;Autonomous Republic of Crimea;230;UA;43;44.952117;34.102417
4680;Cherkasy Oblast;230;UA;71;49.444433;32.059767
4692;Chernihiv Oblast;230;UA;74;51.4982;31.2893499
4678;Chernivtsi Oblast;230;UA;77;48.291683;25.935217
4675;Dnipropetrovsk Oblast;230;UA;12;48.464717;35.046183
4691;Donetsk Oblast;230;UA;14;48.015883;37.80285
4682;Ivano-Frankivsk Oblast;230;UA;26;48.922633;24.711117
4686;Kharkiv Oblast;230;UA;63;49.9935;36.230383
4684;Kherson Oblast;230;UA;65;46.635417;32.616867
4681;Khmelnytsky Oblast;230;UA;68;49.422983;26.9871331
4676;Kiev;230;UA;30;50.4501;30.5234
4677;Kirovohrad Oblast;230;UA;35;48.507933;32.262317
4671;Kyiv Oblast;230;UA;32;50.0529506;30.7667134
4673;Luhansk Oblast;230;UA;09;48.574041;39.307815
4672;Lviv Oblast;230;UA;46;49.839683;24.029717
4679;Mykolaiv Oblast;230;UA;48;46.975033;31.9945829
4688;Odessa Oblast;230;UA;51;46.484583;30.7326
4683;Rivne Oblast;230;UA;56;50.6199;26.251617
4685;Sumy Oblast;230;UA;59;50.9077;34.7981
4674;Ternopil Oblast;230;UA;61;49.553517;25.594767
4669;Vinnytsia Oblast;230;UA;05;49.233083;28.4682169
4690;Volyn Oblast;230;UA;07;50.747233;25.325383
4670;Zakarpattia Oblast;230;UA;21;48.6208;22.287883
4687;Zaporizhzhya Oblast;230;UA;23;47.8388;35.139567
4668;Zhytomyr Oblast;230;UA;18;50.25465;28.6586669
3396;Abu Dhabi Emirate;231;AE;AZ;24.453884;54.3773438
3395;Ajman Emirate;231;AE;AJ;25.4052165;55.5136433
3391;Dubai;231;AE;DU;25.2048493;55.2707828
3393;Fujairah;231;AE;FU;25.1288099;56.3264849
3394;Ras al-Khaimah;231;AE;RK;25.6741343;55.9804173
3390;Sharjah Emirate;231;AE;SH;25.0753974;55.7578403
3392;Umm al-Quwain;231;AE;UQ;25.5426324;55.5475348
2463;Aberdeen;232;GB;ABE;57.149717;-2.094278
2401;Aberdeenshire;232;GB;ABD;57.2868723;-2.3815684
2387;Angus;232;GB;ANS;37.2757886;-95.6501033
2533;Antrim;232;GB;ANT;54.7195338;-6.2072498
2412;Antrim and Newtownabbey;232;GB;ANN;54.6956887;-5.9481069
2498;Ards;232;GB;ARD;42.1391851;-87.8614972
2523;Ards and North Down;232;GB;AND;54.5899645;-5.5984972
2392;Argyll and Bute;232;GB;AGB;56.4006214;-5.480748
2331;Armagh City and District Council;232;GB;ARM;54.3932592;-6.4563401
2324;Armagh, Banbridge and Craigavon;232;GB;ABC;54.3932592;-6.4563401
2378;Ascension Island;232;GB;SH-AC;-7.9467166;-14.3559158
2363;Ballymena Borough;232;GB;BLA;54.86426;-6.2791074
2361;Ballymoney;232;GB;BLY;55.0704888;-6.5173708
2315;Banbridge;232;GB;BNB;54.348729;-6.2704803
2499;Barnsley;232;GB;BNS;34.2994956;-84.9845809
2339;Bath and North East Somerset;232;GB;BAS;51.3250102;-2.4766241
2507;Bedford;232;GB;BDF;32.844017;-97.1430671
2311;Belfast district;232;GB;BFS;54.6170366;-5.9531861
2425;Birmingham;232;GB;BIR;33.5185892;-86.8103567
2329;Blackburn with Darwen;232;GB;BBD;53.6957522;-2.4682985
2451;Blackpool;232;GB;BPL;53.8175053;-3.0356748
2530;Blaenau Gwent County Borough;232;GB;BGW;51.7875779;-3.2043931
2504;Bolton;232;GB;BOL;44.3726476;-72.8787625
2342;Bournemouth;232;GB;BMH;50.719164;-1.880769
2470;Bracknell Forest;232;GB;BRC;51.4153828;-0.7536495
2529;Bradford;232;GB;BRD;53.795984;-1.759398
2452;Bridgend County Borough;232;GB;BGE;51.5083199;-3.5812075
2395;Brighton and Hove;232;GB;BNH;50.8226288;-0.137047
2405;Buckinghamshire;232;GB;BKM;51.8072204;-0.8127664
2459;Bury;232;GB;BUR;53.5933498;-2.2966054
2298;Caerphilly County Borough;232;GB;CAY;51.6604465;-3.2178724
2517;Calderdale;232;GB;CLD;53.7247845;-1.8658357
2423;Cambridgeshire;232;GB;CAM;52.2052973;0.1218195
2484;Carmarthenshire;232;GB;CMN;51.8572309;-4.3115959
2439;Carrickfergus Borough Council;232;GB;CKF;54.7256843;-5.8093719
2525;Castlereagh;232;GB;CSR;54.575679;-5.8884028
2316;Causeway Coast and Glens;232;GB;CCG;55.043183;-6.6741288
2303;Central Bedfordshire;232;GB;CBF;52.0029744;-0.4651389
2509;Ceredigion;232;GB;CGN;52.2191429;-3.9321256
2444;Cheshire East;232;GB;CHE;53.1610446;-2.2185932
2442;Cheshire West and Chester;232;GB;CHW;53.2302974;-2.7151117
2528;City and County of Cardiff;232;GB;CRF;51.481581;-3.17909
2433;City and County of Swansea;232;GB;SWA;51.62144;-3.943646
2413;City of Bristol;232;GB;BST;41.673522;-72.9465375
2485;City of Derby;232;GB;DER;37.5483755;-97.2485191
2475;City of Kingston upon Hull;232;GB;KHL;53.7676236;-0.3274198
2318;City of Leicester;232;GB;LCE;52.6368778;-1.1397592
2424;City of London;232;GB;LND;51.5123443;-0.0909852
2359;City of Nottingham;232;GB;NGM;52.9547832;-1.1581086
2297;City of Peterborough;232;GB;PTE;44.3093636;-78.320153
2514;City of Plymouth;232;GB;PLY;42.3708941;-83.4697141
2305;City of Portsmouth;232;GB;POR;36.832915;-76.2975549
2294;City of Southampton;232;GB;STH;50.9097004;-1.4043509
2506;City of Stoke-on-Trent;232;GB;STE;53.002668;-2.179404
2372;City of Sunderland;232;GB;SND;54.8861489;-1.4785797
2357;City of Westminster;232;GB;WSM;39.5765977;-76.9972126
2489;City of Wolverhampton;232;GB;WLV;52.588912;-2.156463
2426;City of York;232;GB;YOR;53.9599651;-1.0872979
2450;Clackmannanshire;232;GB;CLK;56.1075351;-3.7529409
2461;Coleraine Borough Council;232;GB;CLR;55.145157;-6.6759814
2352;Conwy County Borough;232;GB;CWY;53.2935013;-3.7265161
2445;Cookstown District Council;232;GB;CKT;54.6418158;-6.7443895
2312;Cornwall;232;GB;CON;50.2660471;-5.0527125
2406;County Durham;232;GB;DUR;54.7294099;-1.8811598
2438;Coventry;232;GB;COV;52.406822;-1.519693
2449;Craigavon Borough Council;232;GB;CGV;54.3932592;-6.4563401
2334;Cumbria;232;GB;CMA;54.5772323;-2.7974835
2389;Darlington;232;GB;DAL;34.2998762;-79.8761741
2497;Denbighshire;232;GB;DEN;53.1842288;-3.4224985
2403;Derbyshire;232;GB;DBY;53.1046782;-1.5623885
2446;Derry City and Strabane;232;GB;DRS;55.0047443;-7.3209222
2417;Derry City Council;232;GB;DRY;54.9690778;-7.1958351
2491;Devon;232;GB;DEV;50.7155591;-3.530875
2364;Doncaster;232;GB;DNC;53.52282;-1.128462
2345;Dorset;232;GB;DOR;50.7487635;-2.3444786
2304;Down District Council;232;GB;DOW;54.2434287;-5.9577959
2457;Dudley;232;GB;DUD;42.0433661;-71.9276033
2415;Dumfries and Galloway;232;GB;DGY;55.0701073;-3.6052581
2511;Dundee;232;GB;DND;56.462018;-2.970721
2508;Dungannon and South Tyrone Borough Council;232;GB;DGN;54.5082684;-6.7665891
2374;East Ayrshire;232;GB;EAY;55.4518496;-4.2644478
2454;East Dunbartonshire;232;GB;EDU;55.9743162;-4.202298
2462;East Lothian;232;GB;ELN;55.9493383;-2.7704464
2333;East Renfrewshire;232;GB;ERW;55.7704735;-4.3359821
2370;East Riding of Yorkshire;232;GB;ERY;53.8416168;-0.4344106
2414;East Sussex;232;GB;ESX;50.9085955;0.2494166
2428;Edinburgh;232;GB;EDH;55.953252;-3.188267
2336;England;232;GB;ENG;52.3555177;-1.1743197
2410;Essex;232;GB;ESS;51.5742447;0.4856781
2344;Falkirk;232;GB;FAL;56.0018775;-3.7839131
2366;Fermanagh and Omagh;232;GB;FMO;54.4513524;-7.7125018
2531;Fermanagh District Council;232;GB;FER;54.3447978;-7.6384218
2479;Fife;232;GB;FIF;56.2082078;-3.1495175
2437;Flintshire;232;GB;FLN;53.1668658;-3.1418908
2431;Gateshead;232;GB;GAT;54.95268;-1.603411
2404;Glasgow;232;GB;GLG;55.864237;-4.251806
2373;Gloucestershire;232;GB;GLS;51.8642112;-2.2380335
2379;Gwynedd;232;GB;GWN;52.9277266;-4.1334836
2466;Halton;232;GB;HAL;43.5325372;-79.8744836
2435;Hampshire;232;GB;HAM;51.0576948;-1.3080629
2309;Hartlepool;232;GB;HPL;54.691745;-1.212926
2500;Herefordshire;232;GB;HEF;52.0765164;-2.6544182
2369;Hertfordshire;232;GB;HRT;51.8097823;-0.2376744
2383;Highland;232;GB;HLD;36.2967508;-95.8380366
2388;Inverclyde;232;GB;IVC;55.9316569;-4.6800158
2289;Isle of Wight;232;GB;IOW;50.6938479;-1.304734
2343;Isles of Scilly;232;GB;IOS;49.9277261;-6.3274966
2464;Kent;232;GB;KEN;41.1536674;-81.3578859
2371;Kirklees;232;GB;KIR;53.5933432;-1.8009509
2330;Knowsley;232;GB;KWL;53.454594;-2.852907
2495;Lancashire;232;GB;LAN;53.7632254;-2.7044052
2515;Larne Borough Council;232;GB;LRN;54.8578003;-5.8236224
2503;Leeds;232;GB;LDS;53.8007554;-1.5490774
2516;Leicestershire;232;GB;LEC;52.772571;-1.2052126
2382;Limavady Borough Council;232;GB;LMV;55.051682;-6.9491944
2355;Lincolnshire;232;GB;LIN;52.9451889;-0.1601246
2460;Lisburn and Castlereagh;232;GB;LBC;54.4981584;-6.1306791
2494;Lisburn City Council;232;GB;LSB;54.4981584;-6.1306791
2340;Liverpool;232;GB;LIV;32.6564981;-115.4763241
2356;London Borough of Barking and Dagenham;232;GB;BDG;51.5540666;0.134017
2520;London Borough of Barnet;232;GB;BNE;51.6049673;-0.2076295
2307;London Borough of Bexley;232;GB;BEX;51.4519021;0.1171786
2291;London Borough of Brent;232;GB;BEN;51.5672808;-0.2710568
2490;London Borough of Bromley;232;GB;BRY;51.3679705;0.070062
2349;London Borough of Camden;232;GB;CMD;51.5454736;-0.1627902
2512;London Borough of Croydon;232;GB;CRY;51.3827446;-0.0985163
2532;London Borough of Ealing;232;GB;EAL;51.5250366;-0.3413965
2476;London Borough of Enfield;232;GB;ENF;51.6622909;-0.1180651
2411;London Borough of Hackney;232;GB;HCK;51.573445;-0.0724376
2448;London Borough of Hammersmith and Fulham;232;GB;HMF;51.4990156;-0.22915
2306;London Borough of Haringey;232;GB;HRY;51.5906113;-0.1109709
2385;London Borough of Harrow;232;GB;HRW;51.5881627;-0.3422851
2347;London Borough of Havering;232;GB;HAV;51.577924;0.2120829
2376;London Borough of Hillingdon;232;GB;HIL;51.5351832;-0.4481378
2380;London Borough of Hounslow;232;GB;HNS;51.4828358;-0.3882062
2319;London Borough of Islington;232;GB;ISL;51.5465063;-0.1058058
2396;London Borough of Lambeth;232;GB;LBH;51.4571477;-0.1230681
2358;London Borough of Lewisham;232;GB;LEW;51.4414579;-0.0117006
2483;London Borough of Merton;232;GB;MRT;51.4097742;-0.2108084
2418;London Borough of Newham;232;GB;NWM;51.5255162;0.0352163
2397;London Borough of Redbridge;232;GB;RDB;51.5886121;0.0823982
2501;London Borough of Richmond upon Thames;232;GB;RIC;51.4613054;-0.3037709
2432;London Borough of Southwark;232;GB;SWK;51.4880572;-0.0762838
2313;London Borough of Sutton;232;GB;STN;51.3573762;-0.1752796
2390;London Borough of Tower Hamlets;232;GB;TWH;51.5202607;-0.0293396
2326;London Borough of Waltham Forest;232;GB;WFT;51.5886383;-0.0117625
2434;London Borough of Wandsworth;232;GB;WND;51.4568274;-0.1896638
2322;Magherafelt District Council;232;GB;MFT;54.7553279;-6.6077487
2398;Manchester;232;GB;MAN;53.4807593;-2.2426305
2381;Medway;232;GB;MDW;42.1417641;-71.3967256
2328;Merthyr Tydfil County Borough;232;GB;MTY;51.7467474;-3.3813275
2320;Metropolitan Borough of Wigan;232;GB;WGN;53.5134812;-2.6106999
2429;Mid and East Antrim;232;GB;MEA;54.9399341;-6.1137423
2399;Mid Ulster;232;GB;MUL;54.6411301;-6.7522549
2332;Middlesbrough;232;GB;MDB;54.574227;-1.234956
2519;Midlothian;232;GB;MLN;32.475335;-97.0103181
2416;Milton Keynes;232;GB;MIK;52.0852038;-0.7333133
2402;Monmouthshire;232;GB;MON;51.81161;-2.7163417
2360;Moray;232;GB;MRY;57.6498476;-3.3168039
2348;Moyle District Council;232;GB;MYL;55.2047327;-6.253174
2351;Neath Port Talbot County Borough;232;GB;NTL;51.5978519;-3.7839668
2458;Newcastle upon Tyne;232;GB;NET;54.978252;-1.61778
2524;Newport;232;GB;NWP;37.5278234;-94.1043876
2350;Newry and Mourne District Council;232;GB;NYM;54.1742505;-6.3391992
2534;Newry, Mourne and Down;232;GB;NMD;54.2434287;-5.9577959
2317;Newtownabbey Borough Council;232;GB;NTA;54.6792422;-5.9591102
2473;Norfolk;232;GB;NFK;36.8507689;-76.2858726
2535;North Ayrshire;232;GB;NAY;55.6416731;-4.75946
2513;North Down Borough Council;232;GB;NDN;54.6536297;-5.6724925
2384;North East Lincolnshire;232;GB;NEL;53.5668201;-0.0815066
2487;North Lanarkshire;232;GB;NLK;55.8662432;-3.9613144
2453;North Lincolnshire;232;GB;NLN;53.6055592;-0.5596582
2430;North Somerset;232;GB;NSM;51.3879028;-2.7781091
2521;North Tyneside;232;GB;NTY;55.0182399;-1.4858436
2522;North Yorkshire;232;GB;NYK;53.9915028;-1.5412015
2480;Northamptonshire;232;GB;NTH;52.2729944;-0.8755515
2337;Northern Ireland;232;GB;NIR;54.7877149;-6.4923145
2365;Northumberland;232;GB;NBL;55.2082542;-2.0784138
2456;Nottinghamshire;232;GB;NTT;53.100319;-0.9936306
2477;Oldham;232;GB;OLD;42.2040598;-71.2048119
2314;Omagh District Council;232;GB;OMH;54.4513524;-7.7125018
2474;Orkney Islands;232;GB;ORK;58.9809401;-2.9605206
2353;Outer Hebrides;232;GB;ELS;57.7598918;-7.0194034
2321;Oxfordshire;232;GB;OXF;51.7612056;-1.2464674
2486;Pembrokeshire;232;GB;PEM;51.674078;-4.9088785
2325;Perth and Kinross;232;GB;PKN;56.3953817;-3.4283547
2302;Poole;232;GB;POL;50.71505;-1.987248
2441;Powys;232;GB;POW;52.6464249;-3.3260904
2455;Reading;232;GB;RDG;36.1486659;-95.9840012
2527;Redcar and Cleveland;232;GB;RCC;54.5971344;-1.0775997
2443;Renfrewshire;232;GB;RFW;55.846654;-4.5331259
2301;Rhondda Cynon Taf;232;GB;RCT;51.6490207;-3.4288692
2327;Rochdale;232;GB;RCH;53.6097136;-2.1561
2308;Rotherham;232;GB;ROT;53.4326035;-1.3635009
2492;Royal Borough of Greenwich;232;GB;GRE;51.4834627;0.0586202
2368;Royal Borough of Kensington and Chelsea;232;GB;KEC;51.4990805;-0.1938253
2481;Royal Borough of Kingston upon Thames;232;GB;KTT;51.378117;-0.292709
2472;Rutland;232;GB;RUT;43.6106237;-72.9726065
2502;Saint Helena;232;GB;SH-HL;-15.9650104;-5.7089241
2493;Salford;232;GB;SLF;53.4875235;-2.2901264
2341;Sandwell;232;GB;SAW;52.5361674;-2.010793
2335;Scotland;232;GB;SCT;56.4906712;-4.2026458
2346;Scottish Borders;232;GB;SCB;55.5485697;-2.7861388
2518;Sefton;232;GB;SFT;53.5034449;-2.970359
2295;Sheffield;232;GB;SHF;36.0950743;-80.2788466
2300;Shetland Islands;232;GB;ZET;60.5296507;-1.2659409
2407;Shropshire;232;GB;SHR;52.7063657;-2.7417849
2427;Slough;232;GB;SLG;51.5105384;-0.5950406
2469;Solihull;232;GB;SOL;52.411811;-1.77761
2386;Somerset;232;GB;SOM;51.105097;-2.9262307
2377;South Ayrshire;232;GB;SAY;55.4588988;-4.6291994
2400;South Gloucestershire;232;GB;SGC;51.5264361;-2.4728487
2362;South Lanarkshire;232;GB;SLK;55.6735909;-3.7819661
2409;South Tyneside;232;GB;STY;54.9636693;-1.4418634
2323;Southend-on-Sea;232;GB;SOS;51.5459269;0.7077123
2290;St Helens;232;GB;SHN;45.858961;-122.8212356
2447;Staffordshire;232;GB;STS;52.8792745;-2.0571868
2488;Stirling;232;GB;STG;56.1165227;-3.9369029
2394;Stockport;232;GB;SKP;53.4106316;-2.1575332
2421;Stockton-on-Tees;232;GB;STT;54.5704551;-1.3289821
2393;Strabane District Council;232;GB;STB;54.8273865;-7.4633103
2467;Suffolk;232;GB;SFK;52.1872472;0.9707801
2526;Surrey;232;GB;SRY;51.3147593;-0.5599501
2422;Swindon;232;GB;SWD;51.5557739;-1.7797176
2367;Tameside;232;GB;TAM;53.4805828;-2.0809891
2310;Telford and Wrekin;232;GB;TFW;52.7409916;-2.4868586
2468;Thurrock;232;GB;THR;51.4934557;0.3529197
2478;Torbay;232;GB;TOB;50.4392329;-3.5369899
2496;Torfaen;232;GB;TOF;51.7002253;-3.0446015
2293;Trafford;232;GB;TRF;40.3856246;-79.7589347
2375;United Kingdom;232;GB;UKM;55.378051;-3.435973
2299;Vale of Glamorgan;232;GB;VGL;51.4095958;-3.4848167
2465;Wakefield;232;GB;WKF;42.5039395;-71.0723391
2338;Wales;232;GB;WLS;52.1306607;-3.7837117
2292;Walsall;232;GB;WLL;52.586214;-1.982919
2420;Warrington;232;GB;WRT;40.2492741;-75.1340604
2505;Warwickshire;232;GB;WAR;52.2671353;-1.4675216
2471;West Berkshire;232;GB;WBK;51.4308255;-1.1444927
2440;West Dunbartonshire;232;GB;WDU;55.9450925;-4.5646259
2354;West Lothian;232;GB;WLN;55.9070198;-3.5517167
2296;West Sussex;232;GB;WSX;50.9280143;-0.4617075
2391;Wiltshire;232;GB;WIL;51.3491996;-1.9927105
2482;Windsor and Maidenhead;232;GB;WNM;51.4799712;-0.6242565
2408;Wirral;232;GB;WRL;53.3727181;-3.073754
2419;Wokingham;232;GB;WOK;51.410457;-0.833861
2510;Worcestershire;232;GB;WOR;52.2545225;-2.2668382
2436;Wrexham County Borough;232;GB;WRX;53.0301378;-3.0261487
1456;Alabama;233;US;AL;32.3182314;-86.902298
1400;Alaska;233;US;AK;64.2008413;-149.4936733
1424;American Samoa;233;US;AS;-14.270972;-170.132217
1434;Arizona;233;US;AZ;34.0489281;-111.0937311
1444;Arkansas;233;US;AR;35.20105;-91.8318334
1402;Baker Island;233;US;UM-81;0.1936266;-176.476908
1416;California;233;US;CA;36.778261;-119.4179324
1450;Colorado;233;US;CO;39.5500507;-105.7820674
1435;Connecticut;233;US;CT;41.6032207;-73.087749
1399;Delaware;233;US;DE;38.9108325;-75.5276699
1437;District of Columbia;233;US;DC;38.9071923;-77.0368707
1436;Florida;233;US;FL;27.6648274;-81.5157535
1455;Georgia;233;US;GA;32.1656221;-82.9000751
1412;Guam;233;US;GU;13.444304;144.793731
1411;Hawaii;233;US;HI;19.8967662;-155.5827818
1398;Howland Island;233;US;UM-84;0.8113219;-176.6182736
1460;Idaho;233;US;ID;44.0682019;-114.7420408
1425;Illinois;233;US;IL;40.6331249;-89.3985283
1440;Indiana;233;US;IN;40.2671941;-86.1349019
1459;Iowa;233;US;IA;41.8780025;-93.097702
1410;Jarvis Island;233;US;UM-86;-0.3743503;-159.9967206
1428;Johnston Atoll;233;US;UM-67;16.7295035;-169.5336477
1406;Kansas;233;US;KS;39.011902;-98.4842465
1419;Kentucky;233;US;KY;37.8393332;-84.2700179
1403;Kingman Reef;233;US;UM-89;6.383333;-162.416667
1457;Louisiana;233;US;LA;30.9842977;-91.9623327
1453;Maine;233;US;ME;45.253783;-69.4454689
1401;Maryland;233;US;MD;39.0457549;-76.6412712
1433;Massachusetts;233;US;MA;42.4072107;-71.3824374
1426;Michigan;233;US;MI;44.3148443;-85.6023643
1438;Midway Atoll;233;US;UM-71;28.2072168;-177.3734926
1420;Minnesota;233;US;MN;46.729553;-94.6858998
1430;Mississippi;233;US;MS;32.3546679;-89.3985283
1451;Missouri;233;US;MO;37.9642529;-91.8318334
1446;Montana;233;US;MT;46.8796822;-110.3625658
1439;Navassa Island;233;US;UM-76;18.4100689;-75.0114612
1408;Nebraska;233;US;NE;41.4925374;-99.9018131
1458;Nevada;233;US;NV;38.8026097;-116.419389
1404;New Hampshire;233;US;NH;43.1938516;-71.5723953
1417;New Jersey;233;US;NJ;40.0583238;-74.4056612
1423;New Mexico;233;US;NM;34.5199402;-105.8700901
1452;New York;233;US;NY;40.7127753;-74.0059728
1447;North Carolina;233;US;NC;35.7595731;-79.0192997
1418;North Dakota;233;US;ND;47.5514926;-101.0020119
1431;Northern Mariana Islands;233;US;MP;15.0979;145.6739
4851;Ohio;233;US;OH;40.4172871;-82.907123
1421;Oklahoma;233;US;OK;35.4675602;-97.5164276
1415;Oregon;233;US;OR;43.8041334;-120.5542012
1448;Palmyra Atoll;233;US;UM-95;5.8885026;-162.0786656
1422;Pennsylvania;233;US;PA;41.2033216;-77.1945247
1449;Puerto Rico;233;US;PR;18.220833;-66.590149
1461;Rhode Island;233;US;RI;41.5800945;-71.4774291
1443;South Carolina;233;US;SC;33.836081;-81.1637245
1445;South Dakota;233;US;SD;43.9695148;-99.9018131
1454;Tennessee;233;US;TN;35.5174913;-86.5804473
1407;Texas;233;US;TX;31.9685988;-99.9018131
1432;United States Minor Outlying Islands;233;US;UM;19.2823192;166.647047
1413;United States Virgin Islands;233;US;VI;18.335765;-64.896335
1414;Utah;233;US;UT;39.3209801;-111.0937311
1409;Vermont;233;US;VT;44.5588028;-72.5778415
1427;Virginia;233;US;VA;37.4315734;-78.6568942
1405;Wake Island;233;US;UM-79;19.279619;166.6499348
1462;Washington;233;US;WA;47.7510741;-120.7401385
1429;West Virginia;233;US;WV;38.5976262;-80.4549026
1441;Wisconsin;233;US;WI;43.7844397;-88.7878678
1442;Wyoming;233;US;WY;43.0759678;-107.2902839
3205;Artigas Department;235;UY;AR;-30.6175112;-56.9594559
3213;Canelones Department;235;UY;CA;-34.5408717;-55.93076
3211;Cerro Largo Department;235;UY;CL;-32.4411032;-54.3521753
3208;Colonia Department;235;UY;CO;-34.1294678;-57.6605184
3209;Durazno Department;235;UY;DU;-33.0232454;-56.0284644
3203;Flores Department;235;UY;FS;-33.5733753;-56.8945028
3217;Florida Department;235;UY;FD;28.0359495;-82.4579289
3215;Lavalleja Department;235;UY;LA;-33.9226175;-54.9765794
3206;Maldonado Department;235;UY;MA;-34.5597932;-54.8628552
3218;Montevideo Department;235;UY;MO;-34.8181587;-56.2138256
3212;Paysandú Department;235;UY;PA;-32.0667366;-57.3364789
3210;Río Negro Department;235;UY;RN;-32.7676356;-57.4295207
3207;Rivera Department;235;UY;RV;-31.4817421;-55.2435759
3216;Rocha Department;235;UY;RO;-33.9690081;-54.021485
3220;Salto Department;235;UY;SA;-31.388028;-57.9612455
3204;San José Department;235;UY;SJ;37.3492968;-121.9056049
3219;Soriano Department;235;UY;SO;-33.5102792;-57.7498103
3221;Tacuarembó Department;235;UY;TA;-31.7206837;-55.9859887
3214;Treinta y Tres Department;235;UY;TT;-33.0685086;-54.2858627
2540;Andijan Region;236;UZ;AN;40.7685941;72.236379
2541;Bukhara Region;236;UZ;BU;40.2504162;63.2032151
2538;Fergana Region;236;UZ;FA;40.4568081;71.2874209
2545;Jizzakh Region;236;UZ;JI;40.4706415;67.5708536
2548;Karakalpakstan;236;UZ;QR;43.8041334;59.4457988
2537;Namangan Region;236;UZ;NG;41.0510037;71.097317
2542;Navoiy Region;236;UZ;NW;42.6988575;64.6337685
2543;Qashqadaryo Region;236;UZ;QA;38.8986231;66.0463534
2544;Samarqand Region;236;UZ;SA;39.627012;66.9749731
2547;Sirdaryo Region;236;UZ;SI;40.3863808;68.7154975
2546;Surxondaryo Region;236;UZ;SU;37.9409005;67.5708536
2536;Tashkent;236;UZ;TK;41.2994958;69.2400734
2549;Tashkent Region;236;UZ;TO;41.2213234;69.8597406
2539;Xorazm Region;236;UZ;XO;41.3565336;60.8566686
4775;Malampa;237;VU;MAP;-16.4011405;167.6077865
4773;Penama;237;VU;PAM;-15.3795758;167.9053182
4776;Sanma;237;VU;SAM;-15.4840017;166.9182097
4774;Shefa;237;VU;SEE;32.805765;35.169971
4777;Tafea;237;VU;TAE;-18.7237827;169.0645056
4772;Torba;237;VU;TOB;37.07653;27.456573
2044;Amazonas;239;VE;Z;-3.4168427;-65.8560646
2050;Anzoátegui;239;VE;B;8.5913073;-63.9586111
4856;Apure;239;VE;C;6.9269483;-68.5247149
2047;Aragua;239;VE;D;10.0635758;-67.2847875
2049;Barinas;239;VE;E;8.6231498;-70.2371045
2039;Bolívar;239;VE;F;37.6144838;-93.4104749
4855;Capital District;239;VE;A;41.2614846;-95.9310807
2040;Carabobo;239;VE;G;10.1176433;-68.0477509
2034;Cojedes;239;VE;H;9.3816682;-68.3339275
2051;Delta Amacuro;239;VE;Y;8.8499307;-61.1403196
2035;Falcón;239;VE;I;11.1810674;-69.8597406
2046;Federal Dependencies of Venezuela;239;VE;W;10.9377053;-65.3569573
2045;Guárico;239;VE;J;8.7489309;-66.2367172
2038;Lara;239;VE;K;33.9822165;-118.1322747
2053;Mérida;239;VE;L;20.9673702;-89.5925857
2037;Miranda;239;VE;M;42.3519383;-71.5290766
2054;Monagas;239;VE;N;9.3241652;-63.0147578
2052;Nueva Esparta;239;VE;O;10.9970723;-63.9113296
2036;Portuguesa;239;VE;P;9.0943999;-69.097023
2056;Sucre;239;VE;R;-19.035345;-65.2592128
2048;Táchira;239;VE;S;7.9137001;-72.1416132
2043;Trujillo;239;VE;T;36.6734343;-121.6287588
2055;Vargas;239;VE;X;29.3052268;-94.7913854
2041;Yaracuy;239;VE;U;10.339389;-68.8108849
2042;Zulia;239;VE;V;10.2910237;-72.1416132
3794;An Giang;240;VN;44;10.5215836;105.1258955
3770;Bà Rịa-Vũng Tàu;240;VN;43;10.5417397;107.2429976
3815;Bắc Giang;240;VN;54;21.2819921;106.1974769
3822;Bắc Kạn;240;VN;53;22.3032923;105.876004
3804;Bạc Liêu;240;VN;55;9.2940027;105.7215663
3791;Bắc Ninh;240;VN;56;21.121444;106.1110501
3796;Bến Tre;240;VN;50;10.2433556;106.375551
3785;Bình Dương;240;VN;57;11.3254024;106.477017
3830;Bình Định;240;VN;31;14.1665324;108.902683
3797;Bình Phước;240;VN;58;11.7511894;106.7234639
3787;Bình Thuận;240;VN;40;11.0903703;108.0720781
3778;Cà Mau;240;VN;59;9.1526728;105.1960795
4925;Cần Thơ;240;VN;CT;10.0341851;105.7225507
3782;Cao Bằng;240;VN;04;22.635689;106.2522143
3806;Đà Nẵng;240;VN;DN;16.0544068;108.2021667
3829;Đắk Lắk;240;VN;33;12.7100116;108.2377519
3823;Đắk Nông;240;VN;72;12.2646476;107.609806
3773;Điện Biên;240;VN;71;21.8042309;103.1076525
3821;Đồng Nai;240;VN;39;11.0686305;107.1675976
3769;Đồng Tháp;240;VN;45;10.4937989;105.6881788
3813;Gia Lai;240;VN;30;13.8078943;108.109375
3779;Hà Giang;240;VN;03;22.8025588;104.9784494
3802;Hà Nam;240;VN;63;20.5835196;105.92299
3810;Hà Nội;240;VN;HN;21.0277644;105.8341598
3816;Hà Tĩnh;240;VN;23;18.3559537;105.8877494
3827;Hải Dương;240;VN;61;20.9373413;106.3145542
3783;Hải Phòng;240;VN;HP;20.8449115;106.6880841
3777;Hậu Giang;240;VN;73;9.757898;105.6412527
3811;Hồ Chí Minh;240;VN;SG;10.8230989;106.6296638
3799;Hòa Bình;240;VN;14;20.6861265;105.3131185
3768;Hưng Yên;240;VN;66;20.8525711;106.0169971
3793;Khánh Hòa;240;VN;34;12.2585098;109.0526076
3800;Kiên Giang;240;VN;47;9.8249587;105.1258955
3772;Kon Tum;240;VN;28;14.3497403;108.0004606
3825;Lai Châu;240;VN;01;22.3862227;103.4702631
3818;Lâm Đồng;240;VN;35;11.5752791;108.1428669
3792;Lạng Sơn;240;VN;09;21.853708;106.761519
3817;Lào Cai;240;VN;02;22.4809431;103.9754959
3808;Long An;240;VN;41;10.5607168;106.6497623
3789;Nam Định;240;VN;67;20.4388225;106.1621053
3780;Nghệ An;240;VN;22;19.2342489;104.9200365
3786;Ninh Bình;240;VN;18;20.2506149;105.9744536
3788;Ninh Thuận;240;VN;36;11.6738767;108.8629572
3801;Phú Thọ;240;VN;68;21.268443;105.2045573
3824;Phú Yên;240;VN;32;13.0881861;109.0928764
3809;Quảng Bình;240;VN;24;17.6102715;106.3487474
3776;Quảng Nam;240;VN;27;15.5393538;108.019102
3828;Quảng Ngãi;240;VN;29;15.1213873;108.8044145
3814;Quảng Ninh;240;VN;13;21.006382;107.2925144
3803;Quảng Trị;240;VN;25;16.7403074;107.1854679
3819;Sóc Trăng;240;VN;52;9.602521;105.9739049
3812;Sơn La;240;VN;05;21.1022284;103.7289167
3826;Tây Ninh;240;VN;37;11.3351554;106.1098854
3775;Thái Bình;240;VN;20;20.4463471;106.3365828
3807;Thái Nguyên;240;VN;69;21.5671559;105.8252038
3771;Thanh Hóa;240;VN;21;19.806692;105.7851816
3798;Thừa Thiên-Huế;240;VN;26;16.467397;107.5905326
3781;Tiền Giang;240;VN;46;10.4493324;106.3420504
3805;Trà Vinh;240;VN;51;9.812741;106.2992912
3795;Tuyên Quang;240;VN;07;21.7767246;105.2280196
3790;Vĩnh Long;240;VN;49;10.239574;105.9571928
3774;Vĩnh Phúc;240;VN;70;21.3608805;105.5474373
3784;Yên Bái;240;VN;06;21.7167689;104.8985878
1242;'Adan Governorate;245;YE;AD;12.8257481;44.7943804
1250;'Amran Governorate;245;YE;AM;16.2569214;43.9436788
1237;Abyan Governorate;245;YE;AB;13.6343413;46.0563212
1240;Al Bayda' Governorate;245;YE;BA;14.3588662;45.4498065
1241;Al Hudaydah Governorate;245;YE;HU;15.3053072;43.0194897
1243;Al Jawf Governorate;245;YE;JA;16.7901819;45.2993862
1251;Al Mahrah Governorate;245;YE;MR;16.5238423;51.6834275
1235;Al Mahwit Governorate;245;YE;MW;15.3963229;43.5606946
1246;Dhamar Governorate;245;YE;DH;14.7195344;44.2479015
1238;Hadhramaut Governorate;245;YE;HD;16.9304135;49.3653149
1244;Hajjah Governorate;245;YE;HJ;16.1180631;43.329466
1233;Ibb Governorate;245;YE;IB;14.1415717;44.2479015
1245;Lahij Governorate;245;YE;LA;13.1489588;44.8505495
1234;Ma'rib Governorate;245;YE;MA;15.515888;45.4498065
1248;Raymah Governorate;245;YE;RA;14.6277682;43.7142484
1249;Saada Governorate;245;YE;SD;16.8476528;43.9436788
1232;Sana'a;245;YE;SA;15.3694451;44.1910066
1236;Sana'a Governorate;245;YE;SN;15.3168913;44.4748018
1247;Shabwah Governorate;245;YE;SH;14.7546303;46.516262
1239;Socotra Governorate;245;YE;SU;12.4634205;53.8237385
1231;Ta'izz Governorate;245;YE;TA;13.5775886;44.0177989
1986;Central Province;246;ZM;02;7.2564996;80.7214417
1984;Copperbelt Province;246;ZM;08;-13.0570073;27.5495846
1991;Eastern Province;246;ZM;03;23.1669688;49.3653149
1987;Luapula Province;246;ZM;04;-11.564831;29.0459927
1988;Lusaka Province;246;ZM;09;-15.3657129;29.2320784
1989;Muchinga Province;246;ZM;10;-15.382193;28.26158
1982;Northern Province;246;ZM;05;8.8855027;80.2767327
1985;Northwestern Province;246;ZM;06;-13.0050258;24.9042208
1990;Southern Province;246;ZM;07;6.237375;80.543845
1983;Western Province;246;ZM;01;6.9016086;80.0087746
1956;Bulawayo Province;247;ZW;BU;-20.1489505;28.5331038
1958;Harare Province;247;ZW;HA;-17.8216288;31.0492259
1959;Manicaland;247;ZW;MA;-18.9216386;32.174605
1955;Mashonaland Central Province;247;ZW;MC;-16.7644295;31.0793705
1951;Mashonaland East Province;247;ZW;ME;-18.5871642;31.2626366
1953;Mashonaland West Province;247;ZW;MW;-17.4851029;29.7889248
1960;Masvingo Province;247;ZW;MV;-20.6241509;31.2626366
1954;Matabeleland North Province;247;ZW;MN;-18.5331566;27.5495846
1952;Matabeleland South Province;247;ZW;MS;-21.052337;29.0459927
1957;Midlands Province;247;ZW;MI;-19.0552009;29.6035495
